<?xml version="1.0" encoding="UTF-8"?>
<gpx version="1.1" creator="tools/extract_original.py"
     xmlns="http://www.topografix.com/GPX/1/1">
  <metadata><name>Tag 3: Lörrach → Jura</name></metadata>
  <wpt lat="47.546872" lon="7.511508"><name>Smooth Route from Hegenheim to Oltingue</name></wpt>
  <trk>
    <name>Tag 3: Lörrach → Jura</name>
    <trkseg>
      <trkpt lat="47.68734" lon="7.50913"><ele>234.0</ele></trkpt>
      <trkpt lat="47.6874" lon="7.50827"><ele>234.0</ele></trkpt>
      <trkpt lat="47.68665" lon="7.50816"><ele>234.4</ele></trkpt>
      <trkpt lat="47.68652" lon="7.50752"><ele>234.8</ele></trkpt>
      <trkpt lat="47.68666" lon="7.50541"><ele>236.8</ele></trkpt>
      <trkpt lat="47.68701" lon="7.50406"><ele>238.8</ele></trkpt>
      <trkpt lat="47.68414" lon="7.50468"><ele>240.3</ele></trkpt>
      <trkpt lat="47.68014" lon="7.50111"><ele>241.2</ele></trkpt>
      <trkpt lat="47.67965" lon="7.50134"><ele>241.2</ele></trkpt>
      <trkpt lat="47.67701" lon="7.50076"><ele>241.0</ele></trkpt>
      <trkpt lat="47.67553" lon="7.5001"><ele>242.1</ele></trkpt>
      <trkpt lat="47.67339" lon="7.49863"><ele>245.6</ele></trkpt>
      <trkpt lat="47.67207" lon="7.49831"><ele>246.6</ele></trkpt>
      <trkpt lat="47.66994" lon="7.49834"><ele>247.0</ele></trkpt>
      <trkpt lat="47.66945" lon="7.49815"><ele>247.0</ele></trkpt>
      <trkpt lat="47.66683" lon="7.49854"><ele>246.8</ele></trkpt>
      <trkpt lat="47.66496" lon="7.49928"><ele>247.1</ele></trkpt>
      <trkpt lat="47.66333" lon="7.5004"><ele>248.1</ele></trkpt>
      <trkpt lat="47.66334" lon="7.50065"><ele>248.2</ele></trkpt>
      <trkpt lat="47.66147" lon="7.50355"><ele>248.9</ele></trkpt>
      <trkpt lat="47.66112" lon="7.50359"><ele>249.0</ele></trkpt>
      <trkpt lat="47.66077" lon="7.50415"><ele>249.1</ele></trkpt>
      <trkpt lat="47.66002" lon="7.5045"><ele>249.4</ele></trkpt>
      <trkpt lat="47.65601" lon="7.50473"><ele>250.4</ele></trkpt>
      <trkpt lat="47.6537" lon="7.50442"><ele>249.0</ele></trkpt>
      <trkpt lat="47.65035" lon="7.50904"><ele>247.4</ele></trkpt>
      <trkpt lat="47.64891" lon="7.50999"><ele>247.3</ele></trkpt>
      <trkpt lat="47.64699" lon="7.51074"><ele>247.5</ele></trkpt>
      <trkpt lat="47.64331" lon="7.50974"><ele>249.2</ele></trkpt>
      <trkpt lat="47.64005" lon="7.51196"><ele>249.6</ele></trkpt>
      <trkpt lat="47.63858" lon="7.51321"><ele>248.9</ele></trkpt>
      <trkpt lat="47.63801" lon="7.51422"><ele>248.2</ele></trkpt>
      <trkpt lat="47.63716" lon="7.51494"><ele>247.9</ele></trkpt>
      <trkpt lat="47.63667" lon="7.51631"><ele>247.5</ele></trkpt>
      <trkpt lat="47.63472" lon="7.51922"><ele>246.3</ele></trkpt>
      <trkpt lat="47.63306" lon="7.52281"><ele>245.6</ele></trkpt>
      <trkpt lat="47.63124" lon="7.52355"><ele>246.2</ele></trkpt>
      <trkpt lat="47.62926" lon="7.52481"><ele>248.0</ele></trkpt>
      <trkpt lat="47.6259" lon="7.52711"><ele>250.0</ele></trkpt>
      <trkpt lat="47.62406" lon="7.52866"><ele>249.6</ele></trkpt>
      <trkpt lat="47.62361" lon="7.52865"><ele>249.6</ele></trkpt>
      <trkpt lat="47.62346" lon="7.529"><ele>249.7</ele></trkpt>
      <trkpt lat="47.61636" lon="7.53355"><ele>251.8</ele></trkpt>
      <trkpt lat="47.61231" lon="7.53741"><ele>253.3</ele></trkpt>
      <trkpt lat="47.60787" lon="7.54297"><ele>252.4</ele></trkpt>
      <trkpt lat="47.60685" lon="7.54399"><ele>251.3</ele></trkpt>
      <trkpt lat="47.60556" lon="7.54459"><ele>250.4</ele></trkpt>
      <trkpt lat="47.60496" lon="7.54426"><ele>250.5</ele></trkpt>
      <trkpt lat="47.6048" lon="7.54461"><ele>250.6</ele></trkpt>
      <trkpt lat="47.60414" lon="7.54475"><ele>250.8</ele></trkpt>
      <trkpt lat="47.60303" lon="7.54549"><ele>251.0</ele></trkpt>
      <trkpt lat="47.60138" lon="7.54755"><ele>252.5</ele></trkpt>
      <trkpt lat="47.59992" lon="7.55046"><ele>252.9</ele></trkpt>
      <trkpt lat="47.59905" lon="7.55115"><ele>253.1</ele></trkpt>
      <trkpt lat="47.5989" lon="7.55105"><ele>253.1</ele></trkpt>
      <trkpt lat="47.59877" lon="7.55137"><ele>253.2</ele></trkpt>
      <trkpt lat="47.59408" lon="7.55506"><ele>252.4</ele></trkpt>
      <trkpt lat="47.59355" lon="7.5548"><ele>252.5</ele></trkpt>
      <trkpt lat="47.59341" lon="7.55506"><ele>252.6</ele></trkpt>
      <trkpt lat="47.59262" lon="7.55411"><ele>253.1</ele></trkpt>
      <trkpt lat="47.58485" lon="7.56148"><ele>256.9</ele></trkpt>
      <trkpt lat="47.58334" lon="7.55821"><ele>258.7</ele></trkpt>
      <trkpt lat="47.58259" lon="7.55893"><ele>259.3</ele></trkpt>
      <trkpt lat="47.58236" lon="7.5584"><ele>259.5</ele></trkpt>
      <trkpt lat="47.58055" lon="7.55799"><ele>260.2</ele></trkpt>
      <trkpt lat="47.57905" lon="7.55788"><ele>260.9</ele></trkpt>
      <trkpt lat="47.57873" lon="7.55838"><ele>261.7</ele></trkpt>
      <trkpt lat="47.57703" lon="7.55535"><ele>266.7</ele></trkpt>
      <trkpt lat="47.57704" lon="7.55505"><ele>267.1</ele></trkpt>
      <trkpt lat="47.57687" lon="7.55506"><ele>267.4</ele></trkpt>
      <trkpt lat="47.57581" lon="7.55324"><ele>269.9</ele></trkpt>
      <trkpt lat="47.57515" lon="7.55317"><ele>271.3</ele></trkpt>
      <trkpt lat="47.57574" lon="7.55229"><ele>273.0</ele></trkpt>
      <trkpt lat="47.56733" lon="7.53712"><ele>273.4</ele></trkpt>
      <trkpt lat="47.56606" lon="7.532"><ele>275.7</ele></trkpt>
      <trkpt lat="47.56238" lon="7.5295"><ele>279.3</ele></trkpt>
      <trkpt lat="47.56166" lon="7.52839"><ele>280.6</ele></trkpt>
      <trkpt lat="47.56152" lon="7.52663"><ele>282.2</ele></trkpt>
      <trkpt lat="47.56124" lon="7.52555"><ele>282.7</ele></trkpt>
      <trkpt lat="47.56158" lon="7.52496"><ele>283.0</ele></trkpt>
      <trkpt lat="47.56156" lon="7.52435"><ele>283.2</ele></trkpt>
      <trkpt lat="47.55918" lon="7.51997"><ele>291.0</ele></trkpt>
      <trkpt lat="47.55779" lon="7.51899"><ele>294.8</ele></trkpt>
      <trkpt lat="47.55654" lon="7.51771"><ele>298.6</ele></trkpt>
      <trkpt lat="47.55465" lon="7.51863"><ele>303.9</ele></trkpt>
      <trkpt lat="47.55172" lon="7.51876"><ele>310.7</ele></trkpt>
      <trkpt lat="47.55067" lon="7.51802"><ele>311.4</ele></trkpt>
      <trkpt lat="47.54878" lon="7.51604"><ele>310.9</ele></trkpt>
      <trkpt lat="47.5477" lon="7.51397"><ele>312.0</ele></trkpt>
      <trkpt lat="47.54628" lon="7.50988"><ele>317.0</ele></trkpt>
      <trkpt lat="47.54552" lon="7.50821"><ele>317.6</ele></trkpt>
      <trkpt lat="47.5453" lon="7.50645"><ele>319.5</ele></trkpt>
      <trkpt lat="47.54493" lon="7.50544"><ele>320.9</ele></trkpt>
      <trkpt lat="47.54358" lon="7.50345"><ele>324.4</ele></trkpt>
      <trkpt lat="47.54127" lon="7.50065"><ele>328.8</ele></trkpt>
      <trkpt lat="47.54052" lon="7.49884"><ele>330.9</ele></trkpt>
      <trkpt lat="47.54007" lon="7.49658"><ele>333.6</ele></trkpt>
      <trkpt lat="47.53847" lon="7.49878"><ele>342.6</ele></trkpt>
      <trkpt lat="47.5372" lon="7.49953"><ele>351.1</ele></trkpt>
      <trkpt lat="47.53588" lon="7.49971"><ele>359.2</ele></trkpt>
      <trkpt lat="47.53552" lon="7.50196"><ele>368.8</ele></trkpt>
      <trkpt lat="47.5353" lon="7.50249"><ele>371.8</ele></trkpt>
      <trkpt lat="47.5331" lon="7.50523"><ele>389.2</ele></trkpt>
      <trkpt lat="47.53083" lon="7.50682"><ele>395.4</ele></trkpt>
      <trkpt lat="47.5286" lon="7.50955"><ele>378.9</ele></trkpt>
      <trkpt lat="47.52804" lon="7.50971"><ele>374.5</ele></trkpt>
      <trkpt lat="47.52712" lon="7.50908"><ele>366.8</ele></trkpt>
      <trkpt lat="47.52647" lon="7.50922"><ele>362.6</ele></trkpt>
      <trkpt lat="47.52512" lon="7.51242"><ele>350.9</ele></trkpt>
      <trkpt lat="47.52434" lon="7.51336"><ele>348.8</ele></trkpt>
      <trkpt lat="47.52401" lon="7.51514"><ele>350.3</ele></trkpt>
      <trkpt lat="47.522" lon="7.51484"><ele>353.7</ele></trkpt>
      <trkpt lat="47.51992" lon="7.51492"><ele>357.2</ele></trkpt>
      <trkpt lat="47.5159" lon="7.51593"><ele>365.7</ele></trkpt>
      <trkpt lat="47.51406" lon="7.51537"><ele>370.4</ele></trkpt>
      <trkpt lat="47.51274" lon="7.51552"><ele>370.9</ele></trkpt>
      <trkpt lat="47.51059" lon="7.51522"><ele>355.4</ele></trkpt>
      <trkpt lat="47.50982" lon="7.5159"><ele>343.2</ele></trkpt>
      <trkpt lat="47.50833" lon="7.51891"><ele>319.2</ele></trkpt>
      <trkpt lat="47.50765" lon="7.51935"><ele>316.2</ele></trkpt>
      <trkpt lat="47.50579" lon="7.5186"><ele>316.0</ele></trkpt>
      <trkpt lat="47.49913" lon="7.51956"><ele>351.1</ele></trkpt>
      <trkpt lat="47.49746" lon="7.5191"><ele>353.2</ele></trkpt>
      <trkpt lat="47.49446" lon="7.51874"><ele>346.9</ele></trkpt>
      <trkpt lat="47.49243" lon="7.51701"><ele>348.7</ele></trkpt>
      <trkpt lat="47.49205" lon="7.51647"><ele>349.9</ele></trkpt>
      <trkpt lat="47.49011" lon="7.51162"><ele>359.3</ele></trkpt>
      <trkpt lat="47.49015" lon="7.50762"><ele>366.1</ele></trkpt>
      <trkpt lat="47.48915" lon="7.50212"><ele>382.9</ele></trkpt>
      <trkpt lat="47.48873" lon="7.49871"><ele>387.1</ele></trkpt>
      <trkpt lat="47.48794" lon="7.49906"><ele>388.4</ele></trkpt>
      <trkpt lat="47.48661" lon="7.49855"><ele>390.9</ele></trkpt>
      <trkpt lat="47.48413" lon="7.49876"><ele>397.3</ele></trkpt>
      <trkpt lat="47.48181" lon="7.49946"><ele>408.1</ele></trkpt>
      <trkpt lat="47.48047" lon="7.49908"><ele>418.7</ele></trkpt>
      <trkpt lat="47.47863" lon="7.49625"><ele>438.3</ele></trkpt>
      <trkpt lat="47.4765" lon="7.49472"><ele>462.6</ele></trkpt>
      <trkpt lat="47.47441" lon="7.49221"><ele>488.4</ele></trkpt>
      <trkpt lat="47.47365" lon="7.49079"><ele>496.4</ele></trkpt>
      <trkpt lat="47.473" lon="7.49022"><ele>501.0</ele></trkpt>
      <trkpt lat="47.47149" lon="7.48972"><ele>506.3</ele></trkpt>
      <trkpt lat="47.47031" lon="7.48777"><ele>509.9</ele></trkpt>
      <trkpt lat="47.46957" lon="7.48733"><ele>512.8</ele></trkpt>
      <trkpt lat="47.46967" lon="7.48688"><ele>514.4</ele></trkpt>
      <trkpt lat="47.47078" lon="7.48592"><ele>520.1</ele></trkpt>
      <trkpt lat="47.4712" lon="7.48516"><ele>523.3</ele></trkpt>
      <trkpt lat="47.4719" lon="7.48203"><ele>531.7</ele></trkpt>
      <trkpt lat="47.47181" lon="7.48059"><ele>532.9</ele></trkpt>
      <trkpt lat="47.4708" lon="7.47648"><ele>526.8</ele></trkpt>
      <trkpt lat="47.46904" lon="7.47265"><ele>514.3</ele></trkpt>
      <trkpt lat="47.46798" lon="7.47092"><ele>515.8</ele></trkpt>
      <trkpt lat="47.46698" lon="7.46639"><ele>523.9</ele></trkpt>
      <trkpt lat="47.4663" lon="7.46598"><ele>526.6</ele></trkpt>
      <trkpt lat="47.46577" lon="7.46487"><ele>529.8</ele></trkpt>
      <trkpt lat="47.46366" lon="7.46395"><ele>542.8</ele></trkpt>
      <trkpt lat="47.46219" lon="7.46386"><ele>556.7</ele></trkpt>
      <trkpt lat="47.46127" lon="7.46329"><ele>567.0</ele></trkpt>
      <trkpt lat="47.46028" lon="7.46141"><ele>582.9</ele></trkpt>
      <trkpt lat="47.45867" lon="7.45995"><ele>603.8</ele></trkpt>
      <trkpt lat="47.45787" lon="7.45867"><ele>615.9</ele></trkpt>
      <trkpt lat="47.45737" lon="7.45656"><ele>632.7</ele></trkpt>
      <trkpt lat="47.45657" lon="7.45475"><ele>648.5</ele></trkpt>
      <trkpt lat="47.45642" lon="7.45165"><ele>661.6</ele></trkpt>
      <trkpt lat="47.45623" lon="7.45111"><ele>662.4</ele></trkpt>
      <trkpt lat="47.45583" lon="7.45086"><ele>663.2</ele></trkpt>
      <trkpt lat="47.45551" lon="7.45097"><ele>665.6</ele></trkpt>
      <trkpt lat="47.45416" lon="7.45211"><ele>679.5</ele></trkpt>
      <trkpt lat="47.45286" lon="7.45271"><ele>696.5</ele></trkpt>
      <trkpt lat="47.45136" lon="7.45422"><ele>719.0</ele></trkpt>
      <trkpt lat="47.45029" lon="7.45669"><ele>736.8</ele></trkpt>
      <trkpt lat="47.45036" lon="7.45728"><ele>738.4</ele></trkpt>
      <trkpt lat="47.45075" lon="7.45812"><ele>738.6</ele></trkpt>
      <trkpt lat="47.45069" lon="7.45858"><ele>738.6</ele></trkpt>
      <trkpt lat="47.45038" lon="7.4588"><ele>738.7</ele></trkpt>
      <trkpt lat="47.44923" lon="7.4557"><ele>738.0</ele></trkpt>
      <trkpt lat="47.4494" lon="7.44975"><ele>765.8</ele></trkpt>
      <trkpt lat="47.44929" lon="7.44705"><ele>774.3</ele></trkpt>
      <trkpt lat="47.44757" lon="7.4413"><ele>787.7</ele></trkpt>
      <trkpt lat="47.44528" lon="7.4354"><ele>799.6</ele></trkpt>
      <trkpt lat="47.44383" lon="7.42817"><ele>794.9</ele></trkpt>
      <trkpt lat="47.44185" lon="7.42747"><ele>786.3</ele></trkpt>
      <trkpt lat="47.44127" lon="7.42537"><ele>779.6</ele></trkpt>
      <trkpt lat="47.43985" lon="7.42187"><ele>764.2</ele></trkpt>
      <trkpt lat="47.44001" lon="7.42086"><ele>760.6</ele></trkpt>
      <trkpt lat="47.44084" lon="7.41981"><ele>756.4</ele></trkpt>
      <trkpt lat="47.44126" lon="7.41986"><ele>754.8</ele></trkpt>
      <trkpt lat="47.443" lon="7.42105"><ele>746.9</ele></trkpt>
      <trkpt lat="47.44333" lon="7.42075"><ele>744.0</ele></trkpt>
      <trkpt lat="47.44317" lon="7.41922"><ele>737.2</ele></trkpt>
      <trkpt lat="47.44288" lon="7.41822"><ele>733.7</ele></trkpt>
      <trkpt lat="47.44124" lon="7.41506"><ele>722.4</ele></trkpt>
      <trkpt lat="47.44113" lon="7.41282"><ele>716.9</ele></trkpt>
      <trkpt lat="47.44077" lon="7.41093"><ele>712.0</ele></trkpt>
      <trkpt lat="47.44011" lon="7.40982"><ele>708.1</ele></trkpt>
      <trkpt lat="47.43929" lon="7.40902"><ele>700.2</ele></trkpt>
      <trkpt lat="47.43865" lon="7.40693"><ele>689.2</ele></trkpt>
      <trkpt lat="47.4381" lon="7.40602"><ele>684.2</ele></trkpt>
      <trkpt lat="47.43672" lon="7.40569"><ele>676.6</ele></trkpt>
      <trkpt lat="47.43614" lon="7.40599"><ele>673.2</ele></trkpt>
      <trkpt lat="47.43516" lon="7.4053"><ele>664.1</ele></trkpt>
      <trkpt lat="47.43427" lon="7.40564"><ele>655.7</ele></trkpt>
      <trkpt lat="47.4336" lon="7.40541"><ele>648.0</ele></trkpt>
      <trkpt lat="47.43236" lon="7.40434"><ele>632.5</ele></trkpt>
      <trkpt lat="47.43165" lon="7.40433"><ele>625.4</ele></trkpt>
      <trkpt lat="47.43094" lon="7.40338"><ele>616.5</ele></trkpt>
      <trkpt lat="47.43051" lon="7.40164"><ele>605.3</ele></trkpt>
      <trkpt lat="47.42972" lon="7.40017"><ele>594.8</ele></trkpt>
      <trkpt lat="47.42985" lon="7.39884"><ele>588.5</ele></trkpt>
      <trkpt lat="47.43108" lon="7.39626"><ele>577.3</ele></trkpt>
      <trkpt lat="47.43182" lon="7.39622"><ele>572.9</ele></trkpt>
      <trkpt lat="47.43189" lon="7.396"><ele>571.9</ele></trkpt>
      <trkpt lat="47.43093" lon="7.39561"><ele>558.9</ele></trkpt>
      <trkpt lat="47.4297" lon="7.39424"><ele>539.3</ele></trkpt>
      <trkpt lat="47.42908" lon="7.3952"><ele>527.8</ele></trkpt>
      <trkpt lat="47.42798" lon="7.39805"><ele>508.1</ele></trkpt>
      <trkpt lat="47.42684" lon="7.4021"><ele>468.3</ele></trkpt>
      <trkpt lat="47.42693" lon="7.40411"><ele>457.8</ele></trkpt>
      <trkpt lat="47.42765" lon="7.40644"><ele>447.8</ele></trkpt>
      <trkpt lat="47.42762" lon="7.40933"><ele>438.3</ele></trkpt>
      <trkpt lat="47.42737" lon="7.40683"><ele>437.4</ele></trkpt>
      <trkpt lat="47.42657" lon="7.40421"><ele>438.8</ele></trkpt>
      <trkpt lat="47.42613" lon="7.40206"><ele>440.0</ele></trkpt>
      <trkpt lat="47.42626" lon="7.39834"><ele>442.7</ele></trkpt>
      <trkpt lat="47.4267" lon="7.3957"><ele>444.3</ele></trkpt>
      <trkpt lat="47.42762" lon="7.3939"><ele>450.0</ele></trkpt>
      <trkpt lat="47.42863" lon="7.39287"><ele>454.4</ele></trkpt>
      <trkpt lat="47.4288" lon="7.39155"><ele>457.6</ele></trkpt>
      <trkpt lat="47.42969" lon="7.39077"><ele>459.8</ele></trkpt>
      <trkpt lat="47.43036" lon="7.38828"><ele>461.8</ele></trkpt>
      <trkpt lat="47.43028" lon="7.38699"><ele>462.0</ele></trkpt>
      <trkpt lat="47.43044" lon="7.38605"><ele>461.7</ele></trkpt>
      <trkpt lat="47.43243" lon="7.38157"><ele>468.3</ele></trkpt>
      <trkpt lat="47.43259" lon="7.37881"><ele>477.3</ele></trkpt>
      <trkpt lat="47.43375" lon="7.37515"><ele>475.7</ele></trkpt>
      <trkpt lat="47.43416" lon="7.37202"><ele>473.5</ele></trkpt>
      <trkpt lat="47.43417" lon="7.37041"><ele>474.3</ele></trkpt>
      <trkpt lat="47.43444" lon="7.36838"><ele>477.9</ele></trkpt>
      <trkpt lat="47.43405" lon="7.36652"><ele>480.3</ele></trkpt>
      <trkpt lat="47.43403" lon="7.36428"><ele>481.1</ele></trkpt>
      <trkpt lat="47.43432" lon="7.36273"><ele>480.5</ele></trkpt>
      <trkpt lat="47.43438" lon="7.3609"><ele>480.5</ele></trkpt>
      <trkpt lat="47.435" lon="7.35724"><ele>480.4</ele></trkpt>
      <trkpt lat="47.43469" lon="7.35362"><ele>483.4</ele></trkpt>
      <trkpt lat="47.43603" lon="7.34933"><ele>487.6</ele></trkpt>
      <trkpt lat="47.43655" lon="7.34554"><ele>491.8</ele></trkpt>
      <trkpt lat="47.43772" lon="7.34483"><ele>494.1</ele></trkpt>
      <trkpt lat="47.43841" lon="7.34366"><ele>494.7</ele></trkpt>
      <trkpt lat="47.4393" lon="7.34134"><ele>495.7</ele></trkpt>
      <trkpt lat="47.44012" lon="7.34029"><ele>496.2</ele></trkpt>
      <trkpt lat="47.44071" lon="7.33988"><ele>496.4</ele></trkpt>
      <trkpt lat="47.44142" lon="7.33866"><ele>496.7</ele></trkpt>
      <trkpt lat="47.44127" lon="7.33633"><ele>499.0</ele></trkpt>
      <trkpt lat="47.442" lon="7.33069"><ele>508.7</ele></trkpt>
      <trkpt lat="47.44172" lon="7.3293"><ele>510.3</ele></trkpt>
      <trkpt lat="47.44105" lon="7.32755"><ele>509.2</ele></trkpt>
      <trkpt lat="47.44019" lon="7.32691"><ele>509.1</ele></trkpt>
      <trkpt lat="47.43933" lon="7.32408"><ele>509.8</ele></trkpt>
      <trkpt lat="47.43901" lon="7.32062"><ele>512.7</ele></trkpt>
      <trkpt lat="47.43929" lon="7.31924"><ele>513.7</ele></trkpt>
      <trkpt lat="47.43927" lon="7.31614"><ele>516.2</ele></trkpt>
      <trkpt lat="47.43832" lon="7.31162"><ele>522.9</ele></trkpt>
      <trkpt lat="47.43945" lon="7.30488"><ele>526.0</ele></trkpt>
      <trkpt lat="47.43926" lon="7.30181"><ele>529.5</ele></trkpt>
      <trkpt lat="47.43892" lon="7.30132"><ele>530.5</ele></trkpt>
      <trkpt lat="47.43769" lon="7.30104"><ele>532.9</ele></trkpt>
      <trkpt lat="47.43692" lon="7.30056"><ele>534.1</ele></trkpt>
      <trkpt lat="47.43581" lon="7.29818"><ele>536.6</ele></trkpt>
      <trkpt lat="47.43547" lon="7.29589"><ele>540.2</ele></trkpt>
      <trkpt lat="47.43418" lon="7.29474"><ele>545.0</ele></trkpt>
      <trkpt lat="47.43372" lon="7.2936"><ele>548.1</ele></trkpt>
      <trkpt lat="47.43367" lon="7.29186"><ele>549.7</ele></trkpt>
      <trkpt lat="47.43507" lon="7.28853"><ele>549.4</ele></trkpt>
      <trkpt lat="47.43543" lon="7.28675"><ele>552.2</ele></trkpt>
      <trkpt lat="47.43532" lon="7.28412"><ele>559.3</ele></trkpt>
      <trkpt lat="47.43486" lon="7.28171"><ele>560.2</ele></trkpt>
      <trkpt lat="47.43315" lon="7.28014"><ele>561.3</ele></trkpt>
      <trkpt lat="47.43257" lon="7.2779"><ele>560.0</ele></trkpt>
      <trkpt lat="47.43173" lon="7.27717"><ele>560.7</ele></trkpt>
      <trkpt lat="47.4304" lon="7.27415"><ele>565.4</ele></trkpt>
      <trkpt lat="47.42838" lon="7.27194"><ele>570.8</ele></trkpt>
      <trkpt lat="47.42716" lon="7.26977"><ele>575.5</ele></trkpt>
      <trkpt lat="47.42676" lon="7.26583"><ele>580.1</ele></trkpt>
      <trkpt lat="47.42622" lon="7.2637"><ele>584.0</ele></trkpt>
      <trkpt lat="47.42598" lon="7.26168"><ele>586.7</ele></trkpt>
      <trkpt lat="47.42469" lon="7.25511"><ele>596.5</ele></trkpt>
      <trkpt lat="47.42305" lon="7.25008"><ele>599.5</ele></trkpt>
      <trkpt lat="47.42188" lon="7.2481"><ele>599.9</ele></trkpt>
      <trkpt lat="47.42156" lon="7.2463"><ele>599.3</ele></trkpt>
      <trkpt lat="47.42106" lon="7.24553"><ele>599.0</ele></trkpt>
      <trkpt lat="47.41993" lon="7.2445"><ele>598.8</ele></trkpt>
      <trkpt lat="47.41861" lon="7.24432"><ele>600.7</ele></trkpt>
      <trkpt lat="47.41784" lon="7.24339"><ele>603.0</ele></trkpt>
      <trkpt lat="47.41787" lon="7.24314"><ele>603.7</ele></trkpt>
      <trkpt lat="47.41826" lon="7.2432"><ele>605.3</ele></trkpt>
      <trkpt lat="47.42077" lon="7.24437"><ele>617.7</ele></trkpt>
      <trkpt lat="47.42208" lon="7.24553"><ele>627.4</ele></trkpt>
      <trkpt lat="47.4249" lon="7.24601"><ele>646.7</ele></trkpt>
      <trkpt lat="47.42538" lon="7.24655"><ele>646.7</ele></trkpt>
      <trkpt lat="47.42643" lon="7.24609"><ele>645.1</ele></trkpt>
      <trkpt lat="47.42661" lon="7.24508"><ele>643.1</ele></trkpt>
      <trkpt lat="47.42652" lon="7.24201"><ele>635.0</ele></trkpt>
      <trkpt lat="47.42554" lon="7.23323"><ele>592.6</ele></trkpt>
      <trkpt lat="47.42555" lon="7.23125"><ele>584.4</ele></trkpt>
      <trkpt lat="47.42521" lon="7.22779"><ele>570.1</ele></trkpt>
      <trkpt lat="47.42372" lon="7.22472"><ele>560.0</ele></trkpt>
      <trkpt lat="47.42454" lon="7.21856"><ele>545.1</ele></trkpt>
      <trkpt lat="47.4234" lon="7.21386"><ele>534.3</ele></trkpt>
      <trkpt lat="47.42353" lon="7.21106"><ele>528.2</ele></trkpt>
      <trkpt lat="47.42388" lon="7.20943"><ele>526.9</ele></trkpt>
      <trkpt lat="47.42354" lon="7.20696"><ele>524.8</ele></trkpt>
      <trkpt lat="47.42349" lon="7.20508"><ele>521.7</ele></trkpt>
      <trkpt lat="47.4231" lon="7.20403"><ele>519.0</ele></trkpt>
      <trkpt lat="47.42223" lon="7.20391"><ele>517.1</ele></trkpt>
      <trkpt lat="47.42193" lon="7.20362"><ele>516.6</ele></trkpt>
      <trkpt lat="47.421" lon="7.20162"><ele>515.3</ele></trkpt>
      <trkpt lat="47.42034" lon="7.19939"><ele>515.9</ele></trkpt>
      <trkpt lat="47.4189" lon="7.19892"><ele>518.2</ele></trkpt>
      <trkpt lat="47.41778" lon="7.19916"><ele>521.4</ele></trkpt>
      <trkpt lat="47.41584" lon="7.19794"><ele>523.1</ele></trkpt>
      <trkpt lat="47.41379" lon="7.19855"><ele>526.2</ele></trkpt>
      <trkpt lat="47.41282" lon="7.19835"><ele>528.3</ele></trkpt>
      <trkpt lat="47.41233" lon="7.19925"><ele>530.1</ele></trkpt>
      <trkpt lat="47.41186" lon="7.20245"><ele>534.8</ele></trkpt>
      <trkpt lat="47.41188" lon="7.2055"><ele>539.2</ele></trkpt>
      <trkpt lat="47.41145" lon="7.20637"><ele>540.8</ele></trkpt>
      <trkpt lat="47.4112" lon="7.20752"><ele>543.0</ele></trkpt>
      <trkpt lat="47.40958" lon="7.20896"><ele>548.4</ele></trkpt>
      <trkpt lat="47.40817" lon="7.20949"><ele>552.5</ele></trkpt>
      <trkpt lat="47.40566" lon="7.20957"><ele>557.2</ele></trkpt>
      <trkpt lat="47.4039" lon="7.21053"><ele>562.9</ele></trkpt>
      <trkpt lat="47.40307" lon="7.21041"><ele>567.0</ele></trkpt>
      <trkpt lat="47.40122" lon="7.21128"><ele>579.3</ele></trkpt>
      <trkpt lat="47.39919" lon="7.21183"><ele>591.5</ele></trkpt>
      <trkpt lat="47.39861" lon="7.21153"><ele>594.5</ele></trkpt>
      <trkpt lat="47.39829" lon="7.21107"><ele>596.4</ele></trkpt>
      <trkpt lat="47.39732" lon="7.20868"><ele>601.3</ele></trkpt>
      <trkpt lat="47.39755" lon="7.20819"><ele>603.2</ele></trkpt>
      <trkpt lat="47.39832" lon="7.20778"><ele>606.9</ele></trkpt>
      <trkpt lat="47.39913" lon="7.20619"><ele>607.5</ele></trkpt>
      <trkpt lat="47.39882" lon="7.20396"><ele>609.2</ele></trkpt>
      <trkpt lat="47.39925" lon="7.20281"><ele>611.7</ele></trkpt>
      <trkpt lat="47.39914" lon="7.20124"><ele>619.5</ele></trkpt>
      <trkpt lat="47.39933" lon="7.1995"><ele>629.9</ele></trkpt>
      <trkpt lat="47.39908" lon="7.19695"><ele>648.7</ele></trkpt>
      <trkpt lat="47.39913" lon="7.19482"><ele>664.8</ele></trkpt>
      <trkpt lat="47.39711" lon="7.19408"><ele>677.1</ele></trkpt>
      <trkpt lat="47.39672" lon="7.1944"><ele>679.7</ele></trkpt>
      <trkpt lat="47.39478" lon="7.19984"><ele>700.3</ele></trkpt>
      <trkpt lat="47.39511" lon="7.20455"><ele>704.7</ele></trkpt>
      <trkpt lat="47.39498" lon="7.20489"><ele>705.3</ele></trkpt>
      <trkpt lat="47.39384" lon="7.20386"><ele>716.2</ele></trkpt>
      <trkpt lat="47.39321" lon="7.20415"><ele>724.7</ele></trkpt>
      <trkpt lat="47.39227" lon="7.20408"><ele>737.2</ele></trkpt>
      <trkpt lat="47.3913" lon="7.20262"><ele>755.2</ele></trkpt>
      <trkpt lat="47.39085" lon="7.20291"><ele>759.3</ele></trkpt>
      <trkpt lat="47.38986" lon="7.20277"><ele>767.7</ele></trkpt>
      <trkpt lat="47.38892" lon="7.20372"><ele>768.8</ele></trkpt>
      <trkpt lat="47.38872" lon="7.20148"><ele>777.5</ele></trkpt>
      <trkpt lat="47.38816" lon="7.20086"><ele>784.7</ele></trkpt>
      <trkpt lat="47.3875" lon="7.20115"><ele>787.3</ele></trkpt>
      <trkpt lat="47.38641" lon="7.20217"><ele>789.3</ele></trkpt>
      <trkpt lat="47.38584" lon="7.20218"><ele>785.9</ele></trkpt>
      <trkpt lat="47.38593" lon="7.20132"><ele>782.4</ele></trkpt>
      <trkpt lat="47.38635" lon="7.20015"><ele>776.0</ele></trkpt>
      <trkpt lat="47.38652" lon="7.19865"><ele>765.8</ele></trkpt>
      <trkpt lat="47.38645" lon="7.19714"><ele>758.5</ele></trkpt>
      <trkpt lat="47.38601" lon="7.19512"><ele>752.4</ele></trkpt>
      <trkpt lat="47.38609" lon="7.19406"><ele>750.2</ele></trkpt>
      <trkpt lat="47.38582" lon="7.19433"><ele>749.1</ele></trkpt>
      <trkpt lat="47.38587" lon="7.19689"><ele>730.3</ele></trkpt>
      <trkpt lat="47.38556" lon="7.19863"><ele>717.6</ele></trkpt>
      <trkpt lat="47.38526" lon="7.19854"><ele>714.6</ele></trkpt>
      <trkpt lat="47.38555" lon="7.19761"><ele>709.1</ele></trkpt>
      <trkpt lat="47.38531" lon="7.19738"><ele>706.3</ele></trkpt>
      <trkpt lat="47.38447" lon="7.19911"><ele>694.0</ele></trkpt>
      <trkpt lat="47.38277" lon="7.20072"><ele>679.9</ele></trkpt>
      <trkpt lat="47.38208" lon="7.2008"><ele>676.7</ele></trkpt>
      <trkpt lat="47.38146" lon="7.20028"><ele>673.4</ele></trkpt>
      <trkpt lat="47.3804" lon="7.19885"><ele>663.2</ele></trkpt>
      <trkpt lat="47.37987" lon="7.19747"><ele>653.6</ele></trkpt>
      <trkpt lat="47.37957" lon="7.19582"><ele>641.7</ele></trkpt>
      <trkpt lat="47.37819" lon="7.19342"><ele>630.3</ele></trkpt>
      <trkpt lat="47.37767" lon="7.19056"><ele>614.4</ele></trkpt>
      <trkpt lat="47.37713" lon="7.18905"><ele>603.9</ele></trkpt>
      <trkpt lat="47.37624" lon="7.18758"><ele>596.2</ele></trkpt>
      <trkpt lat="47.37642" lon="7.18581"><ele>590.0</ele></trkpt>
      <trkpt lat="47.3762" lon="7.18425"><ele>584.7</ele></trkpt>
      <trkpt lat="47.3755" lon="7.18237"><ele>574.7</ele></trkpt>
      <trkpt lat="47.37424" lon="7.18073"><ele>561.5</ele></trkpt>
      <trkpt lat="47.37382" lon="7.17834"><ele>545.9</ele></trkpt>
      <trkpt lat="47.37277" lon="7.17724"><ele>529.7</ele></trkpt>
      <trkpt lat="47.36999" lon="7.17528"><ele>484.4</ele></trkpt>
      <trkpt lat="47.36885" lon="7.17317"><ele>476.5</ele></trkpt>
      <trkpt lat="47.3686" lon="7.17334"><ele>477.5</ele></trkpt>
      <trkpt lat="47.36731" lon="7.17185"><ele>484.4</ele></trkpt>
      <trkpt lat="47.36577" lon="7.17114"><ele>495.4</ele></trkpt>
      <trkpt lat="47.36513" lon="7.17129"><ele>500.7</ele></trkpt>
      <trkpt lat="47.36304" lon="7.173"><ele>526.3</ele></trkpt>
      <trkpt lat="47.36145" lon="7.17489"><ele>555.5</ele></trkpt>
      <trkpt lat="47.35941" lon="7.17494"><ele>573.5</ele></trkpt>
      <trkpt lat="47.35882" lon="7.17612"><ele>579.8</ele></trkpt>
      <trkpt lat="47.35738" lon="7.17706"><ele>588.2</ele></trkpt>
      <trkpt lat="47.35683" lon="7.17882"><ele>591.1</ele></trkpt>
      <trkpt lat="47.35619" lon="7.17882"><ele>589.8</ele></trkpt>
      <trkpt lat="47.35522" lon="7.17842"><ele>588.5</ele></trkpt>
      <trkpt lat="47.35459" lon="7.17918"><ele>588.2</ele></trkpt>
      <trkpt lat="47.35455" lon="7.17945"><ele>588.2</ele></trkpt>
      <trkpt lat="47.35507" lon="7.18088"><ele>592.9</ele></trkpt>
      <trkpt lat="47.3548" lon="7.18175"><ele>597.3</ele></trkpt>
      <trkpt lat="47.35454" lon="7.18198"><ele>599.4</ele></trkpt>
      <trkpt lat="47.35415" lon="7.18189"><ele>602.0</ele></trkpt>
      <trkpt lat="47.35319" lon="7.18229"><ele>608.9</ele></trkpt>
      <trkpt lat="47.35271" lon="7.18203"><ele>612.5</ele></trkpt>
      <trkpt lat="47.35082" lon="7.18189"><ele>627.9</ele></trkpt>
      <trkpt lat="47.34986" lon="7.18221"><ele>637.1</ele></trkpt>
      <trkpt lat="47.34899" lon="7.182"><ele>646.2</ele></trkpt>
      <trkpt lat="47.34839" lon="7.18237"><ele>654.9</ele></trkpt>
      <trkpt lat="47.34751" lon="7.1823"><ele>666.4</ele></trkpt>
      <trkpt lat="47.34506" lon="7.18001"><ele>708.7</ele></trkpt>
      <trkpt lat="47.34279" lon="7.17847"><ele>740.0</ele></trkpt>
      <trkpt lat="47.34053" lon="7.17562"><ele>770.7</ele></trkpt>
      <trkpt lat="47.33891" lon="7.17304"><ele>795.9</ele></trkpt>
      <trkpt lat="47.33862" lon="7.17211"><ele>803.0</ele></trkpt>
      <trkpt lat="47.33763" lon="7.1711"><ele>814.8</ele></trkpt>
      <trkpt lat="47.33557" lon="7.16988"><ele>831.4</ele></trkpt>
      <trkpt lat="47.33387" lon="7.16806"><ele>840.8</ele></trkpt>
      <trkpt lat="47.33268" lon="7.1644"><ele>857.9</ele></trkpt>
      <trkpt lat="47.33138" lon="7.16193"><ele>866.6</ele></trkpt>
      <trkpt lat="47.3272" lon="7.15948"><ele>877.7</ele></trkpt>
      <trkpt lat="47.32382" lon="7.1563"><ele>885.7</ele></trkpt>
      <trkpt lat="47.32265" lon="7.15477"><ele>891.9</ele></trkpt>
      <trkpt lat="47.32125" lon="7.15226"><ele>904.0</ele></trkpt>
      <trkpt lat="47.31812" lon="7.14888"><ele>929.3</ele></trkpt>
      <trkpt lat="47.31753" lon="7.14755"><ele>939.6</ele></trkpt>
      <trkpt lat="47.31721" lon="7.14611"><ele>949.0</ele></trkpt>
      <trkpt lat="47.3164" lon="7.13929"><ele>975.3</ele></trkpt>
      <trkpt lat="47.31548" lon="7.13757"><ele>975.0</ele></trkpt>
      <trkpt lat="47.31034" lon="7.13011"><ele>944.4</ele></trkpt>
      <trkpt lat="47.30921" lon="7.12319"><ele>939.2</ele></trkpt>
      <trkpt lat="47.30865" lon="7.12137"><ele>937.7</ele></trkpt>
      <trkpt lat="47.30781" lon="7.11946"><ele>938.2</ele></trkpt>
      <trkpt lat="47.30637" lon="7.11472"><ele>956.0</ele></trkpt>
      <trkpt lat="47.30544" lon="7.11277"><ele>967.2</ele></trkpt>
      <trkpt lat="47.30527" lon="7.11177"><ele>974.5</ele></trkpt>
      <trkpt lat="47.30476" lon="7.11145"><ele>980.9</ele></trkpt>
      <trkpt lat="47.30334" lon="7.11261"><ele>992.4</ele></trkpt>
      <trkpt lat="47.30281" lon="7.11207"><ele>995.9</ele></trkpt>
      <trkpt lat="47.30235" lon="7.11034"><ele>996.2</ele></trkpt>
      <trkpt lat="47.30111" lon="7.10712"><ele>997.4</ele></trkpt>
      <trkpt lat="47.30067" lon="7.10522"><ele>995.4</ele></trkpt>
      <trkpt lat="47.30033" lon="7.1056"><ele>994.5</ele></trkpt>
      <trkpt lat="47.30022" lon="7.10535"><ele>993.7</ele></trkpt>
      <trkpt lat="47.30031" lon="7.10471"><ele>991.9</ele></trkpt>
      <trkpt lat="47.29975" lon="7.10219"><ele>984.9</ele></trkpt>
      <trkpt lat="47.29982" lon="7.09589"><ele>963.2</ele></trkpt>
      <trkpt lat="47.29961" lon="7.09478"><ele>958.6</ele></trkpt>
      <trkpt lat="47.29846" lon="7.09248"><ele>948.2</ele></trkpt>
      <trkpt lat="47.29771" lon="7.09192"><ele>944.6</ele></trkpt>
      <trkpt lat="47.29689" lon="7.09075"><ele>940.6</ele></trkpt>
      <trkpt lat="47.29596" lon="7.08749"><ele>933.8</ele></trkpt>
      <trkpt lat="47.29583" lon="7.0854"><ele>931.8</ele></trkpt>
      <trkpt lat="47.29544" lon="7.08306"><ele>933.1</ele></trkpt>
      <trkpt lat="47.29682" lon="7.08195"><ele>940.9</ele></trkpt>
      <trkpt lat="47.29755" lon="7.08201"><ele>947.0</ele></trkpt>
      <trkpt lat="47.29801" lon="7.08263"><ele>952.4</ele></trkpt>
      <trkpt lat="47.29833" lon="7.0819"><ele>958.0</ele></trkpt>
      <trkpt lat="47.29902" lon="7.08214"><ele>964.1</ele></trkpt>
      <trkpt lat="47.29957" lon="7.08146"><ele>967.0</ele></trkpt>
      <trkpt lat="47.30013" lon="7.08148"><ele>968.7</ele></trkpt>
      <trkpt lat="47.3001" lon="7.07887"><ele>969.3</ele></trkpt>
      <trkpt lat="47.29983" lon="7.07755"><ele>968.3</ele></trkpt>
      <trkpt lat="47.29948" lon="7.07793"><ele>968.0</ele></trkpt>
      <trkpt lat="47.29857" lon="7.07461"><ele>966.4</ele></trkpt>
      <trkpt lat="47.29816" lon="7.07412"><ele>966.2</ele></trkpt>
      <trkpt lat="47.2965" lon="7.0706"><ele>966.4</ele></trkpt>
      <trkpt lat="47.296" lon="7.06858"><ele>965.4</ele></trkpt>
      <trkpt lat="47.29496" lon="7.06572"><ele>962.8</ele></trkpt>
      <trkpt lat="47.29444" lon="7.06344"><ele>962.4</ele></trkpt>
      <trkpt lat="47.29429" lon="7.06092"><ele>963.4</ele></trkpt>
      <trkpt lat="47.29299" lon="7.05803"><ele>962.2</ele></trkpt>
      <trkpt lat="47.29243" lon="7.05618"><ele>960.2</ele></trkpt>
      <trkpt lat="47.29118" lon="7.04982"><ele>951.8</ele></trkpt>
      <trkpt lat="47.29094" lon="7.04922"><ele>951.8</ele></trkpt>
      <trkpt lat="47.28923" lon="7.04833"><ele>952.7</ele></trkpt>
      <trkpt lat="47.28835" lon="7.04596"><ele>953.8</ele></trkpt>
      <trkpt lat="47.28794" lon="7.04375"><ele>954.6</ele></trkpt>
      <trkpt lat="47.28685" lon="7.04293"><ele>956.5</ele></trkpt>
      <trkpt lat="47.28614" lon="7.0405"><ele>958.7</ele></trkpt>
      <trkpt lat="47.28435" lon="7.03989"><ele>958.9</ele></trkpt>
      <trkpt lat="47.28399" lon="7.03951"><ele>959.8</ele></trkpt>
      <trkpt lat="47.28173" lon="7.03579"><ele>969.2</ele></trkpt>
      <trkpt lat="47.27644" lon="7.02867"><ele>980.8</ele></trkpt>
      <trkpt lat="47.27486" lon="7.02602"><ele>975.6</ele></trkpt>
      <trkpt lat="47.27268" lon="7.02299"><ele>967.1</ele></trkpt>
      <trkpt lat="47.27102" lon="7.02012"><ele>957.5</ele></trkpt>
      <trkpt lat="47.27031" lon="7.01809"><ele>954.9</ele></trkpt>
      <trkpt lat="47.26764" lon="7.01783"><ele>967.0</ele></trkpt>
      <trkpt lat="47.2669" lon="7.01745"><ele>971.1</ele></trkpt>
      <trkpt lat="47.2659" lon="7.01663"><ele>976.9</ele></trkpt>
      <trkpt lat="47.26384" lon="7.01324"><ele>975.7</ele></trkpt>
      <trkpt lat="47.26297" lon="7.01413"><ele>968.9</ele></trkpt>
      <trkpt lat="47.26249" lon="7.01634"><ele>958.1</ele></trkpt>
      <trkpt lat="47.26205" lon="7.01709"><ele>954.9</ele></trkpt>
      <trkpt lat="47.25646" lon="7.02354"><ele>950.3</ele></trkpt>
      <trkpt lat="47.25602" lon="7.02228"><ele>951.0</ele></trkpt>
      <trkpt lat="47.25485" lon="7.02075"><ele>952.7</ele></trkpt>
      <trkpt lat="47.25371" lon="7.01976"><ele>952.7</ele></trkpt>
      <trkpt lat="47.25306" lon="7.0197"><ele>952.7</ele></trkpt>
    </trkseg>
  </trk>
</gpx>
