<?xml version="1.0" encoding="UTF-8"?>
<gpx version="1.1" creator="tools/extract_original.py"
     xmlns="http://www.topografix.com/GPX/1/1">
  <metadata><name>Tag 4: Jura → Lausanne</name></metadata>
  <wpt lat="47.120776" lon="6.90167"><name>Quiet country road above Renan</name></wpt>
  <wpt lat="47.071867" lon="6.87014"><name>View of Lake Neuchâtel from the Vue des Alpes</name></wpt>
  <wpt lat="46.765043" lon="6.622294"><name>Mittelland Route: Yverdon to Lausanne</name></wpt>
  <wpt lat="46.60227" lon="6.610356"><name>Nice track between fields and forest</name></wpt>
  <wpt lat="46.558628" lon="6.594954"><name>View of Lausanne, Lake Geneva, and the surrounding fields</name></wpt>
  <wpt lat="46.517462" lon="6.597451"><name>Olympic House</name></wpt>
  <trk>
    <name>Tag 4: Jura → Lausanne</name>
    <trkseg>
      <trkpt lat="47.25306" lon="7.0197"><ele>961.5</ele></trkpt>
      <trkpt lat="47.25229" lon="7.01923"><ele>961.5</ele></trkpt>
      <trkpt lat="47.25188" lon="7.01975"><ele>963.2</ele></trkpt>
      <trkpt lat="47.25162" lon="7.02033"><ele>964.7</ele></trkpt>
      <trkpt lat="47.25149" lon="7.02236"><ele>969.3</ele></trkpt>
      <trkpt lat="47.25117" lon="7.0235"><ele>972.2</ele></trkpt>
      <trkpt lat="47.24961" lon="7.02608"><ele>982.7</ele></trkpt>
      <trkpt lat="47.24877" lon="7.02686"><ele>985.3</ele></trkpt>
      <trkpt lat="47.24761" lon="7.02734"><ele>988.6</ele></trkpt>
      <trkpt lat="47.24636" lon="7.0269"><ele>992.6</ele></trkpt>
      <trkpt lat="47.24326" lon="7.0278"><ele>1006.9</ele></trkpt>
      <trkpt lat="47.24284" lon="7.02875"><ele>1011.0</ele></trkpt>
      <trkpt lat="47.24268" lon="7.03158"><ele>1017.7</ele></trkpt>
      <trkpt lat="47.24137" lon="7.03582"><ele>1014.8</ele></trkpt>
      <trkpt lat="47.24082" lon="7.03859"><ele>1014.1</ele></trkpt>
      <trkpt lat="47.24026" lon="7.03911"><ele>1017.0</ele></trkpt>
      <trkpt lat="47.23957" lon="7.03879"><ele>1020.4</ele></trkpt>
      <trkpt lat="47.23825" lon="7.03696"><ele>1038.1</ele></trkpt>
      <trkpt lat="47.23755" lon="7.03557"><ele>1045.4</ele></trkpt>
      <trkpt lat="47.23648" lon="7.03457"><ele>1049.6</ele></trkpt>
      <trkpt lat="47.23268" lon="7.03344"><ele>1047.6</ele></trkpt>
      <trkpt lat="47.23192" lon="7.03084"><ele>1041.4</ele></trkpt>
      <trkpt lat="47.23101" lon="7.03023"><ele>1036.2</ele></trkpt>
      <trkpt lat="47.22855" lon="7.02729"><ele>1016.9</ele></trkpt>
      <trkpt lat="47.22797" lon="7.02714"><ele>1015.3</ele></trkpt>
      <trkpt lat="47.22686" lon="7.02752"><ele>1012.6</ele></trkpt>
      <trkpt lat="47.22613" lon="7.02738"><ele>1012.8</ele></trkpt>
      <trkpt lat="47.22438" lon="7.0277"><ele>1013.8</ele></trkpt>
      <trkpt lat="47.2229" lon="7.02749"><ele>1013.4</ele></trkpt>
      <trkpt lat="47.22178" lon="7.02809"><ele>1010.9</ele></trkpt>
      <trkpt lat="47.22095" lon="7.02812"><ele>1009.0</ele></trkpt>
      <trkpt lat="47.22075" lon="7.02619"><ele>1006.0</ele></trkpt>
      <trkpt lat="47.21828" lon="7.01742"><ele>1015.6</ele></trkpt>
      <trkpt lat="47.21632" lon="7.01348"><ele>1030.4</ele></trkpt>
      <trkpt lat="47.21364" lon="7.00683"><ele>1038.8</ele></trkpt>
      <trkpt lat="47.21283" lon="7.00454"><ele>1039.5</ele></trkpt>
      <trkpt lat="47.2129" lon="7.00429"><ele>1039.4</ele></trkpt>
      <trkpt lat="47.21223" lon="7.00404"><ele>1039.1</ele></trkpt>
      <trkpt lat="47.21181" lon="7.0035"><ele>1038.3</ele></trkpt>
      <trkpt lat="47.2092" lon="6.99872"><ele>1034.0</ele></trkpt>
      <trkpt lat="47.20873" lon="6.99755"><ele>1034.7</ele></trkpt>
      <trkpt lat="47.20801" lon="6.9965"><ele>1032.7</ele></trkpt>
      <trkpt lat="47.2057" lon="6.99416"><ele>1024.2</ele></trkpt>
      <trkpt lat="47.19898" lon="6.9894"><ele>1025.1</ele></trkpt>
      <trkpt lat="47.19736" lon="6.98739"><ele>1030.8</ele></trkpt>
      <trkpt lat="47.19692" lon="6.98661"><ele>1032.4</ele></trkpt>
      <trkpt lat="47.1961" lon="6.983"><ele>1036.7</ele></trkpt>
      <trkpt lat="47.19329" lon="6.97725"><ele>1040.9</ele></trkpt>
      <trkpt lat="47.18853" lon="6.97166"><ele>1034.8</ele></trkpt>
      <trkpt lat="47.18436" lon="6.96345"><ele>1020.2</ele></trkpt>
      <trkpt lat="47.17728" lon="6.95432"><ele>1017.1</ele></trkpt>
      <trkpt lat="47.17676" lon="6.95379"><ele>1017.2</ele></trkpt>
      <trkpt lat="47.17601" lon="6.9536"><ele>1018.0</ele></trkpt>
      <trkpt lat="47.17482" lon="6.95445"><ele>1020.2</ele></trkpt>
      <trkpt lat="47.17408" lon="6.95461"><ele>1022.9</ele></trkpt>
      <trkpt lat="47.17197" lon="6.95387"><ele>1029.1</ele></trkpt>
      <trkpt lat="47.17132" lon="6.95341"><ele>1030.6</ele></trkpt>
      <trkpt lat="47.17033" lon="6.95192"><ele>1031.4</ele></trkpt>
      <trkpt lat="47.16785" lon="6.94415"><ele>1030.8</ele></trkpt>
      <trkpt lat="47.16669" lon="6.94422"><ele>1028.3</ele></trkpt>
      <trkpt lat="47.16504" lon="6.9457"><ele>1033.8</ele></trkpt>
      <trkpt lat="47.16301" lon="6.94245"><ele>1059.6</ele></trkpt>
      <trkpt lat="47.16338" lon="6.94436"><ele>1072.1</ele></trkpt>
      <trkpt lat="47.16338" lon="6.94524"><ele>1077.3</ele></trkpt>
      <trkpt lat="47.16248" lon="6.94501"><ele>1086.7</ele></trkpt>
      <trkpt lat="47.16188" lon="6.94578"><ele>1096.3</ele></trkpt>
      <trkpt lat="47.16126" lon="6.9488"><ele>1121.6</ele></trkpt>
      <trkpt lat="47.1612" lon="6.95016"><ele>1129.3</ele></trkpt>
      <trkpt lat="47.16021" lon="6.95351"><ele>1144.8</ele></trkpt>
      <trkpt lat="47.15905" lon="6.95422"><ele>1154.1</ele></trkpt>
      <trkpt lat="47.15787" lon="6.95352"><ele>1164.4</ele></trkpt>
      <trkpt lat="47.1571" lon="6.954"><ele>1171.4</ele></trkpt>
      <trkpt lat="47.15634" lon="6.95403"><ele>1177.6</ele></trkpt>
      <trkpt lat="47.15573" lon="6.95278"><ele>1184.1</ele></trkpt>
      <trkpt lat="47.15473" lon="6.95443"><ele>1190.6</ele></trkpt>
      <trkpt lat="47.15417" lon="6.95497"><ele>1192.4</ele></trkpt>
      <trkpt lat="47.15351" lon="6.95268"><ele>1194.6</ele></trkpt>
      <trkpt lat="47.15361" lon="6.9503"><ele>1193.2</ele></trkpt>
      <trkpt lat="47.15281" lon="6.94518"><ele>1178.6</ele></trkpt>
      <trkpt lat="47.15104" lon="6.94502"><ele>1176.6</ele></trkpt>
      <trkpt lat="47.15204" lon="6.94359"><ele>1176.3</ele></trkpt>
      <trkpt lat="47.15114" lon="6.93936"><ele>1174.2</ele></trkpt>
      <trkpt lat="47.15097" lon="6.93893"><ele>1173.9</ele></trkpt>
      <trkpt lat="47.14944" lon="6.93729"><ele>1172.6</ele></trkpt>
      <trkpt lat="47.14867" lon="6.93528"><ele>1171.4</ele></trkpt>
      <trkpt lat="47.14747" lon="6.93314"><ele>1166.5</ele></trkpt>
      <trkpt lat="47.14687" lon="6.93016"><ele>1156.9</ele></trkpt>
      <trkpt lat="47.1466" lon="6.9297"><ele>1155.1</ele></trkpt>
      <trkpt lat="47.14401" lon="6.92714"><ele>1149.9</ele></trkpt>
      <trkpt lat="47.14341" lon="6.92838"><ele>1150.2</ele></trkpt>
      <trkpt lat="47.14196" lon="6.92968"><ele>1151.3</ele></trkpt>
      <trkpt lat="47.1403" lon="6.92967"><ele>1145.1</ele></trkpt>
      <trkpt lat="47.1394" lon="6.92935"><ele>1140.2</ele></trkpt>
      <trkpt lat="47.13831" lon="6.93034"><ele>1132.9</ele></trkpt>
      <trkpt lat="47.13753" lon="6.92872"><ele>1124.1</ele></trkpt>
      <trkpt lat="47.137" lon="6.92809"><ele>1119.8</ele></trkpt>
      <trkpt lat="47.13564" lon="6.9251"><ele>1103.9</ele></trkpt>
      <trkpt lat="47.13418" lon="6.92433"><ele>1093.6</ele></trkpt>
      <trkpt lat="47.13333" lon="6.9252"><ele>1087.0</ele></trkpt>
      <trkpt lat="47.13285" lon="6.92513"><ele>1083.9</ele></trkpt>
      <trkpt lat="47.13029" lon="6.92191"><ele>1069.1</ele></trkpt>
      <trkpt lat="47.12936" lon="6.91981"><ele>1065.0</ele></trkpt>
      <trkpt lat="47.12845" lon="6.91839"><ele>1060.6</ele></trkpt>
      <trkpt lat="47.12765" lon="6.91772"><ele>1055.4</ele></trkpt>
      <trkpt lat="47.12703" lon="6.91798"><ele>1051.3</ele></trkpt>
      <trkpt lat="47.12668" lon="6.91779"><ele>1049.0</ele></trkpt>
      <trkpt lat="47.12577" lon="6.9156"><ele>1043.3</ele></trkpt>
      <trkpt lat="47.12577" lon="6.91361"><ele>1046.9</ele></trkpt>
      <trkpt lat="47.12528" lon="6.91232"><ele>1050.5</ele></trkpt>
      <trkpt lat="47.12515" lon="6.9114"><ele>1053.3</ele></trkpt>
      <trkpt lat="47.12329" lon="6.90653"><ele>1066.7</ele></trkpt>
      <trkpt lat="47.12315" lon="6.90558"><ele>1068.0</ele></trkpt>
      <trkpt lat="47.12239" lon="6.90364"><ele>1069.6</ele></trkpt>
      <trkpt lat="47.12129" lon="6.90282"><ele>1070.5</ele></trkpt>
      <trkpt lat="47.12069" lon="6.9014"><ele>1072.8</ele></trkpt>
      <trkpt lat="47.12169" lon="6.89848"><ele>1079.7</ele></trkpt>
      <trkpt lat="47.12128" lon="6.89797"><ele>1081.2</ele></trkpt>
      <trkpt lat="47.11909" lon="6.89647"><ele>1080.1</ele></trkpt>
      <trkpt lat="47.11632" lon="6.89252"><ele>1067.1</ele></trkpt>
      <trkpt lat="47.11801" lon="6.89008"><ele>1062.0</ele></trkpt>
      <trkpt lat="47.11695" lon="6.88807"><ele>1059.6</ele></trkpt>
      <trkpt lat="47.11695" lon="6.88706"><ele>1058.8</ele></trkpt>
      <trkpt lat="47.11656" lon="6.88655"><ele>1058.2</ele></trkpt>
      <trkpt lat="47.11709" lon="6.88404"><ele>1055.9</ele></trkpt>
      <trkpt lat="47.11721" lon="6.88233"><ele>1054.4</ele></trkpt>
      <trkpt lat="47.11695" lon="6.88161"><ele>1053.3</ele></trkpt>
      <trkpt lat="47.11606" lon="6.88057"><ele>1050.9</ele></trkpt>
      <trkpt lat="47.11529" lon="6.87785"><ele>1043.4</ele></trkpt>
      <trkpt lat="47.11531" lon="6.8774"><ele>1043.5</ele></trkpt>
      <trkpt lat="47.11417" lon="6.87738"><ele>1044.2</ele></trkpt>
      <trkpt lat="47.11304" lon="6.87655"><ele>1048.2</ele></trkpt>
      <trkpt lat="47.11117" lon="6.87378"><ele>1059.7</ele></trkpt>
      <trkpt lat="47.10869" lon="6.87174"><ele>1073.1</ele></trkpt>
      <trkpt lat="47.10672" lon="6.87128"><ele>1073.7</ele></trkpt>
      <trkpt lat="47.10623" lon="6.872"><ele>1073.6</ele></trkpt>
      <trkpt lat="47.10572" lon="6.87338"><ele>1074.2</ele></trkpt>
      <trkpt lat="47.10237" lon="6.87093"><ele>1069.3</ele></trkpt>
      <trkpt lat="47.10191" lon="6.87037"><ele>1070.6</ele></trkpt>
      <trkpt lat="47.10176" lon="6.8698"><ele>1072.8</ele></trkpt>
      <trkpt lat="47.10167" lon="6.8672"><ele>1086.3</ele></trkpt>
      <trkpt lat="47.10213" lon="6.8662"><ele>1095.4</ele></trkpt>
      <trkpt lat="47.10133" lon="6.86527"><ele>1103.3</ele></trkpt>
      <trkpt lat="47.09961" lon="6.86505"><ele>1114.5</ele></trkpt>
      <trkpt lat="47.09864" lon="6.86402"><ele>1121.4</ele></trkpt>
      <trkpt lat="47.09735" lon="6.86352"><ele>1127.8</ele></trkpt>
      <trkpt lat="47.0964" lon="6.86394"><ele>1127.0</ele></trkpt>
      <trkpt lat="47.09485" lon="6.86353"><ele>1125.0</ele></trkpt>
      <trkpt lat="47.09388" lon="6.86385"><ele>1126.9</ele></trkpt>
      <trkpt lat="47.09311" lon="6.86377"><ele>1132.6</ele></trkpt>
      <trkpt lat="47.09261" lon="6.86341"><ele>1138.2</ele></trkpt>
      <trkpt lat="47.09222" lon="6.86252"><ele>1145.5</ele></trkpt>
      <trkpt lat="47.09131" lon="6.86187"><ele>1154.2</ele></trkpt>
      <trkpt lat="47.09003" lon="6.86201"><ele>1161.1</ele></trkpt>
      <trkpt lat="47.08905" lon="6.86164"><ele>1161.8</ele></trkpt>
      <trkpt lat="47.08856" lon="6.86175"><ele>1161.5</ele></trkpt>
      <trkpt lat="47.08744" lon="6.86086"><ele>1159.2</ele></trkpt>
      <trkpt lat="47.08563" lon="6.86052"><ele>1154.7</ele></trkpt>
      <trkpt lat="47.08351" lon="6.85969"><ele>1147.3</ele></trkpt>
      <trkpt lat="47.08247" lon="6.86038"><ele>1149.9</ele></trkpt>
      <trkpt lat="47.08181" lon="6.85926"><ele>1155.4</ele></trkpt>
      <trkpt lat="47.08101" lon="6.85873"><ele>1162.5</ele></trkpt>
      <trkpt lat="47.08004" lon="6.85928"><ele>1170.7</ele></trkpt>
      <trkpt lat="47.08095" lon="6.86146"><ele>1183.1</ele></trkpt>
      <trkpt lat="47.08084" lon="6.86267"><ele>1188.7</ele></trkpt>
      <trkpt lat="47.08039" lon="6.86302"><ele>1191.1</ele></trkpt>
      <trkpt lat="47.07861" lon="6.86298"><ele>1195.0</ele></trkpt>
      <trkpt lat="47.07782" lon="6.86244"><ele>1197.7</ele></trkpt>
      <trkpt lat="47.07742" lon="6.8617"><ele>1199.8</ele></trkpt>
      <trkpt lat="47.07701" lon="6.85932"><ele>1209.9</ele></trkpt>
      <trkpt lat="47.07659" lon="6.85807"><ele>1218.0</ele></trkpt>
      <trkpt lat="47.07558" lon="6.85687"><ele>1228.8</ele></trkpt>
      <trkpt lat="47.07494" lon="6.85687"><ele>1232.5</ele></trkpt>
      <trkpt lat="47.0746" lon="6.85728"><ele>1235.0</ele></trkpt>
      <trkpt lat="47.07446" lon="6.85787"><ele>1237.5</ele></trkpt>
      <trkpt lat="47.07487" lon="6.85998"><ele>1244.6</ele></trkpt>
      <trkpt lat="47.07485" lon="6.8621"><ele>1250.8</ele></trkpt>
      <trkpt lat="47.0752" lon="6.86436"><ele>1254.4</ele></trkpt>
      <trkpt lat="47.07468" lon="6.86709"><ele>1259.4</ele></trkpt>
      <trkpt lat="47.07469" lon="6.86879"><ele>1266.1</ele></trkpt>
      <trkpt lat="47.07422" lon="6.86949"><ele>1272.2</ele></trkpt>
      <trkpt lat="47.07213" lon="6.86964"><ele>1280.7</ele></trkpt>
      <trkpt lat="47.07188" lon="6.86995"><ele>1280.8</ele></trkpt>
      <trkpt lat="47.07216" lon="6.87054"><ele>1277.9</ele></trkpt>
      <trkpt lat="47.07256" lon="6.87045"><ele>1275.4</ele></trkpt>
      <trkpt lat="47.07295" lon="6.87383"><ele>1259.3</ele></trkpt>
      <trkpt lat="47.07284" lon="6.874"><ele>1258.1</ele></trkpt>
      <trkpt lat="47.07218" lon="6.8738"><ele>1252.6</ele></trkpt>
      <trkpt lat="47.0713" lon="6.87248"><ele>1242.1</ele></trkpt>
      <trkpt lat="47.07082" lon="6.87242"><ele>1238.6</ele></trkpt>
      <trkpt lat="47.07072" lon="6.87404"><ele>1230.6</ele></trkpt>
      <trkpt lat="47.0699" lon="6.87393"><ele>1223.6</ele></trkpt>
      <trkpt lat="47.06786" lon="6.87563"><ele>1202.2</ele></trkpt>
      <trkpt lat="47.06718" lon="6.87843"><ele>1183.8</ele></trkpt>
      <trkpt lat="47.06485" lon="6.87939"><ele>1166.7</ele></trkpt>
      <trkpt lat="47.06287" lon="6.88135"><ele>1151.4</ele></trkpt>
      <trkpt lat="47.06142" lon="6.88189"><ele>1140.1</ele></trkpt>
      <trkpt lat="47.06036" lon="6.88148"><ele>1131.2</ele></trkpt>
      <trkpt lat="47.0591" lon="6.87999"><ele>1114.6</ele></trkpt>
      <trkpt lat="47.05825" lon="6.87864"><ele>1103.6</ele></trkpt>
      <trkpt lat="47.05633" lon="6.87462"><ele>1080.5</ele></trkpt>
      <trkpt lat="47.05474" lon="6.872"><ele>1062.9</ele></trkpt>
      <trkpt lat="47.05374" lon="6.87095"><ele>1052.6</ele></trkpt>
      <trkpt lat="47.05121" lon="6.86916"><ele>1031.1</ele></trkpt>
      <trkpt lat="47.05058" lon="6.86915"><ele>1025.8</ele></trkpt>
      <trkpt lat="47.05015" lon="6.86943"><ele>1021.8</ele></trkpt>
      <trkpt lat="47.04884" lon="6.87172"><ele>1000.9</ele></trkpt>
      <trkpt lat="47.04814" lon="6.87222"><ele>993.5</ele></trkpt>
      <trkpt lat="47.04495" lon="6.87138"><ele>968.8</ele></trkpt>
      <trkpt lat="47.0425" lon="6.87185"><ele>944.3</ele></trkpt>
      <trkpt lat="47.04037" lon="6.87126"><ele>926.4</ele></trkpt>
      <trkpt lat="47.03757" lon="6.87142"><ele>894.5</ele></trkpt>
      <trkpt lat="47.03663" lon="6.8707"><ele>882.0</ele></trkpt>
      <trkpt lat="47.03476" lon="6.86812"><ele>862.1</ele></trkpt>
      <trkpt lat="47.033" lon="6.86728"><ele>849.3</ele></trkpt>
      <trkpt lat="47.03255" lon="6.86625"><ele>844.8</ele></trkpt>
      <trkpt lat="47.03064" lon="6.86744"><ele>832.8</ele></trkpt>
      <trkpt lat="47.02901" lon="6.86611"><ele>831.5</ele></trkpt>
      <trkpt lat="47.02845" lon="6.86505"><ele>832.8</ele></trkpt>
      <trkpt lat="47.02381" lon="6.86113"><ele>837.4</ele></trkpt>
      <trkpt lat="47.02098" lon="6.85967"><ele>834.7</ele></trkpt>
      <trkpt lat="47.01879" lon="6.86679"><ele>805.2</ele></trkpt>
      <trkpt lat="47.0143" lon="6.86188"><ele>806.6</ele></trkpt>
      <trkpt lat="47.01375" lon="6.86392"><ele>803.4</ele></trkpt>
      <trkpt lat="47.01354" lon="6.86438"><ele>803.1</ele></trkpt>
      <trkpt lat="47.01295" lon="6.86489"><ele>802.4</ele></trkpt>
      <trkpt lat="47.01147" lon="6.86275"><ele>802.8</ele></trkpt>
      <trkpt lat="47.0106" lon="6.86233"><ele>803.1</ele></trkpt>
      <trkpt lat="47.00918" lon="6.86213"><ele>802.8</ele></trkpt>
      <trkpt lat="47.00827" lon="6.86116"><ele>801.3</ele></trkpt>
      <trkpt lat="47.00688" lon="6.86046"><ele>798.4</ele></trkpt>
      <trkpt lat="47.00374" lon="6.8582"><ele>791.7</ele></trkpt>
      <trkpt lat="47.00349" lon="6.85782"><ele>791.0</ele></trkpt>
      <trkpt lat="47.00334" lon="6.85843"><ele>790.2</ele></trkpt>
      <trkpt lat="47.00319" lon="6.85841"><ele>789.9</ele></trkpt>
      <trkpt lat="47.00117" lon="6.85725"><ele>785.1</ele></trkpt>
      <trkpt lat="46.9989" lon="6.85498"><ele>780.7</ele></trkpt>
      <trkpt lat="46.99681" lon="6.85404"><ele>776.6</ele></trkpt>
      <trkpt lat="46.9954" lon="6.85536"><ele>773.5</ele></trkpt>
      <trkpt lat="46.99473" lon="6.85561"><ele>771.0</ele></trkpt>
      <trkpt lat="46.99319" lon="6.85337"><ele>759.1</ele></trkpt>
      <trkpt lat="46.9918" lon="6.84881"><ele>743.2</ele></trkpt>
      <trkpt lat="46.99038" lon="6.84644"><ele>735.9</ele></trkpt>
      <trkpt lat="46.98992" lon="6.84506"><ele>731.0</ele></trkpt>
      <trkpt lat="46.98945" lon="6.8451"><ele>728.4</ele></trkpt>
      <trkpt lat="46.98896" lon="6.84465"><ele>725.2</ele></trkpt>
      <trkpt lat="46.98832" lon="6.84459"><ele>721.8</ele></trkpt>
      <trkpt lat="46.98742" lon="6.8441"><ele>716.8</ele></trkpt>
      <trkpt lat="46.98671" lon="6.84429"><ele>712.9</ele></trkpt>
      <trkpt lat="46.98433" lon="6.84337"><ele>696.4</ele></trkpt>
      <trkpt lat="46.98369" lon="6.84253"><ele>689.4</ele></trkpt>
      <trkpt lat="46.98235" lon="6.84181"><ele>677.3</ele></trkpt>
      <trkpt lat="46.98123" lon="6.83985"><ele>665.8</ele></trkpt>
      <trkpt lat="46.98002" lon="6.83826"><ele>656.9</ele></trkpt>
      <trkpt lat="46.97913" lon="6.8387"><ele>652.0</ele></trkpt>
      <trkpt lat="46.97841" lon="6.83869"><ele>648.5</ele></trkpt>
      <trkpt lat="46.97803" lon="6.83846"><ele>646.6</ele></trkpt>
      <trkpt lat="46.97737" lon="6.8373"><ele>642.1</ele></trkpt>
      <trkpt lat="46.97696" lon="6.83715"><ele>640.4</ele></trkpt>
      <trkpt lat="46.97668" lon="6.83745"><ele>638.9</ele></trkpt>
      <trkpt lat="46.97636" lon="6.83869"><ele>634.2</ele></trkpt>
      <trkpt lat="46.97613" lon="6.83888"><ele>632.6</ele></trkpt>
      <trkpt lat="46.97325" lon="6.8348"><ele>601.9</ele></trkpt>
      <trkpt lat="46.9721" lon="6.83433"><ele>588.7</ele></trkpt>
      <trkpt lat="46.9703" lon="6.83305"><ele>569.0</ele></trkpt>
      <trkpt lat="46.96999" lon="6.83303"><ele>566.4</ele></trkpt>
      <trkpt lat="46.96898" lon="6.83729"><ele>544.3</ele></trkpt>
      <trkpt lat="46.9673" lon="6.84128"><ele>526.7</ele></trkpt>
      <trkpt lat="46.96622" lon="6.84029"><ele>522.0</ele></trkpt>
      <trkpt lat="46.96575" lon="6.83904"><ele>513.5</ele></trkpt>
      <trkpt lat="46.96491" lon="6.839"><ele>505.3</ele></trkpt>
      <trkpt lat="46.9647" lon="6.8387"><ele>502.6</ele></trkpt>
      <trkpt lat="46.96418" lon="6.83859"><ele>498.6</ele></trkpt>
      <trkpt lat="46.96356" lon="6.83778"><ele>492.2</ele></trkpt>
      <trkpt lat="46.96267" lon="6.8372"><ele>490.6</ele></trkpt>
      <trkpt lat="46.96249" lon="6.83681"><ele>491.0</ele></trkpt>
      <trkpt lat="46.96232" lon="6.83681"><ele>491.2</ele></trkpt>
      <trkpt lat="46.96126" lon="6.83826"><ele>491.4</ele></trkpt>
      <trkpt lat="46.95949" lon="6.83557"><ele>490.9</ele></trkpt>
      <trkpt lat="46.95844" lon="6.83326"><ele>488.7</ele></trkpt>
      <trkpt lat="46.95789" lon="6.83251"><ele>482.8</ele></trkpt>
      <trkpt lat="46.95629" lon="6.83224"><ele>468.9</ele></trkpt>
      <trkpt lat="46.95568" lon="6.83157"><ele>462.9</ele></trkpt>
      <trkpt lat="46.95643" lon="6.83055"><ele>460.2</ele></trkpt>
      <trkpt lat="46.95623" lon="6.82932"><ele>462.7</ele></trkpt>
      <trkpt lat="46.95646" lon="6.82871"><ele>465.2</ele></trkpt>
      <trkpt lat="46.9559" lon="6.82683"><ele>480.2</ele></trkpt>
      <trkpt lat="46.95574" lon="6.82515"><ele>491.1</ele></trkpt>
      <trkpt lat="46.95502" lon="6.82442"><ele>499.0</ele></trkpt>
      <trkpt lat="46.95408" lon="6.8239"><ele>501.9</ele></trkpt>
      <trkpt lat="46.95443" lon="6.82275"><ele>504.3</ele></trkpt>
      <trkpt lat="46.95286" lon="6.82093"><ele>505.7</ele></trkpt>
      <trkpt lat="46.95053" lon="6.82051"><ele>505.7</ele></trkpt>
      <trkpt lat="46.9494" lon="6.8198"><ele>504.8</ele></trkpt>
      <trkpt lat="46.94897" lon="6.81997"><ele>504.0</ele></trkpt>
      <trkpt lat="46.9478" lon="6.82123"><ele>501.4</ele></trkpt>
      <trkpt lat="46.94663" lon="6.82138"><ele>499.1</ele></trkpt>
      <trkpt lat="46.94528" lon="6.82027"><ele>497.7</ele></trkpt>
      <trkpt lat="46.94289" lon="6.81886"><ele>497.3</ele></trkpt>
      <trkpt lat="46.9403" lon="6.81817"><ele>496.7</ele></trkpt>
      <trkpt lat="46.93594" lon="6.8154"><ele>498.4</ele></trkpt>
      <trkpt lat="46.93624" lon="6.81459"><ele>499.5</ele></trkpt>
      <trkpt lat="46.93492" lon="6.81383"><ele>504.0</ele></trkpt>
      <trkpt lat="46.93532" lon="6.81272"><ele>507.6</ele></trkpt>
      <trkpt lat="46.93374" lon="6.81171"><ele>517.4</ele></trkpt>
      <trkpt lat="46.93396" lon="6.81066"><ele>522.7</ele></trkpt>
      <trkpt lat="46.93388" lon="6.81031"><ele>524.6</ele></trkpt>
      <trkpt lat="46.93011" lon="6.80829"><ele>537.6</ele></trkpt>
      <trkpt lat="46.92923" lon="6.80751"><ele>537.1</ele></trkpt>
      <trkpt lat="46.92781" lon="6.80677"><ele>535.2</ele></trkpt>
      <trkpt lat="46.92522" lon="6.80412"><ele>534.7</ele></trkpt>
      <trkpt lat="46.92427" lon="6.80406"><ele>534.1</ele></trkpt>
      <trkpt lat="46.92235" lon="6.80269"><ele>534.1</ele></trkpt>
      <trkpt lat="46.92074" lon="6.80091"><ele>537.5</ele></trkpt>
      <trkpt lat="46.91787" lon="6.79639"><ele>540.2</ele></trkpt>
      <trkpt lat="46.91468" lon="6.79338"><ele>540.0</ele></trkpt>
      <trkpt lat="46.91329" lon="6.79133"><ele>538.0</ele></trkpt>
      <trkpt lat="46.91144" lon="6.78766"><ele>527.8</ele></trkpt>
      <trkpt lat="46.91061" lon="6.78753"><ele>525.0</ele></trkpt>
      <trkpt lat="46.90983" lon="6.78648"><ele>521.5</ele></trkpt>
      <trkpt lat="46.90884" lon="6.78574"><ele>517.8</ele></trkpt>
      <trkpt lat="46.90821" lon="6.7865"><ele>513.3</ele></trkpt>
      <trkpt lat="46.90764" lon="6.78615"><ele>508.7</ele></trkpt>
      <trkpt lat="46.907" lon="6.78508"><ele>501.4</ele></trkpt>
      <trkpt lat="46.90699" lon="6.78463"><ele>499.0</ele></trkpt>
      <trkpt lat="46.90725" lon="6.784"><ele>495.1</ele></trkpt>
      <trkpt lat="46.90621" lon="6.78319"><ele>487.9</ele></trkpt>
      <trkpt lat="46.90535" lon="6.78174"><ele>483.3</ele></trkpt>
      <trkpt lat="46.90461" lon="6.78203"><ele>484.6</ele></trkpt>
      <trkpt lat="46.90413" lon="6.78109"><ele>486.1</ele></trkpt>
      <trkpt lat="46.90365" lon="6.78103"><ele>485.9</ele></trkpt>
      <trkpt lat="46.90256" lon="6.7801"><ele>483.7</ele></trkpt>
      <trkpt lat="46.90152" lon="6.78"><ele>480.1</ele></trkpt>
      <trkpt lat="46.90144" lon="6.77971"><ele>479.2</ele></trkpt>
      <trkpt lat="46.90017" lon="6.77864"><ele>475.0</ele></trkpt>
      <trkpt lat="46.89886" lon="6.77797"><ele>472.9</ele></trkpt>
      <trkpt lat="46.89794" lon="6.77656"><ele>472.4</ele></trkpt>
      <trkpt lat="46.89583" lon="6.77474"><ele>470.2</ele></trkpt>
      <trkpt lat="46.89513" lon="6.77332"><ele>469.4</ele></trkpt>
      <trkpt lat="46.89446" lon="6.77292"><ele>469.8</ele></trkpt>
      <trkpt lat="46.89379" lon="6.77202"><ele>470.4</ele></trkpt>
      <trkpt lat="46.89159" lon="6.76837"><ele>471.9</ele></trkpt>
      <trkpt lat="46.891" lon="6.7667"><ele>474.0</ele></trkpt>
      <trkpt lat="46.89004" lon="6.76567"><ele>477.7</ele></trkpt>
      <trkpt lat="46.88914" lon="6.76523"><ele>480.3</ele></trkpt>
      <trkpt lat="46.88842" lon="6.76415"><ele>482.6</ele></trkpt>
      <trkpt lat="46.88728" lon="6.76346"><ele>484.3</ele></trkpt>
      <trkpt lat="46.88576" lon="6.76176"><ele>484.4</ele></trkpt>
      <trkpt lat="46.88522" lon="6.76173"><ele>483.8</ele></trkpt>
      <trkpt lat="46.8826" lon="6.76037"><ele>480.8</ele></trkpt>
      <trkpt lat="46.88194" lon="6.75952"><ele>476.3</ele></trkpt>
      <trkpt lat="46.88018" lon="6.7591"><ele>462.3</ele></trkpt>
      <trkpt lat="46.87925" lon="6.75791"><ele>450.7</ele></trkpt>
      <trkpt lat="46.87865" lon="6.75771"><ele>448.7</ele></trkpt>
      <trkpt lat="46.87836" lon="6.75726"><ele>447.3</ele></trkpt>
      <trkpt lat="46.87741" lon="6.7572"><ele>445.7</ele></trkpt>
      <trkpt lat="46.8749" lon="6.7557"><ele>451.1</ele></trkpt>
      <trkpt lat="46.87266" lon="6.75362"><ele>460.0</ele></trkpt>
      <trkpt lat="46.87152" lon="6.75309"><ele>465.5</ele></trkpt>
      <trkpt lat="46.86977" lon="6.75174"><ele>472.1</ele></trkpt>
      <trkpt lat="46.86687" lon="6.75112"><ele>465.0</ele></trkpt>
      <trkpt lat="46.86635" lon="6.75155"><ele>461.2</ele></trkpt>
      <trkpt lat="46.86529" lon="6.75059"><ele>456.8</ele></trkpt>
      <trkpt lat="46.86445" lon="6.74939"><ele>454.8</ele></trkpt>
      <trkpt lat="46.86431" lon="6.74955"><ele>454.9</ele></trkpt>
      <trkpt lat="46.86359" lon="6.74875"><ele>455.3</ele></trkpt>
      <trkpt lat="46.86267" lon="6.74678"><ele>462.8</ele></trkpt>
      <trkpt lat="46.86031" lon="6.73786"><ele>477.3</ele></trkpt>
      <trkpt lat="46.86021" lon="6.73645"><ele>476.0</ele></trkpt>
      <trkpt lat="46.86053" lon="6.7329"><ele>470.5</ele></trkpt>
      <trkpt lat="46.86007" lon="6.73127"><ele>465.9</ele></trkpt>
      <trkpt lat="46.85776" lon="6.72896"><ele>454.9</ele></trkpt>
      <trkpt lat="46.8567" lon="6.72567"><ele>449.3</ele></trkpt>
      <trkpt lat="46.85633" lon="6.725"><ele>447.9</ele></trkpt>
      <trkpt lat="46.85428" lon="6.72273"><ele>443.4</ele></trkpt>
      <trkpt lat="46.85304" lon="6.72194"><ele>442.4</ele></trkpt>
      <trkpt lat="46.85181" lon="6.71991"><ele>440.3</ele></trkpt>
      <trkpt lat="46.85127" lon="6.71944"><ele>439.4</ele></trkpt>
      <trkpt lat="46.85038" lon="6.7198"><ele>436.9</ele></trkpt>
      <trkpt lat="46.8496" lon="6.71968"><ele>434.6</ele></trkpt>
      <trkpt lat="46.84915" lon="6.71897"><ele>433.4</ele></trkpt>
      <trkpt lat="46.8476" lon="6.71474"><ele>432.2</ele></trkpt>
      <trkpt lat="46.8453" lon="6.71183"><ele>434.9</ele></trkpt>
      <trkpt lat="46.84334" lon="6.70895"><ele>437.2</ele></trkpt>
      <trkpt lat="46.84108" lon="6.7066"><ele>436.6</ele></trkpt>
      <trkpt lat="46.83892" lon="6.70334"><ele>437.3</ele></trkpt>
      <trkpt lat="46.83776" lon="6.70111"><ele>436.1</ele></trkpt>
      <trkpt lat="46.83335" lon="6.69133"><ele>434.4</ele></trkpt>
      <trkpt lat="46.834" lon="6.69067"><ele>437.3</ele></trkpt>
      <trkpt lat="46.83496" lon="6.69037"><ele>440.3</ele></trkpt>
      <trkpt lat="46.83528" lon="6.68933"><ele>442.1</ele></trkpt>
      <trkpt lat="46.82905" lon="6.67766"><ele>435.9</ele></trkpt>
      <trkpt lat="46.82829" lon="6.67699"><ele>436.4</ele></trkpt>
      <trkpt lat="46.82798" lon="6.67552"><ele>436.3</ele></trkpt>
      <trkpt lat="46.82447" lon="6.67948"><ele>431.4</ele></trkpt>
      <trkpt lat="46.82337" lon="6.67815"><ele>431.3</ele></trkpt>
      <trkpt lat="46.82288" lon="6.67695"><ele>431.4</ele></trkpt>
      <trkpt lat="46.82137" lon="6.67439"><ele>431.1</ele></trkpt>
      <trkpt lat="46.82025" lon="6.67352"><ele>431.0</ele></trkpt>
      <trkpt lat="46.82004" lon="6.6706"><ele>432.0</ele></trkpt>
      <trkpt lat="46.81975" lon="6.66906"><ele>432.5</ele></trkpt>
      <trkpt lat="46.81672" lon="6.65993"><ele>432.4</ele></trkpt>
      <trkpt lat="46.81548" lon="6.65868"><ele>432.2</ele></trkpt>
      <trkpt lat="46.8151" lon="6.65792"><ele>432.2</ele></trkpt>
      <trkpt lat="46.81463" lon="6.65766"><ele>432.1</ele></trkpt>
      <trkpt lat="46.81415" lon="6.65612"><ele>432.1</ele></trkpt>
      <trkpt lat="46.81184" lon="6.65173"><ele>434.9</ele></trkpt>
      <trkpt lat="46.80674" lon="6.6435"><ele>430.6</ele></trkpt>
      <trkpt lat="46.806" lon="6.64185"><ele>430.4</ele></trkpt>
      <trkpt lat="46.80449" lon="6.63734"><ele>432.1</ele></trkpt>
      <trkpt lat="46.8029" lon="6.63394"><ele>432.9</ele></trkpt>
      <trkpt lat="46.80184" lon="6.63249"><ele>432.5</ele></trkpt>
      <trkpt lat="46.80124" lon="6.63297"><ele>431.9</ele></trkpt>
      <trkpt lat="46.7975" lon="6.63219"><ele>430.5</ele></trkpt>
      <trkpt lat="46.79545" lon="6.63216"><ele>431.3</ele></trkpt>
      <trkpt lat="46.79413" lon="6.63296"><ele>431.2</ele></trkpt>
      <trkpt lat="46.7938" lon="6.63286"><ele>431.1</ele></trkpt>
      <trkpt lat="46.79145" lon="6.6348"><ele>432.2</ele></trkpt>
      <trkpt lat="46.79119" lon="6.63541"><ele>432.3</ele></trkpt>
      <trkpt lat="46.7891" lon="6.63696"><ele>432.4</ele></trkpt>
      <trkpt lat="46.78702" lon="6.63481"><ele>432.9</ele></trkpt>
      <trkpt lat="46.78509" lon="6.63616"><ele>432.4</ele></trkpt>
      <trkpt lat="46.7849" lon="6.63727"><ele>432.2</ele></trkpt>
      <trkpt lat="46.78297" lon="6.63727"><ele>432.3</ele></trkpt>
      <trkpt lat="46.78151" lon="6.63801"><ele>433.0</ele></trkpt>
      <trkpt lat="46.78063" lon="6.63813"><ele>434.5</ele></trkpt>
      <trkpt lat="46.77997" lon="6.63757"><ele>435.7</ele></trkpt>
      <trkpt lat="46.77932" lon="6.63743"><ele>435.6</ele></trkpt>
      <trkpt lat="46.77915" lon="6.63706"><ele>435.5</ele></trkpt>
      <trkpt lat="46.77805" lon="6.63636"><ele>435.0</ele></trkpt>
      <trkpt lat="46.77381" lon="6.6319"><ele>433.5</ele></trkpt>
      <trkpt lat="46.76841" lon="6.62504"><ele>431.1</ele></trkpt>
      <trkpt lat="46.76649" lon="6.62367"><ele>431.7</ele></trkpt>
      <trkpt lat="46.7668" lon="6.62278"><ele>431.4</ele></trkpt>
      <trkpt lat="46.76669" lon="6.62259"><ele>431.3</ele></trkpt>
      <trkpt lat="46.76614" lon="6.62232"><ele>431.2</ele></trkpt>
      <trkpt lat="46.764" lon="6.62219"><ele>431.4</ele></trkpt>
      <trkpt lat="46.76274" lon="6.62094"><ele>431.7</ele></trkpt>
      <trkpt lat="46.75672" lon="6.61088"><ele>432.0</ele></trkpt>
      <trkpt lat="46.75541" lon="6.6117"><ele>432.7</ele></trkpt>
      <trkpt lat="46.75515" lon="6.61156"><ele>432.8</ele></trkpt>
      <trkpt lat="46.75173" lon="6.60585"><ele>434.4</ele></trkpt>
      <trkpt lat="46.75084" lon="6.60665"><ele>435.0</ele></trkpt>
      <trkpt lat="46.74876" lon="6.60693"><ele>435.5</ele></trkpt>
      <trkpt lat="46.7498" lon="6.61084"><ele>435.1</ele></trkpt>
      <trkpt lat="46.74895" lon="6.61156"><ele>435.2</ele></trkpt>
      <trkpt lat="46.74611" lon="6.60636"><ele>438.3</ele></trkpt>
      <trkpt lat="46.74572" lon="6.60686"><ele>438.6</ele></trkpt>
      <trkpt lat="46.74612" lon="6.60805"><ele>440.2</ele></trkpt>
      <trkpt lat="46.74585" lon="6.60856"><ele>441.2</ele></trkpt>
      <trkpt lat="46.74407" lon="6.609"><ele>446.3</ele></trkpt>
      <trkpt lat="46.74333" lon="6.60946"><ele>449.0</ele></trkpt>
      <trkpt lat="46.74281" lon="6.60816"><ele>453.1</ele></trkpt>
      <trkpt lat="46.74191" lon="6.60887"><ele>459.1</ele></trkpt>
      <trkpt lat="46.74148" lon="6.60891"><ele>462.8</ele></trkpt>
      <trkpt lat="46.74047" lon="6.6079"><ele>473.7</ele></trkpt>
      <trkpt lat="46.74034" lon="6.60719"><ele>478.8</ele></trkpt>
      <trkpt lat="46.73921" lon="6.6065"><ele>490.0</ele></trkpt>
      <trkpt lat="46.73834" lon="6.60487"><ele>498.7</ele></trkpt>
      <trkpt lat="46.73844" lon="6.60449"><ele>500.5</ele></trkpt>
      <trkpt lat="46.73915" lon="6.60447"><ele>504.2</ele></trkpt>
      <trkpt lat="46.73912" lon="6.60381"><ele>506.8</ele></trkpt>
      <trkpt lat="46.73628" lon="6.60223"><ele>529.3</ele></trkpt>
      <trkpt lat="46.73441" lon="6.60059"><ele>545.3</ele></trkpt>
      <trkpt lat="46.73288" lon="6.59985"><ele>555.7</ele></trkpt>
      <trkpt lat="46.72752" lon="6.59904"><ele>574.5</ele></trkpt>
      <trkpt lat="46.72713" lon="6.59878"><ele>575.3</ele></trkpt>
      <trkpt lat="46.7259" lon="6.59669"><ele>577.0</ele></trkpt>
      <trkpt lat="46.72529" lon="6.59703"><ele>577.3</ele></trkpt>
      <trkpt lat="46.7235" lon="6.59646"><ele>578.1</ele></trkpt>
      <trkpt lat="46.72188" lon="6.59714"><ele>577.7</ele></trkpt>
      <trkpt lat="46.72178" lon="6.59558"><ele>575.4</ele></trkpt>
      <trkpt lat="46.7215" lon="6.59546"><ele>574.3</ele></trkpt>
      <trkpt lat="46.71973" lon="6.59606"><ele>565.1</ele></trkpt>
      <trkpt lat="46.71376" lon="6.60069"><ele>559.6</ele></trkpt>
      <trkpt lat="46.71325" lon="6.60132"><ele>561.0</ele></trkpt>
      <trkpt lat="46.71238" lon="6.60383"><ele>564.9</ele></trkpt>
      <trkpt lat="46.71191" lon="6.60409"><ele>565.4</ele></trkpt>
      <trkpt lat="46.71152" lon="6.60398"><ele>565.8</ele></trkpt>
      <trkpt lat="46.70951" lon="6.60223"><ele>564.1</ele></trkpt>
      <trkpt lat="46.70575" lon="6.6008"><ele>561.6</ele></trkpt>
      <trkpt lat="46.70516" lon="6.60074"><ele>561.9</ele></trkpt>
      <trkpt lat="46.70451" lon="6.60124"><ele>562.2</ele></trkpt>
      <trkpt lat="46.70345" lon="6.59991"><ele>562.9</ele></trkpt>
      <trkpt lat="46.70132" lon="6.59921"><ele>569.4</ele></trkpt>
      <trkpt lat="46.69969" lon="6.60135"><ele>582.9</ele></trkpt>
      <trkpt lat="46.69607" lon="6.60384"><ele>600.9</ele></trkpt>
      <trkpt lat="46.69132" lon="6.60861"><ele>615.7</ele></trkpt>
      <trkpt lat="46.68951" lon="6.60918"><ele>617.0</ele></trkpt>
      <trkpt lat="46.68732" lon="6.60773"><ele>619.7</ele></trkpt>
      <trkpt lat="46.68594" lon="6.60534"><ele>619.7</ele></trkpt>
      <trkpt lat="46.68434" lon="6.60422"><ele>618.3</ele></trkpt>
      <trkpt lat="46.68213" lon="6.60371"><ele>620.9</ele></trkpt>
      <trkpt lat="46.6808" lon="6.60389"><ele>620.9</ele></trkpt>
      <trkpt lat="46.6789" lon="6.60355"><ele>619.4</ele></trkpt>
      <trkpt lat="46.67609" lon="6.6043"><ele>624.6</ele></trkpt>
      <trkpt lat="46.67352" lon="6.60552"><ele>624.5</ele></trkpt>
      <trkpt lat="46.66883" lon="6.60563"><ele>627.8</ele></trkpt>
      <trkpt lat="46.66759" lon="6.60637"><ele>630.4</ele></trkpt>
      <trkpt lat="46.66593" lon="6.60804"><ele>633.8</ele></trkpt>
      <trkpt lat="46.66513" lon="6.60834"><ele>633.9</ele></trkpt>
      <trkpt lat="46.66415" lon="6.60821"><ele>633.4</ele></trkpt>
      <trkpt lat="46.66047" lon="6.60679"><ele>626.8</ele></trkpt>
      <trkpt lat="46.65707" lon="6.60431"><ele>615.7</ele></trkpt>
      <trkpt lat="46.65562" lon="6.60424"><ele>610.1</ele></trkpt>
      <trkpt lat="46.65469" lon="6.60394"><ele>606.5</ele></trkpt>
      <trkpt lat="46.65195" lon="6.60259"><ele>600.3</ele></trkpt>
      <trkpt lat="46.64251" lon="6.59712"><ele>588.0</ele></trkpt>
      <trkpt lat="46.64082" lon="6.59717"><ele>586.6</ele></trkpt>
      <trkpt lat="46.63996" lon="6.59692"><ele>586.0</ele></trkpt>
      <trkpt lat="46.63598" lon="6.59463"><ele>585.5</ele></trkpt>
      <trkpt lat="46.63538" lon="6.59518"><ele>584.9</ele></trkpt>
      <trkpt lat="46.63445" lon="6.59724"><ele>581.6</ele></trkpt>
      <trkpt lat="46.63412" lon="6.59901"><ele>582.5</ele></trkpt>
      <trkpt lat="46.63384" lon="6.59902"><ele>582.7</ele></trkpt>
      <trkpt lat="46.6332" lon="6.59994"><ele>584.0</ele></trkpt>
      <trkpt lat="46.6325" lon="6.60013"><ele>585.2</ele></trkpt>
      <trkpt lat="46.62683" lon="6.59812"><ele>595.8</ele></trkpt>
      <trkpt lat="46.62486" lon="6.59819"><ele>602.1</ele></trkpt>
      <trkpt lat="46.62375" lon="6.59793"><ele>604.3</ele></trkpt>
      <trkpt lat="46.61707" lon="6.5956"><ele>605.7</ele></trkpt>
      <trkpt lat="46.6153" lon="6.59584"><ele>602.6</ele></trkpt>
      <trkpt lat="46.61381" lon="6.5957"><ele>601.3</ele></trkpt>
      <trkpt lat="46.6133" lon="6.59638"><ele>601.0</ele></trkpt>
      <trkpt lat="46.61202" lon="6.59657"><ele>600.6</ele></trkpt>
      <trkpt lat="46.6104" lon="6.59735"><ele>601.0</ele></trkpt>
      <trkpt lat="46.60996" lon="6.59855"><ele>601.7</ele></trkpt>
      <trkpt lat="46.61" lon="6.60022"><ele>602.8</ele></trkpt>
      <trkpt lat="46.60801" lon="6.6026"><ele>604.7</ele></trkpt>
      <trkpt lat="46.60713" lon="6.60311"><ele>603.5</ele></trkpt>
      <trkpt lat="46.60494" lon="6.60718"><ele>605.7</ele></trkpt>
      <trkpt lat="46.60378" lon="6.6099"><ele>613.6</ele></trkpt>
      <trkpt lat="46.60231" lon="6.61036"><ele>619.5</ele></trkpt>
      <trkpt lat="46.60137" lon="6.61114"><ele>622.2</ele></trkpt>
      <trkpt lat="46.60034" lon="6.60979"><ele>622.1</ele></trkpt>
      <trkpt lat="46.5988" lon="6.60883"><ele>619.9</ele></trkpt>
      <trkpt lat="46.59739" lon="6.60891"><ele>618.8</ele></trkpt>
      <trkpt lat="46.59497" lon="6.60759"><ele>618.2</ele></trkpt>
      <trkpt lat="46.59421" lon="6.60792"><ele>619.6</ele></trkpt>
      <trkpt lat="46.59381" lon="6.60885"><ele>620.7</ele></trkpt>
      <trkpt lat="46.59148" lon="6.60687"><ele>618.4</ele></trkpt>
      <trkpt lat="46.59008" lon="6.60701"><ele>616.6</ele></trkpt>
      <trkpt lat="46.58848" lon="6.60631"><ele>612.7</ele></trkpt>
      <trkpt lat="46.58714" lon="6.60625"><ele>608.7</ele></trkpt>
      <trkpt lat="46.58687" lon="6.60727"><ele>607.7</ele></trkpt>
      <trkpt lat="46.58535" lon="6.60746"><ele>605.5</ele></trkpt>
      <trkpt lat="46.58436" lon="6.60726"><ele>603.8</ele></trkpt>
      <trkpt lat="46.58396" lon="6.60747"><ele>602.9</ele></trkpt>
      <trkpt lat="46.5832" lon="6.60592"><ele>599.9</ele></trkpt>
      <trkpt lat="46.58258" lon="6.60554"><ele>599.1</ele></trkpt>
      <trkpt lat="46.58171" lon="6.60574"><ele>599.0</ele></trkpt>
      <trkpt lat="46.58107" lon="6.60686"><ele>599.5</ele></trkpt>
      <trkpt lat="46.58062" lon="6.6065"><ele>600.0</ele></trkpt>
      <trkpt lat="46.58045" lon="6.60601"><ele>600.4</ele></trkpt>
      <trkpt lat="46.58074" lon="6.60562"><ele>600.9</ele></trkpt>
      <trkpt lat="46.58084" lon="6.60501"><ele>601.1</ele></trkpt>
      <trkpt lat="46.58023" lon="6.60466"><ele>601.3</ele></trkpt>
      <trkpt lat="46.58029" lon="6.6041"><ele>601.5</ele></trkpt>
      <trkpt lat="46.57998" lon="6.60232"><ele>600.6</ele></trkpt>
      <trkpt lat="46.57859" lon="6.6002"><ele>596.8</ele></trkpt>
      <trkpt lat="46.57641" lon="6.59919"><ele>596.0</ele></trkpt>
      <trkpt lat="46.57604" lon="6.59727"><ele>595.1</ele></trkpt>
      <trkpt lat="46.57554" lon="6.59646"><ele>594.2</ele></trkpt>
      <trkpt lat="46.5752" lon="6.59629"><ele>593.7</ele></trkpt>
      <trkpt lat="46.57407" lon="6.59677"><ele>591.9</ele></trkpt>
      <trkpt lat="46.57274" lon="6.59694"><ele>590.1</ele></trkpt>
      <trkpt lat="46.57093" lon="6.5963"><ele>589.7</ele></trkpt>
      <trkpt lat="46.56996" lon="6.59657"><ele>588.7</ele></trkpt>
      <trkpt lat="46.56846" lon="6.5956"><ele>584.8</ele></trkpt>
      <trkpt lat="46.56645" lon="6.59573"><ele>575.2</ele></trkpt>
      <trkpt lat="46.56583" lon="6.59548"><ele>571.5</ele></trkpt>
      <trkpt lat="46.56552" lon="6.59504"><ele>569.4</ele></trkpt>
      <trkpt lat="46.56359" lon="6.5964"><ele>563.5</ele></trkpt>
      <trkpt lat="46.5631" lon="6.59647"><ele>561.9</ele></trkpt>
      <trkpt lat="46.5628" lon="6.59692"><ele>560.7</ele></trkpt>
      <trkpt lat="46.56244" lon="6.59622"><ele>559.5</ele></trkpt>
      <trkpt lat="46.56075" lon="6.59549"><ele>556.9</ele></trkpt>
      <trkpt lat="46.55943" lon="6.59547"><ele>551.1</ele></trkpt>
      <trkpt lat="46.55861" lon="6.59492"><ele>548.7</ele></trkpt>
      <trkpt lat="46.55705" lon="6.59636"><ele>551.1</ele></trkpt>
      <trkpt lat="46.55631" lon="6.59779"><ele>557.5</ele></trkpt>
      <trkpt lat="46.55598" lon="6.59798"><ele>558.0</ele></trkpt>
      <trkpt lat="46.55461" lon="6.59778"><ele>558.9</ele></trkpt>
      <trkpt lat="46.55197" lon="6.59805"><ele>548.7</ele></trkpt>
      <trkpt lat="46.55051" lon="6.59875"><ele>541.9</ele></trkpt>
      <trkpt lat="46.54968" lon="6.59803"><ele>534.4</ele></trkpt>
      <trkpt lat="46.54812" lon="6.59866"><ele>523.0</ele></trkpt>
      <trkpt lat="46.54611" lon="6.60019"><ele>515.0</ele></trkpt>
      <trkpt lat="46.54397" lon="6.60099"><ele>505.3</ele></trkpt>
      <trkpt lat="46.54296" lon="6.6008"><ele>500.9</ele></trkpt>
      <trkpt lat="46.54288" lon="6.60105"><ele>500.5</ele></trkpt>
      <trkpt lat="46.53765" lon="6.60451"><ele>490.1</ele></trkpt>
      <trkpt lat="46.5359" lon="6.60515"><ele>486.1</ele></trkpt>
      <trkpt lat="46.53541" lon="6.60431"><ele>484.4</ele></trkpt>
      <trkpt lat="46.53447" lon="6.60516"><ele>481.3</ele></trkpt>
      <trkpt lat="46.53419" lon="6.60497"><ele>480.2</ele></trkpt>
      <trkpt lat="46.53322" lon="6.60518"><ele>476.8</ele></trkpt>
      <trkpt lat="46.53298" lon="6.60594"><ele>474.1</ele></trkpt>
      <trkpt lat="46.53119" lon="6.60728"><ele>464.1</ele></trkpt>
      <trkpt lat="46.52869" lon="6.60763"><ele>451.9</ele></trkpt>
      <trkpt lat="46.52762" lon="6.60728"><ele>448.7</ele></trkpt>
      <trkpt lat="46.52693" lon="6.60773"><ele>446.7</ele></trkpt>
      <trkpt lat="46.52683" lon="6.60767"><ele>446.1</ele></trkpt>
      <trkpt lat="46.52709" lon="6.60682"><ele>442.9</ele></trkpt>
      <trkpt lat="46.52639" lon="6.60614"><ele>438.6</ele></trkpt>
      <trkpt lat="46.52601" lon="6.60644"><ele>435.8</ele></trkpt>
      <trkpt lat="46.52549" lon="6.60583"><ele>431.5</ele></trkpt>
      <trkpt lat="46.52429" lon="6.60524"><ele>425.4</ele></trkpt>
      <trkpt lat="46.52409" lon="6.60605"><ele>424.0</ele></trkpt>
      <trkpt lat="46.52324" lon="6.60599"><ele>421.3</ele></trkpt>
      <trkpt lat="46.52264" lon="6.60623"><ele>418.9</ele></trkpt>
      <trkpt lat="46.52188" lon="6.60582"><ele>415.9</ele></trkpt>
      <trkpt lat="46.52107" lon="6.605"><ele>408.8</ele></trkpt>
      <trkpt lat="46.52079" lon="6.60512"><ele>406.6</ele></trkpt>
      <trkpt lat="46.5204" lon="6.60432"><ele>401.5</ele></trkpt>
      <trkpt lat="46.51942" lon="6.60416"><ele>394.5</ele></trkpt>
      <trkpt lat="46.51918" lon="6.60355"><ele>390.9</ele></trkpt>
      <trkpt lat="46.51825" lon="6.6034"><ele>386.9</ele></trkpt>
      <trkpt lat="46.51818" lon="6.60271"><ele>384.9</ele></trkpt>
      <trkpt lat="46.51765" lon="6.60236"><ele>383.1</ele></trkpt>
      <trkpt lat="46.51757" lon="6.60255"><ele>382.9</ele></trkpt>
      <trkpt lat="46.51695" lon="6.602"><ele>382.1</ele></trkpt>
      <trkpt lat="46.51784" lon="6.59812"><ele>381.2</ele></trkpt>
      <trkpt lat="46.51746" lon="6.59746"><ele>381.2</ele></trkpt>
    </trkseg>
  </trk>
</gpx>
