<?xml version="1.0" encoding="UTF-8"?>
<gpx version="1.1" creator="tools/extract_original.py"
     xmlns="http://www.topografix.com/GPX/1/1">
  <metadata><name>Tag 1: Karlsruhe → Kehl</name></metadata>
  <wpt lat="49.031078" lon="8.380797"><name>Old Airfield</name></wpt>
  <wpt lat="48.796249" lon="8.069583"><name>Sand Dunes and Conveyor Belts near Beinheim</name></wpt>
  <wpt lat="48.653201" lon="7.830234"><name>Shaded Cycle Path</name></wpt>
  <trk>
    <name>Tag 1: Karlsruhe → Kehl</name>
    <trkseg>
      <trkpt lat="49.03616" lon="8.44548"><ele>114.2</ele></trkpt>
      <trkpt lat="49.03589" lon="8.44538"><ele>114.2</ele></trkpt>
      <trkpt lat="49.03578" lon="8.44563"><ele>114.2</ele></trkpt>
      <trkpt lat="49.03549" lon="8.44544"><ele>114.2</ele></trkpt>
      <trkpt lat="49.03392" lon="8.44387"><ele>113.2</ele></trkpt>
      <trkpt lat="49.03463" lon="8.44223"><ele>114.3</ele></trkpt>
      <trkpt lat="49.03397" lon="8.44147"><ele>115.0</ele></trkpt>
      <trkpt lat="49.03465" lon="8.43705"><ele>116.1</ele></trkpt>
      <trkpt lat="49.03469" lon="8.4355"><ele>116.1</ele></trkpt>
      <trkpt lat="49.03398" lon="8.43455"><ele>116.1</ele></trkpt>
      <trkpt lat="49.03345" lon="8.43422"><ele>115.8</ele></trkpt>
      <trkpt lat="49.03408" lon="8.43068"><ele>114.0</ele></trkpt>
      <trkpt lat="49.03502" lon="8.42889"><ele>113.4</ele></trkpt>
      <trkpt lat="49.02419" lon="8.41627"><ele>114.5</ele></trkpt>
      <trkpt lat="49.02604" lon="8.41349"><ele>114.3</ele></trkpt>
      <trkpt lat="49.02933" lon="8.40619"><ele>113.6</ele></trkpt>
      <trkpt lat="49.03055" lon="8.40026"><ele>113.2</ele></trkpt>
      <trkpt lat="49.03055" lon="8.39902"><ele>113.8</ele></trkpt>
      <trkpt lat="49.02983" lon="8.39281"><ele>116.1</ele></trkpt>
      <trkpt lat="49.02983" lon="8.38856"><ele>116.2</ele></trkpt>
      <trkpt lat="49.03003" lon="8.38667"><ele>115.7</ele></trkpt>
      <trkpt lat="49.02963" lon="8.38656"><ele>115.3</ele></trkpt>
      <trkpt lat="49.02977" lon="8.38422"><ele>114.3</ele></trkpt>
      <trkpt lat="49.03016" lon="8.38428"><ele>114.2</ele></trkpt>
      <trkpt lat="49.03026" lon="8.38284"><ele>113.9</ele></trkpt>
      <trkpt lat="49.03107" lon="8.38298"><ele>113.6</ele></trkpt>
      <trkpt lat="49.03102" lon="8.38039"><ele>113.1</ele></trkpt>
      <trkpt lat="49.03024" lon="8.37699"><ele>112.8</ele></trkpt>
      <trkpt lat="49.02954" lon="8.37645"><ele>113.0</ele></trkpt>
      <trkpt lat="49.03016" lon="8.37664"><ele>113.4</ele></trkpt>
      <trkpt lat="49.03034" lon="8.37495"><ele>114.1</ele></trkpt>
      <trkpt lat="49.03086" lon="8.36344"><ele>112.0</ele></trkpt>
      <trkpt lat="49.03119" lon="8.36087"><ele>112.7</ele></trkpt>
      <trkpt lat="49.0321" lon="8.3575"><ele>113.8</ele></trkpt>
      <trkpt lat="49.03389" lon="8.35304"><ele>113.5</ele></trkpt>
      <trkpt lat="49.03886" lon="8.3465"><ele>112.1</ele></trkpt>
      <trkpt lat="49.03714" lon="8.34291"><ele>112.7</ele></trkpt>
      <trkpt lat="49.0352" lon="8.34101"><ele>113.3</ele></trkpt>
      <trkpt lat="49.03373" lon="8.33839"><ele>111.5</ele></trkpt>
      <trkpt lat="49.03538" lon="8.33657"><ele>108.4</ele></trkpt>
      <trkpt lat="49.03631" lon="8.33436"><ele>105.6</ele></trkpt>
      <trkpt lat="49.03682" lon="8.33208"><ele>104.5</ele></trkpt>
      <trkpt lat="49.03692" lon="8.33047"><ele>104.6</ele></trkpt>
      <trkpt lat="49.0367" lon="8.3264"><ele>105.6</ele></trkpt>
      <trkpt lat="49.03759" lon="8.31904"><ele>106.2</ele></trkpt>
      <trkpt lat="49.03781" lon="8.31536"><ele>106.8</ele></trkpt>
      <trkpt lat="49.03751" lon="8.31284"><ele>108.1</ele></trkpt>
      <trkpt lat="49.03684" lon="8.30993"><ele>110.3</ele></trkpt>
      <trkpt lat="49.03666" lon="8.30791"><ele>110.8</ele></trkpt>
      <trkpt lat="49.03764" lon="8.29901"><ele>108.8</ele></trkpt>
      <trkpt lat="49.03781" lon="8.29805"><ele>109.8</ele></trkpt>
      <trkpt lat="49.03818" lon="8.29817"><ele>109.5</ele></trkpt>
      <trkpt lat="49.03785" lon="8.29946"><ele>109.0</ele></trkpt>
      <trkpt lat="49.03735" lon="8.29923"><ele>108.5</ele></trkpt>
      <trkpt lat="49.03681" lon="8.29935"><ele>107.3</ele></trkpt>
      <trkpt lat="49.0365" lon="8.2997"><ele>106.4</ele></trkpt>
      <trkpt lat="49.03624" lon="8.30088"><ele>104.6</ele></trkpt>
      <trkpt lat="49.036" lon="8.30095"><ele>104.5</ele></trkpt>
      <trkpt lat="49.03134" lon="8.29986"><ele>103.4</ele></trkpt>
      <trkpt lat="49.02738" lon="8.29925"><ele>104.8</ele></trkpt>
      <trkpt lat="49.02607" lon="8.29809"><ele>105.6</ele></trkpt>
      <trkpt lat="49.02578" lon="8.29763"><ele>105.8</ele></trkpt>
      <trkpt lat="49.02572" lon="8.29712"><ele>105.7</ele></trkpt>
      <trkpt lat="49.02636" lon="8.28959"><ele>105.6</ele></trkpt>
      <trkpt lat="49.02677" lon="8.28777"><ele>105.5</ele></trkpt>
      <trkpt lat="49.0263" lon="8.28753"><ele>105.4</ele></trkpt>
      <trkpt lat="49.02535" lon="8.28007"><ele>104.9</ele></trkpt>
      <trkpt lat="49.02512" lon="8.2795"><ele>104.9</ele></trkpt>
      <trkpt lat="49.02178" lon="8.27487"><ele>105.5</ele></trkpt>
      <trkpt lat="49.02077" lon="8.27471"><ele>105.5</ele></trkpt>
      <trkpt lat="49.02044" lon="8.27394"><ele>105.3</ele></trkpt>
      <trkpt lat="49.0195" lon="8.27439"><ele>104.9</ele></trkpt>
      <trkpt lat="49.01845" lon="8.27584"><ele>104.6</ele></trkpt>
      <trkpt lat="49.01665" lon="8.27276"><ele>104.9</ele></trkpt>
      <trkpt lat="49.01569" lon="8.27211"><ele>105.0</ele></trkpt>
      <trkpt lat="49.01349" lon="8.27186"><ele>105.6</ele></trkpt>
      <trkpt lat="49.01316" lon="8.27146"><ele>105.8</ele></trkpt>
      <trkpt lat="49.0129" lon="8.27038"><ele>106.1</ele></trkpt>
      <trkpt lat="49.0122" lon="8.27069"><ele>106.2</ele></trkpt>
      <trkpt lat="49.01093" lon="8.27227"><ele>106.3</ele></trkpt>
      <trkpt lat="49.0084" lon="8.27336"><ele>106.3</ele></trkpt>
      <trkpt lat="49.00665" lon="8.27323"><ele>106.6</ele></trkpt>
      <trkpt lat="49.00526" lon="8.2717"><ele>106.8</ele></trkpt>
      <trkpt lat="49.00163" lon="8.27383"><ele>107.7</ele></trkpt>
      <trkpt lat="49.0009" lon="8.27394"><ele>108.2</ele></trkpt>
      <trkpt lat="48.99768" lon="8.27561"><ele>110.0</ele></trkpt>
      <trkpt lat="48.99705" lon="8.27553"><ele>109.6</ele></trkpt>
      <trkpt lat="48.99547" lon="8.27385"><ele>108.7</ele></trkpt>
      <trkpt lat="48.99326" lon="8.27405"><ele>108.5</ele></trkpt>
      <trkpt lat="48.99236" lon="8.27467"><ele>108.5</ele></trkpt>
      <trkpt lat="48.99191" lon="8.27535"><ele>108.5</ele></trkpt>
      <trkpt lat="48.98961" lon="8.27168"><ele>108.4</ele></trkpt>
      <trkpt lat="48.98868" lon="8.2697"><ele>108.0</ele></trkpt>
      <trkpt lat="48.98701" lon="8.26548"><ele>107.1</ele></trkpt>
      <trkpt lat="48.98614" lon="8.26266"><ele>107.0</ele></trkpt>
      <trkpt lat="48.98443" lon="8.26061"><ele>107.2</ele></trkpt>
      <trkpt lat="48.984" lon="8.25973"><ele>107.2</ele></trkpt>
      <trkpt lat="48.98345" lon="8.25629"><ele>107.0</ele></trkpt>
      <trkpt lat="48.98213" lon="8.252"><ele>108.2</ele></trkpt>
      <trkpt lat="48.98142" lon="8.25087"><ele>108.4</ele></trkpt>
      <trkpt lat="48.98083" lon="8.25046"><ele>108.5</ele></trkpt>
      <trkpt lat="48.98104" lon="8.24915"><ele>108.2</ele></trkpt>
      <trkpt lat="48.98029" lon="8.24892"><ele>108.0</ele></trkpt>
      <trkpt lat="48.97957" lon="8.25105"><ele>108.1</ele></trkpt>
      <trkpt lat="48.97916" lon="8.25173"><ele>107.9</ele></trkpt>
      <trkpt lat="48.97829" lon="8.2529"><ele>106.7</ele></trkpt>
      <trkpt lat="48.97781" lon="8.25259"><ele>106.3</ele></trkpt>
      <trkpt lat="48.97045" lon="8.23881"><ele>106.7</ele></trkpt>
      <trkpt lat="48.97005" lon="8.23486"><ele>108.1</ele></trkpt>
      <trkpt lat="48.96906" lon="8.23262"><ele>108.4</ele></trkpt>
      <trkpt lat="48.96857" lon="8.23093"><ele>108.4</ele></trkpt>
      <trkpt lat="48.96705" lon="8.22842"><ele>108.4</ele></trkpt>
      <trkpt lat="48.96572" lon="8.22218"><ele>108.9</ele></trkpt>
      <trkpt lat="48.96589" lon="8.22158"><ele>108.9</ele></trkpt>
      <trkpt lat="48.96713" lon="8.21985"><ele>109.1</ele></trkpt>
      <trkpt lat="48.96737" lon="8.21877"><ele>109.2</ele></trkpt>
      <trkpt lat="48.96733" lon="8.21789"><ele>109.1</ele></trkpt>
      <trkpt lat="48.96664" lon="8.21627"><ele>108.8</ele></trkpt>
      <trkpt lat="48.96394" lon="8.2129"><ele>108.8</ele></trkpt>
      <trkpt lat="48.96329" lon="8.21162"><ele>108.4</ele></trkpt>
      <trkpt lat="48.96298" lon="8.21045"><ele>108.0</ele></trkpt>
      <trkpt lat="48.96252" lon="8.21013"><ele>107.9</ele></trkpt>
      <trkpt lat="48.961" lon="8.20307"><ele>106.8</ele></trkpt>
      <trkpt lat="48.96031" lon="8.20067"><ele>106.5</ele></trkpt>
      <trkpt lat="48.95952" lon="8.19843"><ele>106.3</ele></trkpt>
      <trkpt lat="48.95815" lon="8.19558"><ele>107.9</ele></trkpt>
      <trkpt lat="48.95822" lon="8.19526"><ele>108.2</ele></trkpt>
      <trkpt lat="48.95903" lon="8.19502"><ele>109.1</ele></trkpt>
      <trkpt lat="48.95975" lon="8.1935"><ele>109.9</ele></trkpt>
      <trkpt lat="48.95901" lon="8.19212"><ele>110.2</ele></trkpt>
      <trkpt lat="48.95857" lon="8.18994"><ele>110.1</ele></trkpt>
      <trkpt lat="48.95766" lon="8.18753"><ele>110.5</ele></trkpt>
      <trkpt lat="48.95789" lon="8.18482"><ele>109.9</ele></trkpt>
      <trkpt lat="48.95768" lon="8.18437"><ele>109.7</ele></trkpt>
      <trkpt lat="48.9577" lon="8.18279"><ele>109.2</ele></trkpt>
      <trkpt lat="48.9573" lon="8.18255"><ele>109.0</ele></trkpt>
      <trkpt lat="48.95603" lon="8.18274"><ele>109.1</ele></trkpt>
      <trkpt lat="48.95458" lon="8.18113"><ele>109.1</ele></trkpt>
      <trkpt lat="48.95308" lon="8.18013"><ele>109.1</ele></trkpt>
      <trkpt lat="48.94923" lon="8.17829"><ele>109.3</ele></trkpt>
      <trkpt lat="48.94859" lon="8.17857"><ele>109.4</ele></trkpt>
      <trkpt lat="48.94842" lon="8.17837"><ele>109.4</ele></trkpt>
      <trkpt lat="48.94739" lon="8.1791"><ele>109.6</ele></trkpt>
      <trkpt lat="48.94724" lon="8.18023"><ele>109.8</ele></trkpt>
      <trkpt lat="48.94671" lon="8.18105"><ele>109.9</ele></trkpt>
      <trkpt lat="48.94638" lon="8.18262"><ele>110.3</ele></trkpt>
      <trkpt lat="48.94655" lon="8.18305"><ele>110.4</ele></trkpt>
      <trkpt lat="48.94757" lon="8.18381"><ele>110.9</ele></trkpt>
      <trkpt lat="48.94765" lon="8.18431"><ele>111.2</ele></trkpt>
      <trkpt lat="48.94705" lon="8.18502"><ele>111.7</ele></trkpt>
      <trkpt lat="48.9465" lon="8.18503"><ele>111.8</ele></trkpt>
      <trkpt lat="48.94083" lon="8.18126"><ele>111.2</ele></trkpt>
      <trkpt lat="48.93578" lon="8.17735"><ele>110.4</ele></trkpt>
      <trkpt lat="48.9349" lon="8.1759"><ele>110.8</ele></trkpt>
      <trkpt lat="48.93403" lon="8.17498"><ele>111.0</ele></trkpt>
      <trkpt lat="48.93248" lon="8.17419"><ele>111.1</ele></trkpt>
      <trkpt lat="48.92792" lon="8.16917"><ele>112.3</ele></trkpt>
      <trkpt lat="48.9275" lon="8.16846"><ele>112.0</ele></trkpt>
      <trkpt lat="48.9265" lon="8.16543"><ele>111.7</ele></trkpt>
      <trkpt lat="48.92269" lon="8.16106"><ele>112.1</ele></trkpt>
      <trkpt lat="48.92081" lon="8.16041"><ele>112.1</ele></trkpt>
      <trkpt lat="48.91904" lon="8.15862"><ele>110.8</ele></trkpt>
      <trkpt lat="48.91749" lon="8.15746"><ele>110.4</ele></trkpt>
      <trkpt lat="48.91735" lon="8.15691"><ele>110.4</ele></trkpt>
      <trkpt lat="48.91791" lon="8.15447"><ele>110.7</ele></trkpt>
      <trkpt lat="48.91741" lon="8.15358"><ele>110.7</ele></trkpt>
      <trkpt lat="48.91739" lon="8.15287"><ele>110.6</ele></trkpt>
      <trkpt lat="48.91845" lon="8.14987"><ele>110.4</ele></trkpt>
      <trkpt lat="48.91868" lon="8.14871"><ele>110.1</ele></trkpt>
      <trkpt lat="48.91756" lon="8.14796"><ele>109.2</ele></trkpt>
      <trkpt lat="48.9164" lon="8.14615"><ele>108.9</ele></trkpt>
      <trkpt lat="48.91576" lon="8.14598"><ele>108.9</ele></trkpt>
      <trkpt lat="48.9147" lon="8.14492"><ele>108.9</ele></trkpt>
      <trkpt lat="48.91388" lon="8.14232"><ele>109.4</ele></trkpt>
      <trkpt lat="48.91113" lon="8.13915"><ele>109.1</ele></trkpt>
      <trkpt lat="48.91039" lon="8.13684"><ele>109.8</ele></trkpt>
      <trkpt lat="48.90905" lon="8.1349"><ele>111.6</ele></trkpt>
      <trkpt lat="48.90842" lon="8.13141"><ele>111.3</ele></trkpt>
      <trkpt lat="48.90803" lon="8.13048"><ele>110.7</ele></trkpt>
      <trkpt lat="48.90712" lon="8.13001"><ele>109.9</ele></trkpt>
      <trkpt lat="48.9061" lon="8.13004"><ele>109.3</ele></trkpt>
      <trkpt lat="48.90218" lon="8.13473"><ele>111.7</ele></trkpt>
      <trkpt lat="48.90079" lon="8.13594"><ele>114.3</ele></trkpt>
      <trkpt lat="48.89307" lon="8.135"><ele>114.0</ele></trkpt>
      <trkpt lat="48.89184" lon="8.13556"><ele>112.8</ele></trkpt>
      <trkpt lat="48.89123" lon="8.13548"><ele>112.1</ele></trkpt>
      <trkpt lat="48.88942" lon="8.13397"><ele>111.9</ele></trkpt>
      <trkpt lat="48.88906" lon="8.13321"><ele>112.4</ele></trkpt>
      <trkpt lat="48.88888" lon="8.13215"><ele>113.1</ele></trkpt>
      <trkpt lat="48.88851" lon="8.13149"><ele>113.5</ele></trkpt>
      <trkpt lat="48.88819" lon="8.13148"><ele>113.5</ele></trkpt>
      <trkpt lat="48.88473" lon="8.12854"><ele>112.8</ele></trkpt>
      <trkpt lat="48.87635" lon="8.12313"><ele>114.5</ele></trkpt>
      <trkpt lat="48.8751" lon="8.11656"><ele>112.9</ele></trkpt>
      <trkpt lat="48.87394" lon="8.11423"><ele>110.5</ele></trkpt>
      <trkpt lat="48.87344" lon="8.1108"><ele>112.1</ele></trkpt>
      <trkpt lat="48.87049" lon="8.10557"><ele>113.2</ele></trkpt>
      <trkpt lat="48.86887" lon="8.10384"><ele>114.0</ele></trkpt>
      <trkpt lat="48.86827" lon="8.10371"><ele>114.0</ele></trkpt>
      <trkpt lat="48.8685" lon="8.10841"><ele>113.9</ele></trkpt>
      <trkpt lat="48.8683" lon="8.10944"><ele>113.8</ele></trkpt>
      <trkpt lat="48.85175" lon="8.10718"><ele>113.9</ele></trkpt>
      <trkpt lat="48.85094" lon="8.11074"><ele>115.6</ele></trkpt>
      <trkpt lat="48.85191" lon="8.11166"><ele>114.6</ele></trkpt>
      <trkpt lat="48.85131" lon="8.11316"><ele>113.6</ele></trkpt>
      <trkpt lat="48.84757" lon="8.1113"><ele>112.9</ele></trkpt>
      <trkpt lat="48.84736" lon="8.1109"><ele>112.9</ele></trkpt>
      <trkpt lat="48.84741" lon="8.11013"><ele>113.0</ele></trkpt>
      <trkpt lat="48.84703" lon="8.10872"><ele>113.9</ele></trkpt>
      <trkpt lat="48.84294" lon="8.10617"><ele>115.3</ele></trkpt>
      <trkpt lat="48.84311" lon="8.1047"><ele>115.6</ele></trkpt>
      <trkpt lat="48.83991" lon="8.10404"><ele>116.1</ele></trkpt>
      <trkpt lat="48.83556" lon="8.10123"><ele>115.8</ele></trkpt>
      <trkpt lat="48.83524" lon="8.10082"><ele>115.9</ele></trkpt>
      <trkpt lat="48.83491" lon="8.10134"><ele>115.9</ele></trkpt>
      <trkpt lat="48.83213" lon="8.10065"><ele>115.9</ele></trkpt>
      <trkpt lat="48.82997" lon="8.10054"><ele>115.6</ele></trkpt>
      <trkpt lat="48.82739" lon="8.10105"><ele>115.6</ele></trkpt>
      <trkpt lat="48.82587" lon="8.10107"><ele>116.0</ele></trkpt>
      <trkpt lat="48.82115" lon="8.0995"><ele>116.3</ele></trkpt>
      <trkpt lat="48.82068" lon="8.10042"><ele>115.7</ele></trkpt>
      <trkpt lat="48.81823" lon="8.09926"><ele>115.0</ele></trkpt>
      <trkpt lat="48.81713" lon="8.0973"><ele>115.2</ele></trkpt>
      <trkpt lat="48.8159" lon="8.09796"><ele>115.5</ele></trkpt>
      <trkpt lat="48.81024" lon="8.09276"><ele>116.2</ele></trkpt>
      <trkpt lat="48.80762" lon="8.09005"><ele>115.9</ele></trkpt>
      <trkpt lat="48.80327" lon="8.08499"><ele>115.7</ele></trkpt>
      <trkpt lat="48.80045" lon="8.08127"><ele>117.5</ele></trkpt>
      <trkpt lat="48.80012" lon="8.07972"><ele>117.5</ele></trkpt>
      <trkpt lat="48.79953" lon="8.07892"><ele>117.7</ele></trkpt>
      <trkpt lat="48.79861" lon="8.07856"><ele>117.9</ele></trkpt>
      <trkpt lat="48.79605" lon="8.07453"><ele>118.3</ele></trkpt>
      <trkpt lat="48.79587" lon="8.07353"><ele>118.5</ele></trkpt>
      <trkpt lat="48.79651" lon="8.07163"><ele>118.8</ele></trkpt>
      <trkpt lat="48.7966" lon="8.07065"><ele>118.9</ele></trkpt>
      <trkpt lat="48.79528" lon="8.06747"><ele>118.8</ele></trkpt>
      <trkpt lat="48.7949" lon="8.06697"><ele>118.6</ele></trkpt>
      <trkpt lat="48.79211" lon="8.06561"><ele>117.3</ele></trkpt>
      <trkpt lat="48.79171" lon="8.06508"><ele>116.9</ele></trkpt>
      <trkpt lat="48.79139" lon="8.06385"><ele>116.3</ele></trkpt>
      <trkpt lat="48.79081" lon="8.06002"><ele>116.2</ele></trkpt>
      <trkpt lat="48.79082" lon="8.05722"><ele>116.8</ele></trkpt>
      <trkpt lat="48.79107" lon="8.05571"><ele>117.4</ele></trkpt>
      <trkpt lat="48.79208" lon="8.05486"><ele>117.7</ele></trkpt>
      <trkpt lat="48.7923" lon="8.05425"><ele>117.7</ele></trkpt>
      <trkpt lat="48.79234" lon="8.05354"><ele>117.8</ele></trkpt>
      <trkpt lat="48.79188" lon="8.05222"><ele>117.8</ele></trkpt>
      <trkpt lat="48.79244" lon="8.04857"><ele>118.4</ele></trkpt>
      <trkpt lat="48.79259" lon="8.04617"><ele>118.6</ele></trkpt>
      <trkpt lat="48.7924" lon="8.0407"><ele>118.1</ele></trkpt>
      <trkpt lat="48.7916" lon="8.03576"><ele>118.5</ele></trkpt>
      <trkpt lat="48.79234" lon="8.03336"><ele>119.6</ele></trkpt>
      <trkpt lat="48.79233" lon="8.03275"><ele>119.8</ele></trkpt>
      <trkpt lat="48.79211" lon="8.03228"><ele>120.0</ele></trkpt>
      <trkpt lat="48.78979" lon="8.02852"><ele>120.7</ele></trkpt>
      <trkpt lat="48.78837" lon="8.02815"><ele>120.8</ele></trkpt>
      <trkpt lat="48.78641" lon="8.0256"><ele>120.7</ele></trkpt>
      <trkpt lat="48.78505" lon="8.02439"><ele>120.3</ele></trkpt>
      <trkpt lat="48.78379" lon="8.02368"><ele>120.1</ele></trkpt>
      <trkpt lat="48.78265" lon="8.0233"><ele>119.9</ele></trkpt>
      <trkpt lat="48.77118" lon="8.0215"><ele>118.9</ele></trkpt>
      <trkpt lat="48.76894" lon="8.02051"><ele>117.0</ele></trkpt>
      <trkpt lat="48.76719" lon="8.01928"><ele>116.1</ele></trkpt>
      <trkpt lat="48.76483" lon="8.01687"><ele>117.3</ele></trkpt>
      <trkpt lat="48.76323" lon="8.01445"><ele>118.5</ele></trkpt>
      <trkpt lat="48.76179" lon="8.01121"><ele>118.9</ele></trkpt>
      <trkpt lat="48.76091" lon="8.00764"><ele>118.6</ele></trkpt>
      <trkpt lat="48.76057" lon="8.00542"><ele>118.3</ele></trkpt>
      <trkpt lat="48.76043" lon="8.0027"><ele>119.0</ele></trkpt>
      <trkpt lat="48.76071" lon="7.99837"><ele>120.7</ele></trkpt>
      <trkpt lat="48.76235" lon="7.98873"><ele>122.0</ele></trkpt>
      <trkpt lat="48.76277" lon="7.98804"><ele>122.2</ele></trkpt>
      <trkpt lat="48.76431" lon="7.98729"><ele>122.8</ele></trkpt>
      <trkpt lat="48.76461" lon="7.98683"><ele>122.7</ele></trkpt>
      <trkpt lat="48.76529" lon="7.98275"><ele>122.2</ele></trkpt>
      <trkpt lat="48.7651" lon="7.98219"><ele>122.2</ele></trkpt>
      <trkpt lat="48.76319" lon="7.97999"><ele>122.4</ele></trkpt>
      <trkpt lat="48.76232" lon="7.97617"><ele>121.9</ele></trkpt>
      <trkpt lat="48.76073" lon="7.97175"><ele>122.3</ele></trkpt>
      <trkpt lat="48.76025" lon="7.97107"><ele>122.5</ele></trkpt>
      <trkpt lat="48.75646" lon="7.96755"><ele>122.8</ele></trkpt>
      <trkpt lat="48.75618" lon="7.96674"><ele>122.7</ele></trkpt>
      <trkpt lat="48.75551" lon="7.96603"><ele>122.2</ele></trkpt>
      <trkpt lat="48.7573" lon="7.95978"><ele>121.8</ele></trkpt>
      <trkpt lat="48.75753" lon="7.95718"><ele>122.4</ele></trkpt>
      <trkpt lat="48.75866" lon="7.95418"><ele>122.5</ele></trkpt>
      <trkpt lat="48.75963" lon="7.95332"><ele>122.9</ele></trkpt>
      <trkpt lat="48.75928" lon="7.95238"><ele>123.1</ele></trkpt>
      <trkpt lat="48.7578" lon="7.95017"><ele>123.0</ele></trkpt>
      <trkpt lat="48.75359" lon="7.94227"><ele>122.2</ele></trkpt>
      <trkpt lat="48.75241" lon="7.94042"><ele>122.5</ele></trkpt>
      <trkpt lat="48.74331" lon="7.92299"><ele>122.7</ele></trkpt>
      <trkpt lat="48.7424" lon="7.92202"><ele>122.6</ele></trkpt>
      <trkpt lat="48.74227" lon="7.92115"><ele>122.6</ele></trkpt>
      <trkpt lat="48.73761" lon="7.91259"><ele>123.6</ele></trkpt>
      <trkpt lat="48.73584" lon="7.911"><ele>124.9</ele></trkpt>
      <trkpt lat="48.73454" lon="7.91071"><ele>125.3</ele></trkpt>
      <trkpt lat="48.73368" lon="7.91087"><ele>125.4</ele></trkpt>
      <trkpt lat="48.73301" lon="7.91057"><ele>125.6</ele></trkpt>
      <trkpt lat="48.73056" lon="7.90685"><ele>126.3</ele></trkpt>
      <trkpt lat="48.72883" lon="7.90594"><ele>126.6</ele></trkpt>
      <trkpt lat="48.72881" lon="7.9062"><ele>126.6</ele></trkpt>
      <trkpt lat="48.72812" lon="7.90653"><ele>126.6</ele></trkpt>
      <trkpt lat="48.72791" lon="7.90769"><ele>126.3</ele></trkpt>
      <trkpt lat="48.72327" lon="7.9087"><ele>125.2</ele></trkpt>
      <trkpt lat="48.72192" lon="7.91037"><ele>124.8</ele></trkpt>
      <trkpt lat="48.72115" lon="7.91063"><ele>124.8</ele></trkpt>
      <trkpt lat="48.72076" lon="7.91106"><ele>124.8</ele></trkpt>
      <trkpt lat="48.71877" lon="7.9141"><ele>125.4</ele></trkpt>
      <trkpt lat="48.71796" lon="7.91455"><ele>125.5</ele></trkpt>
      <trkpt lat="48.7155" lon="7.91486"><ele>126.2</ele></trkpt>
      <trkpt lat="48.71511" lon="7.9153"><ele>126.3</ele></trkpt>
      <trkpt lat="48.71395" lon="7.91483"><ele>126.4</ele></trkpt>
      <trkpt lat="48.71359" lon="7.91492"><ele>126.3</ele></trkpt>
      <trkpt lat="48.71265" lon="7.9143"><ele>126.1</ele></trkpt>
      <trkpt lat="48.71186" lon="7.91428"><ele>126.2</ele></trkpt>
      <trkpt lat="48.71176" lon="7.91395"><ele>126.2</ele></trkpt>
      <trkpt lat="48.71033" lon="7.91487"><ele>126.4</ele></trkpt>
      <trkpt lat="48.70891" lon="7.91716"><ele>126.5</ele></trkpt>
      <trkpt lat="48.7075" lon="7.91803"><ele>126.4</ele></trkpt>
      <trkpt lat="48.70567" lon="7.9161"><ele>125.3</ele></trkpt>
      <trkpt lat="48.70269" lon="7.92041"><ele>126.2</ele></trkpt>
      <trkpt lat="48.69977" lon="7.92102"><ele>126.1</ele></trkpt>
      <trkpt lat="48.69832" lon="7.92088"><ele>125.9</ele></trkpt>
      <trkpt lat="48.69733" lon="7.91947"><ele>125.7</ele></trkpt>
      <trkpt lat="48.69176" lon="7.9138"><ele>127.6</ele></trkpt>
      <trkpt lat="48.69119" lon="7.91345"><ele>127.8</ele></trkpt>
      <trkpt lat="48.6897" lon="7.90629"><ele>128.1</ele></trkpt>
      <trkpt lat="48.68938" lon="7.90599"><ele>128.0</ele></trkpt>
      <trkpt lat="48.68948" lon="7.90533"><ele>127.8</ele></trkpt>
      <trkpt lat="48.68907" lon="7.90178"><ele>126.5</ele></trkpt>
      <trkpt lat="48.68923" lon="7.89702"><ele>126.4</ele></trkpt>
      <trkpt lat="48.6909" lon="7.89197"><ele>128.0</ele></trkpt>
      <trkpt lat="48.69249" lon="7.89062"><ele>128.5</ele></trkpt>
      <trkpt lat="48.69193" lon="7.88846"><ele>129.0</ele></trkpt>
      <trkpt lat="48.69185" lon="7.88703"><ele>129.2</ele></trkpt>
      <trkpt lat="48.692" lon="7.88637"><ele>129.4</ele></trkpt>
      <trkpt lat="48.69053" lon="7.88538"><ele>129.7</ele></trkpt>
      <trkpt lat="48.69063" lon="7.88486"><ele>129.6</ele></trkpt>
      <trkpt lat="48.6909" lon="7.88489"><ele>129.5</ele></trkpt>
      <trkpt lat="48.69163" lon="7.88303"><ele>129.0</ele></trkpt>
      <trkpt lat="48.69118" lon="7.88242"><ele>128.7</ele></trkpt>
      <trkpt lat="48.69104" lon="7.88175"><ele>128.5</ele></trkpt>
      <trkpt lat="48.69172" lon="7.8794"><ele>128.5</ele></trkpt>
      <trkpt lat="48.69033" lon="7.87429"><ele>129.0</ele></trkpt>
      <trkpt lat="48.68993" lon="7.87335"><ele>129.2</ele></trkpt>
      <trkpt lat="48.6877" lon="7.86994"><ele>128.8</ele></trkpt>
      <trkpt lat="48.68521" lon="7.86849"><ele>128.2</ele></trkpt>
      <trkpt lat="48.68372" lon="7.86692"><ele>128.1</ele></trkpt>
      <trkpt lat="48.68269" lon="7.86567"><ele>128.2</ele></trkpt>
      <trkpt lat="48.67928" lon="7.86046"><ele>129.3</ele></trkpt>
      <trkpt lat="48.67829" lon="7.85679"><ele>130.1</ele></trkpt>
      <trkpt lat="48.67842" lon="7.85618"><ele>130.1</ele></trkpt>
      <trkpt lat="48.67951" lon="7.85486"><ele>129.8</ele></trkpt>
      <trkpt lat="48.67949" lon="7.85451"><ele>129.8</ele></trkpt>
      <trkpt lat="48.67845" lon="7.85269"><ele>129.6</ele></trkpt>
      <trkpt lat="48.67753" lon="7.84946"><ele>129.3</ele></trkpt>
      <trkpt lat="48.67526" lon="7.84396"><ele>129.5</ele></trkpt>
      <trkpt lat="48.67337" lon="7.83848"><ele>129.2</ele></trkpt>
      <trkpt lat="48.66895" lon="7.82944"><ele>130.9</ele></trkpt>
      <trkpt lat="48.66847" lon="7.8281"><ele>131.2</ele></trkpt>
      <trkpt lat="48.66568" lon="7.82378"><ele>131.1</ele></trkpt>
      <trkpt lat="48.66543" lon="7.82306"><ele>131.0</ele></trkpt>
      <trkpt lat="48.66496" lon="7.82337"><ele>131.0</ele></trkpt>
      <trkpt lat="48.66432" lon="7.82236"><ele>131.3</ele></trkpt>
      <trkpt lat="48.6634" lon="7.8224"><ele>131.6</ele></trkpt>
      <trkpt lat="48.66144" lon="7.82166"><ele>132.2</ele></trkpt>
      <trkpt lat="48.66105" lon="7.8233"><ele>132.3</ele></trkpt>
      <trkpt lat="48.6598" lon="7.82399"><ele>132.4</ele></trkpt>
      <trkpt lat="48.65978" lon="7.825"><ele>132.4</ele></trkpt>
      <trkpt lat="48.65869" lon="7.8265"><ele>132.6</ele></trkpt>
      <trkpt lat="48.65732" lon="7.82957"><ele>132.8</ele></trkpt>
      <trkpt lat="48.65528" lon="7.83117"><ele>131.7</ele></trkpt>
      <trkpt lat="48.65492" lon="7.83124"><ele>131.4</ele></trkpt>
      <trkpt lat="48.6546" lon="7.83118"><ele>131.2</ele></trkpt>
      <trkpt lat="48.65381" lon="7.83023"><ele>130.9</ele></trkpt>
      <trkpt lat="48.65337" lon="7.83038"><ele>130.8</ele></trkpt>
      <trkpt lat="48.64642" lon="7.82843"><ele>130.2</ele></trkpt>
      <trkpt lat="48.64586" lon="7.82657"><ele>130.7</ele></trkpt>
      <trkpt lat="48.64301" lon="7.82561"><ele>131.4</ele></trkpt>
      <trkpt lat="48.64118" lon="7.82272"><ele>131.6</ele></trkpt>
      <trkpt lat="48.63985" lon="7.82278"><ele>131.8</ele></trkpt>
      <trkpt lat="48.63715" lon="7.8209"><ele>132.6</ele></trkpt>
      <trkpt lat="48.63619" lon="7.81991"><ele>132.8</ele></trkpt>
      <trkpt lat="48.61963" lon="7.82373"><ele>133.9</ele></trkpt>
      <trkpt lat="48.61752" lon="7.82345"><ele>135.3</ele></trkpt>
      <trkpt lat="48.61309" lon="7.81913"><ele>134.5</ele></trkpt>
      <trkpt lat="48.61285" lon="7.81846"><ele>134.6</ele></trkpt>
      <trkpt lat="48.61275" lon="7.81661"><ele>134.9</ele></trkpt>
      <trkpt lat="48.61125" lon="7.8117"><ele>137.0</ele></trkpt>
      <trkpt lat="48.61051" lon="7.811"><ele>137.1</ele></trkpt>
      <trkpt lat="48.6095" lon="7.80948"><ele>137.1</ele></trkpt>
      <trkpt lat="48.60661" lon="7.80462"><ele>137.3</ele></trkpt>
      <trkpt lat="48.60598" lon="7.80261"><ele>136.8</ele></trkpt>
      <trkpt lat="48.60588" lon="7.80131"><ele>136.3</ele></trkpt>
      <trkpt lat="48.60627" lon="7.80016"><ele>136.1</ele></trkpt>
      <trkpt lat="48.60577" lon="7.79901"><ele>136.0</ele></trkpt>
      <trkpt lat="48.60508" lon="7.79837"><ele>136.0</ele></trkpt>
      <trkpt lat="48.60442" lon="7.79824"><ele>136.0</ele></trkpt>
      <trkpt lat="48.60371" lon="7.79705"><ele>136.1</ele></trkpt>
      <trkpt lat="48.60337" lon="7.79589"><ele>136.3</ele></trkpt>
      <trkpt lat="48.60343" lon="7.79443"><ele>136.4</ele></trkpt>
      <trkpt lat="48.60289" lon="7.79282"><ele>136.5</ele></trkpt>
      <trkpt lat="48.6029" lon="7.79235"><ele>136.5</ele></trkpt>
      <trkpt lat="48.60166" lon="7.79245"><ele>136.8</ele></trkpt>
      <trkpt lat="48.59979" lon="7.7909"><ele>136.6</ele></trkpt>
      <trkpt lat="48.59842" lon="7.79111"><ele>136.6</ele></trkpt>
      <trkpt lat="48.59671" lon="7.79056"><ele>136.5</ele></trkpt>
      <trkpt lat="48.59624" lon="7.78979"><ele>136.6</ele></trkpt>
      <trkpt lat="48.59589" lon="7.78723"><ele>137.3</ele></trkpt>
      <trkpt lat="48.59562" lon="7.78658"><ele>137.5</ele></trkpt>
      <trkpt lat="48.59499" lon="7.78616"><ele>137.9</ele></trkpt>
      <trkpt lat="48.59278" lon="7.78311"><ele>138.8</ele></trkpt>
      <trkpt lat="48.59148" lon="7.78242"><ele>138.9</ele></trkpt>
      <trkpt lat="48.59107" lon="7.78228"><ele>138.8</ele></trkpt>
      <trkpt lat="48.59042" lon="7.78763"><ele>136.0</ele></trkpt>
      <trkpt lat="48.58946" lon="7.78718"><ele>135.9</ele></trkpt>
      <trkpt lat="48.58944" lon="7.7869"><ele>136.0</ele></trkpt>
      <trkpt lat="48.58564" lon="7.785"><ele>136.5</ele></trkpt>
      <trkpt lat="48.58154" lon="7.78203"><ele>136.8</ele></trkpt>
      <trkpt lat="48.58167" lon="7.78166"><ele>137.0</ele></trkpt>
      <trkpt lat="48.5815" lon="7.78098"><ele>137.4</ele></trkpt>
      <trkpt lat="48.58172" lon="7.77962"><ele>138.2</ele></trkpt>
      <trkpt lat="48.58171" lon="7.77919"><ele>138.2</ele></trkpt>
      <trkpt lat="48.58155" lon="7.77907"><ele>138.2</ele></trkpt>
      <trkpt lat="48.5805" lon="7.77949"><ele>138.2</ele></trkpt>
      <trkpt lat="48.58036" lon="7.77933"><ele>138.1</ele></trkpt>
      <trkpt lat="48.57783" lon="7.78381"><ele>138.3</ele></trkpt>
      <trkpt lat="48.57412" lon="7.78479"><ele>138.9</ele></trkpt>
      <trkpt lat="48.57414" lon="7.78722"><ele>140.6</ele></trkpt>
      <trkpt lat="48.57286" lon="7.79303"><ele>137.9</ele></trkpt>
      <trkpt lat="48.57255" lon="7.79312"><ele>137.5</ele></trkpt>
      <trkpt lat="48.57241" lon="7.79284"><ele>137.3</ele></trkpt>
      <trkpt lat="48.57156" lon="7.79372"><ele>137.5</ele></trkpt>
      <trkpt lat="48.57109" lon="7.79504"><ele>138.1</ele></trkpt>
      <trkpt lat="48.57074" lon="7.79543"><ele>138.8</ele></trkpt>
      <trkpt lat="48.57087" lon="7.79568"><ele>139.1</ele></trkpt>
      <trkpt lat="48.56979" lon="7.79635"><ele>140.6</ele></trkpt>
      <trkpt lat="48.5702" lon="7.79797"><ele>139.5</ele></trkpt>
      <trkpt lat="48.56966" lon="7.79851"><ele>138.9</ele></trkpt>
      <trkpt lat="48.56911" lon="7.79972"><ele>138.1</ele></trkpt>
      <trkpt lat="48.56862" lon="7.80015"><ele>137.7</ele></trkpt>
      <trkpt lat="48.56903" lon="7.80381"><ele>137.1</ele></trkpt>
      <trkpt lat="48.56963" lon="7.80639"><ele>137.8</ele></trkpt>
      <trkpt lat="48.56623" lon="7.80731"><ele>138.9</ele></trkpt>
      <trkpt lat="48.56151" lon="7.80817"><ele>139.8</ele></trkpt>
      <trkpt lat="48.56152" lon="7.80843"><ele>139.8</ele></trkpt>
    </trkseg>
  </trk>
</gpx>
