<?xml version="1.0" encoding="UTF-8"?>
<gpx version="1.1" creator="tools/extract_original.py"
     xmlns="http://www.topografix.com/GPX/1/1">
  <metadata><name>Tag 9: Saint-Michel-de-Maurienne → Camping 2 Glaciers</name></metadata>
  <trk>
    <name>Tag 9: Saint-Michel-de-Maurienne → Camping 2 Glaciers</name>
    <trkseg>
      <trkpt lat="45.20885" lon="6.53644"><ele>913.5</ele></trkpt>
      <trkpt lat="45.20857" lon="6.53688"><ele>913.5</ele></trkpt>
      <trkpt lat="45.20851" lon="6.53815"><ele>911.2</ele></trkpt>
      <trkpt lat="45.20803" lon="6.53896"><ele>907.7</ele></trkpt>
      <trkpt lat="45.20778" lon="6.53984"><ele>904.2</ele></trkpt>
      <trkpt lat="45.20754" lon="6.54323"><ele>886.9</ele></trkpt>
      <trkpt lat="45.20801" lon="6.54422"><ele>881.4</ele></trkpt>
      <trkpt lat="45.20751" lon="6.54372"><ele>879.0</ele></trkpt>
      <trkpt lat="45.20734" lon="6.54399"><ele>878.0</ele></trkpt>
      <trkpt lat="45.20699" lon="6.54207"><ele>875.3</ele></trkpt>
      <trkpt lat="45.20707" lon="6.53917"><ele>873.4</ele></trkpt>
      <trkpt lat="45.20768" lon="6.53533"><ele>857.0</ele></trkpt>
      <trkpt lat="45.2075" lon="6.53212"><ele>847.4</ele></trkpt>
      <trkpt lat="45.20782" lon="6.52985"><ele>839.5</ele></trkpt>
      <trkpt lat="45.20759" lon="6.52567"><ele>835.3</ele></trkpt>
      <trkpt lat="45.2082" lon="6.52105"><ele>832.3</ele></trkpt>
      <trkpt lat="45.20923" lon="6.51857"><ele>832.1</ele></trkpt>
      <trkpt lat="45.20926" lon="6.51714"><ele>833.2</ele></trkpt>
      <trkpt lat="45.2098" lon="6.51538"><ele>835.4</ele></trkpt>
      <trkpt lat="45.21012" lon="6.51271"><ele>834.7</ele></trkpt>
      <trkpt lat="45.2111" lon="6.50945"><ele>822.6</ele></trkpt>
      <trkpt lat="45.21126" lon="6.50605"><ele>801.4</ele></trkpt>
      <trkpt lat="45.21071" lon="6.49109"><ele>761.9</ele></trkpt>
      <trkpt lat="45.21017" lon="6.48744"><ele>755.7</ele></trkpt>
      <trkpt lat="45.21023" lon="6.48636"><ele>751.1</ele></trkpt>
      <trkpt lat="45.21075" lon="6.48453"><ele>742.9</ele></trkpt>
      <trkpt lat="45.21073" lon="6.48301"><ele>736.9</ele></trkpt>
      <trkpt lat="45.21024" lon="6.47989"><ele>728.4</ele></trkpt>
      <trkpt lat="45.21064" lon="6.47912"><ele>726.8</ele></trkpt>
      <trkpt lat="45.21446" lon="6.47642"><ele>722.2</ele></trkpt>
      <trkpt lat="45.21569" lon="6.47491"><ele>718.9</ele></trkpt>
      <trkpt lat="45.21367" lon="6.4721"><ele>730.6</ele></trkpt>
      <trkpt lat="45.21328" lon="6.47053"><ele>738.0</ele></trkpt>
      <trkpt lat="45.21417" lon="6.47024"><ele>743.0</ele></trkpt>
      <trkpt lat="45.21435" lon="6.46913"><ele>748.0</ele></trkpt>
      <trkpt lat="45.21363" lon="6.46795"><ele>757.7</ele></trkpt>
      <trkpt lat="45.21263" lon="6.46751"><ele>767.3</ele></trkpt>
      <trkpt lat="45.2125" lon="6.46624"><ele>775.9</ele></trkpt>
      <trkpt lat="45.21232" lon="6.46593"><ele>778.7</ele></trkpt>
      <trkpt lat="45.21141" lon="6.46652"><ele>786.9</ele></trkpt>
      <trkpt lat="45.21143" lon="6.46689"><ele>789.0</ele></trkpt>
      <trkpt lat="45.21194" lon="6.4675"><ele>794.3</ele></trkpt>
      <trkpt lat="45.21171" lon="6.46808"><ele>798.3</ele></trkpt>
      <trkpt lat="45.21003" lon="6.46958"><ele>818.0</ele></trkpt>
      <trkpt lat="45.20988" lon="6.46936"><ele>821.1</ele></trkpt>
      <trkpt lat="45.21016" lon="6.46823"><ele>830.5</ele></trkpt>
      <trkpt lat="45.21025" lon="6.46699"><ele>837.6</ele></trkpt>
      <trkpt lat="45.21012" lon="6.46682"><ele>839.2</ele></trkpt>
      <trkpt lat="45.20957" lon="6.46841"><ele>848.6</ele></trkpt>
      <trkpt lat="45.20776" lon="6.46936"><ele>864.1</ele></trkpt>
      <trkpt lat="45.20777" lon="6.46911"><ele>865.8</ele></trkpt>
      <trkpt lat="45.20854" lon="6.46824"><ele>874.7</ele></trkpt>
      <trkpt lat="45.20893" lon="6.46725"><ele>882.0</ele></trkpt>
      <trkpt lat="45.20874" lon="6.46644"><ele>887.4</ele></trkpt>
      <trkpt lat="45.20867" lon="6.46441"><ele>903.5</ele></trkpt>
      <trkpt lat="45.20786" lon="6.4638"><ele>913.9</ele></trkpt>
      <trkpt lat="45.20801" lon="6.46213"><ele>926.7</ele></trkpt>
      <trkpt lat="45.20715" lon="6.45947"><ele>949.8</ele></trkpt>
      <trkpt lat="45.20786" lon="6.45796"><ele>954.1</ele></trkpt>
      <trkpt lat="45.20925" lon="6.45788"><ele>960.2</ele></trkpt>
      <trkpt lat="45.20986" lon="6.45746"><ele>964.0</ele></trkpt>
      <trkpt lat="45.21074" lon="6.4576"><ele>975.0</ele></trkpt>
      <trkpt lat="45.21002" lon="6.45599"><ele>990.8</ele></trkpt>
      <trkpt lat="45.21041" lon="6.4547"><ele>1002.1</ele></trkpt>
      <trkpt lat="45.21034" lon="6.45445"><ele>1004.0</ele></trkpt>
      <trkpt lat="45.20969" lon="6.45518"><ele>1005.6</ele></trkpt>
      <trkpt lat="45.2095" lon="6.45604"><ele>1006.8</ele></trkpt>
      <trkpt lat="45.20908" lon="6.45608"><ele>1009.5</ele></trkpt>
      <trkpt lat="45.20798" lon="6.45376"><ele>1031.7</ele></trkpt>
      <trkpt lat="45.20766" lon="6.45343"><ele>1037.2</ele></trkpt>
      <trkpt lat="45.20417" lon="6.45317"><ele>1077.5</ele></trkpt>
      <trkpt lat="45.20383" lon="6.45335"><ele>1080.7</ele></trkpt>
      <trkpt lat="45.20356" lon="6.45439"><ele>1087.4</ele></trkpt>
      <trkpt lat="45.20273" lon="6.45557"><ele>1095.9</ele></trkpt>
      <trkpt lat="45.2024" lon="6.45557"><ele>1098.3</ele></trkpt>
      <trkpt lat="45.2023" lon="6.45529"><ele>1099.9</ele></trkpt>
      <trkpt lat="45.20307" lon="6.45432"><ele>1106.1</ele></trkpt>
      <trkpt lat="45.20306" lon="6.45404"><ele>1107.4</ele></trkpt>
      <trkpt lat="45.20239" lon="6.4547"><ele>1114.9</ele></trkpt>
      <trkpt lat="45.20184" lon="6.45492"><ele>1121.9</ele></trkpt>
      <trkpt lat="45.20205" lon="6.45614"><ele>1132.4</ele></trkpt>
      <trkpt lat="45.20129" lon="6.45646"><ele>1139.8</ele></trkpt>
      <trkpt lat="45.20125" lon="6.45679"><ele>1142.0</ele></trkpt>
      <trkpt lat="45.20222" lon="6.45788"><ele>1150.1</ele></trkpt>
      <trkpt lat="45.20307" lon="6.45952"><ele>1157.3</ele></trkpt>
      <trkpt lat="45.20347" lon="6.46144"><ele>1168.3</ele></trkpt>
      <trkpt lat="45.20356" lon="6.46282"><ele>1175.7</ele></trkpt>
      <trkpt lat="45.20346" lon="6.46315"><ele>1177.7</ele></trkpt>
      <trkpt lat="45.20268" lon="6.46373"><ele>1185.0</ele></trkpt>
      <trkpt lat="45.20192" lon="6.46517"><ele>1197.2</ele></trkpt>
      <trkpt lat="45.20167" lon="6.46645"><ele>1204.6</ele></trkpt>
      <trkpt lat="45.20105" lon="6.46728"><ele>1210.7</ele></trkpt>
      <trkpt lat="45.19915" lon="6.46819"><ele>1229.3</ele></trkpt>
      <trkpt lat="45.19842" lon="6.46811"><ele>1235.0</ele></trkpt>
      <trkpt lat="45.19802" lon="6.46878"><ele>1239.7</ele></trkpt>
      <trkpt lat="45.19783" lon="6.46955"><ele>1244.1</ele></trkpt>
      <trkpt lat="45.19767" lon="6.46935"><ele>1245.6</ele></trkpt>
      <trkpt lat="45.19786" lon="6.46866"><ele>1248.8</ele></trkpt>
      <trkpt lat="45.19838" lon="6.46756"><ele>1254.6</ele></trkpt>
      <trkpt lat="45.19946" lon="6.46718"><ele>1261.2</ele></trkpt>
      <trkpt lat="45.19951" lon="6.46692"><ele>1262.5</ele></trkpt>
      <trkpt lat="45.19838" lon="6.46704"><ele>1270.9</ele></trkpt>
      <trkpt lat="45.1973" lon="6.46828"><ele>1282.6</ele></trkpt>
      <trkpt lat="45.19603" lon="6.46876"><ele>1295.1</ele></trkpt>
      <trkpt lat="45.19594" lon="6.46844"><ele>1297.3</ele></trkpt>
      <trkpt lat="45.19629" lon="6.46834"><ele>1299.7</ele></trkpt>
      <trkpt lat="45.19689" lon="6.46767"><ele>1304.6</ele></trkpt>
      <trkpt lat="45.19728" lon="6.46708"><ele>1308.0</ele></trkpt>
      <trkpt lat="45.19722" lon="6.46686"><ele>1308.6</ele></trkpt>
      <trkpt lat="45.19478" lon="6.46898"><ele>1320.6</ele></trkpt>
      <trkpt lat="45.19393" lon="6.46827"><ele>1327.4</ele></trkpt>
      <trkpt lat="45.19331" lon="6.46827"><ele>1332.8</ele></trkpt>
      <trkpt lat="45.19338" lon="6.46801"><ele>1334.7</ele></trkpt>
      <trkpt lat="45.19436" lon="6.46797"><ele>1341.5</ele></trkpt>
      <trkpt lat="45.19532" lon="6.46749"><ele>1347.5</ele></trkpt>
      <trkpt lat="45.19554" lon="6.46692"><ele>1350.5</ele></trkpt>
      <trkpt lat="45.19649" lon="6.46627"><ele>1357.7</ele></trkpt>
      <trkpt lat="45.19694" lon="6.46462"><ele>1368.3</ele></trkpt>
      <trkpt lat="45.19762" lon="6.46426"><ele>1375.1</ele></trkpt>
      <trkpt lat="45.19822" lon="6.46425"><ele>1380.6</ele></trkpt>
      <trkpt lat="45.19877" lon="6.46272"><ele>1391.6</ele></trkpt>
      <trkpt lat="45.19938" lon="6.46173"><ele>1397.8</ele></trkpt>
      <trkpt lat="45.19898" lon="6.46036"><ele>1403.9</ele></trkpt>
      <trkpt lat="45.19769" lon="6.45913"><ele>1415.8</ele></trkpt>
      <trkpt lat="45.19676" lon="6.45904"><ele>1422.6</ele></trkpt>
      <trkpt lat="45.19578" lon="6.45826"><ele>1430.7</ele></trkpt>
      <trkpt lat="45.19467" lon="6.45806"><ele>1439.6</ele></trkpt>
      <trkpt lat="45.19479" lon="6.45697"><ele>1445.9</ele></trkpt>
      <trkpt lat="45.19449" lon="6.45614"><ele>1452.5</ele></trkpt>
      <trkpt lat="45.19458" lon="6.45526"><ele>1458.6</ele></trkpt>
      <trkpt lat="45.19351" lon="6.45255"><ele>1478.8</ele></trkpt>
      <trkpt lat="45.19367" lon="6.45168"><ele>1480.9</ele></trkpt>
      <trkpt lat="45.195" lon="6.44902"><ele>1495.8</ele></trkpt>
      <trkpt lat="45.19504" lon="6.44781"><ele>1504.6</ele></trkpt>
      <trkpt lat="45.19637" lon="6.44613"><ele>1524.2</ele></trkpt>
      <trkpt lat="45.197" lon="6.44577"><ele>1526.0</ele></trkpt>
      <trkpt lat="45.19849" lon="6.44555"><ele>1531.2</ele></trkpt>
      <trkpt lat="45.19948" lon="6.44601"><ele>1535.8</ele></trkpt>
      <trkpt lat="45.19994" lon="6.44516"><ele>1541.3</ele></trkpt>
      <trkpt lat="45.20103" lon="6.44562"><ele>1549.6</ele></trkpt>
      <trkpt lat="45.20131" lon="6.44531"><ele>1550.7</ele></trkpt>
      <trkpt lat="45.20182" lon="6.44535"><ele>1552.2</ele></trkpt>
      <trkpt lat="45.20266" lon="6.44477"><ele>1554.5</ele></trkpt>
      <trkpt lat="45.20253" lon="6.4443"><ele>1554.0</ele></trkpt>
      <trkpt lat="45.20152" lon="6.44386"><ele>1552.7</ele></trkpt>
      <trkpt lat="45.20105" lon="6.44397"><ele>1552.8</ele></trkpt>
      <trkpt lat="45.1982" lon="6.44263"><ele>1552.8</ele></trkpt>
      <trkpt lat="45.19626" lon="6.44242"><ele>1550.3</ele></trkpt>
      <trkpt lat="45.19489" lon="6.44186"><ele>1555.0</ele></trkpt>
      <trkpt lat="45.19386" lon="6.44179"><ele>1554.7</ele></trkpt>
      <trkpt lat="45.19214" lon="6.44067"><ele>1544.2</ele></trkpt>
      <trkpt lat="45.1895" lon="6.44048"><ele>1540.7</ele></trkpt>
      <trkpt lat="45.18861" lon="6.43988"><ele>1540.9</ele></trkpt>
      <trkpt lat="45.18649" lon="6.43934"><ele>1536.1</ele></trkpt>
      <trkpt lat="45.18465" lon="6.43833"><ele>1530.4</ele></trkpt>
      <trkpt lat="45.18393" lon="6.43844"><ele>1528.6</ele></trkpt>
      <trkpt lat="45.18324" lon="6.43899"><ele>1526.7</ele></trkpt>
      <trkpt lat="45.18248" lon="6.43889"><ele>1524.9</ele></trkpt>
      <trkpt lat="45.18061" lon="6.43964"><ele>1514.4</ele></trkpt>
      <trkpt lat="45.18008" lon="6.4393"><ele>1510.6</ele></trkpt>
      <trkpt lat="45.17851" lon="6.43915"><ele>1502.7</ele></trkpt>
      <trkpt lat="45.17704" lon="6.43711"><ele>1496.1</ele></trkpt>
      <trkpt lat="45.17661" lon="6.43413"><ele>1480.2</ele></trkpt>
      <trkpt lat="45.17592" lon="6.43379"><ele>1473.8</ele></trkpt>
      <trkpt lat="45.17527" lon="6.43312"><ele>1466.0</ele></trkpt>
      <trkpt lat="45.17381" lon="6.43275"><ele>1451.3</ele></trkpt>
      <trkpt lat="45.17307" lon="6.43296"><ele>1443.5</ele></trkpt>
      <trkpt lat="45.17306" lon="6.43247"><ele>1439.9</ele></trkpt>
      <trkpt lat="45.1721" lon="6.43323"><ele>1429.8</ele></trkpt>
      <trkpt lat="45.17125" lon="6.43286"><ele>1421.6</ele></trkpt>
      <trkpt lat="45.17023" lon="6.43279"><ele>1411.5</ele></trkpt>
      <trkpt lat="45.16969" lon="6.43335"><ele>1404.6</ele></trkpt>
      <trkpt lat="45.16855" lon="6.4327"><ele>1395.5</ele></trkpt>
      <trkpt lat="45.1685" lon="6.43179"><ele>1391.1</ele></trkpt>
      <trkpt lat="45.16935" lon="6.43178"><ele>1388.9</ele></trkpt>
      <trkpt lat="45.16958" lon="6.43152"><ele>1388.1</ele></trkpt>
      <trkpt lat="45.1694" lon="6.43048"><ele>1387.2</ele></trkpt>
      <trkpt lat="45.1683" lon="6.42978"><ele>1390.6</ele></trkpt>
      <trkpt lat="45.16853" lon="6.42944"><ele>1391.5</ele></trkpt>
      <trkpt lat="45.16403" lon="6.42376"><ele>1432.1</ele></trkpt>
      <trkpt lat="45.16389" lon="6.42283"><ele>1436.9</ele></trkpt>
      <trkpt lat="45.16182" lon="6.42192"><ele>1449.9</ele></trkpt>
      <trkpt lat="45.15595" lon="6.42068"><ele>1497.8</ele></trkpt>
      <trkpt lat="45.15266" lon="6.42076"><ele>1528.6</ele></trkpt>
      <trkpt lat="45.15138" lon="6.4202"><ele>1541.3</ele></trkpt>
      <trkpt lat="45.15068" lon="6.4205"><ele>1546.1</ele></trkpt>
      <trkpt lat="45.14847" lon="6.42056"><ele>1555.0</ele></trkpt>
      <trkpt lat="45.14467" lon="6.41981"><ele>1561.0</ele></trkpt>
      <trkpt lat="45.13902" lon="6.41991"><ele>1580.4</ele></trkpt>
      <trkpt lat="45.13732" lon="6.41942"><ele>1587.0</ele></trkpt>
      <trkpt lat="45.13667" lon="6.41984"><ele>1589.4</ele></trkpt>
      <trkpt lat="45.13021" lon="6.4183"><ele>1604.0</ele></trkpt>
      <trkpt lat="45.12512" lon="6.41867"><ele>1640.0</ele></trkpt>
      <trkpt lat="45.12385" lon="6.41758"><ele>1650.9</ele></trkpt>
      <trkpt lat="45.12373" lon="6.4178"><ele>1652.4</ele></trkpt>
      <trkpt lat="45.12405" lon="6.41871"><ele>1657.2</ele></trkpt>
      <trkpt lat="45.12396" lon="6.41895"><ele>1658.4</ele></trkpt>
      <trkpt lat="45.12222" lon="6.41785"><ele>1669.9</ele></trkpt>
      <trkpt lat="45.11893" lon="6.41803"><ele>1696.7</ele></trkpt>
      <trkpt lat="45.11786" lon="6.41967"><ele>1711.1</ele></trkpt>
      <trkpt lat="45.11574" lon="6.42163"><ele>1730.8</ele></trkpt>
      <trkpt lat="45.11483" lon="6.42343"><ele>1744.5</ele></trkpt>
      <trkpt lat="45.11303" lon="6.42374"><ele>1760.3</ele></trkpt>
      <trkpt lat="45.11252" lon="6.42427"><ele>1764.8</ele></trkpt>
      <trkpt lat="45.11116" lon="6.42439"><ele>1774.3</ele></trkpt>
      <trkpt lat="45.10994" lon="6.42521"><ele>1783.8</ele></trkpt>
      <trkpt lat="45.10927" lon="6.426"><ele>1791.4</ele></trkpt>
      <trkpt lat="45.10702" lon="6.42535"><ele>1807.8</ele></trkpt>
      <trkpt lat="45.1063" lon="6.42547"><ele>1812.8</ele></trkpt>
      <trkpt lat="45.10556" lon="6.42577"><ele>1818.4</ele></trkpt>
      <trkpt lat="45.10437" lon="6.42676"><ele>1828.4</ele></trkpt>
      <trkpt lat="45.10407" lon="6.42738"><ele>1832.4</ele></trkpt>
      <trkpt lat="45.10298" lon="6.42795"><ele>1843.6</ele></trkpt>
      <trkpt lat="45.10241" lon="6.42887"><ele>1853.1</ele></trkpt>
      <trkpt lat="45.10134" lon="6.42952"><ele>1867.6</ele></trkpt>
      <trkpt lat="45.10089" lon="6.42959"><ele>1873.4</ele></trkpt>
      <trkpt lat="45.10015" lon="6.42884"><ele>1882.5</ele></trkpt>
      <trkpt lat="45.09926" lon="6.42892"><ele>1890.1</ele></trkpt>
      <trkpt lat="45.09869" lon="6.42956"><ele>1896.3</ele></trkpt>
      <trkpt lat="45.09732" lon="6.43002"><ele>1908.2</ele></trkpt>
      <trkpt lat="45.09673" lon="6.43048"><ele>1914.4</ele></trkpt>
      <trkpt lat="45.09485" lon="6.43054"><ele>1929.8</ele></trkpt>
      <trkpt lat="45.09203" lon="6.43283"><ele>1947.1</ele></trkpt>
      <trkpt lat="45.09103" lon="6.43505"><ele>1955.0</ele></trkpt>
      <trkpt lat="45.09031" lon="6.43534"><ele>1958.6</ele></trkpt>
      <trkpt lat="45.08941" lon="6.43528"><ele>1962.9</ele></trkpt>
      <trkpt lat="45.08811" lon="6.43562"><ele>1969.4</ele></trkpt>
      <trkpt lat="45.086" lon="6.43739"><ele>1987.4</ele></trkpt>
      <trkpt lat="45.0857" lon="6.43681"><ele>1991.9</ele></trkpt>
      <trkpt lat="45.08619" lon="6.43548"><ele>2001.5</ele></trkpt>
      <trkpt lat="45.08697" lon="6.43431"><ele>2013.1</ele></trkpt>
      <trkpt lat="45.08797" lon="6.4334"><ele>2025.7</ele></trkpt>
      <trkpt lat="45.08827" lon="6.43247"><ele>2033.4</ele></trkpt>
      <trkpt lat="45.09" lon="6.43108"><ele>2050.0</ele></trkpt>
      <trkpt lat="45.08935" lon="6.43135"><ele>2054.0</ele></trkpt>
      <trkpt lat="45.08873" lon="6.43139"><ele>2057.7</ele></trkpt>
      <trkpt lat="45.0887" lon="6.43119"><ele>2058.7</ele></trkpt>
      <trkpt lat="45.08931" lon="6.43112"><ele>2063.2</ele></trkpt>
      <trkpt lat="45.09063" lon="6.43005"><ele>2075.3</ele></trkpt>
      <trkpt lat="45.08952" lon="6.4304"><ele>2087.0</ele></trkpt>
      <trkpt lat="45.08873" lon="6.43016"><ele>2096.6</ele></trkpt>
      <trkpt lat="45.08705" lon="6.4304"><ele>2117.4</ele></trkpt>
      <trkpt lat="45.08688" lon="6.43058"><ele>2119.0</ele></trkpt>
      <trkpt lat="45.0868" lon="6.43185"><ele>2125.6</ele></trkpt>
      <trkpt lat="45.08597" lon="6.4325"><ele>2134.6</ele></trkpt>
      <trkpt lat="45.08573" lon="6.43213"><ele>2138.4</ele></trkpt>
      <trkpt lat="45.08579" lon="6.43094"><ele>2147.0</ele></trkpt>
      <trkpt lat="45.08619" lon="6.43009"><ele>2152.9</ele></trkpt>
      <trkpt lat="45.08668" lon="6.42958"><ele>2158.0</ele></trkpt>
      <trkpt lat="45.08663" lon="6.42934"><ele>2159.5</ele></trkpt>
      <trkpt lat="45.08595" lon="6.42989"><ele>2165.6</ele></trkpt>
      <trkpt lat="45.08531" lon="6.4299"><ele>2170.3</ele></trkpt>
      <trkpt lat="45.08506" lon="6.42971"><ele>2172.4</ele></trkpt>
      <trkpt lat="45.08425" lon="6.42802"><ele>2187.9</ele></trkpt>
      <trkpt lat="45.08342" lon="6.42727"><ele>2199.5</ele></trkpt>
      <trkpt lat="45.081" lon="6.42595"><ele>2230.1</ele></trkpt>
      <trkpt lat="45.08033" lon="6.42653"><ele>2239.1</ele></trkpt>
      <trkpt lat="45.07962" lon="6.42669"><ele>2245.8</ele></trkpt>
      <trkpt lat="45.07794" lon="6.42515"><ele>2265.7</ele></trkpt>
      <trkpt lat="45.07793" lon="6.42474"><ele>2269.0</ele></trkpt>
      <trkpt lat="45.07878" lon="6.42377"><ele>2279.6</ele></trkpt>
      <trkpt lat="45.07901" lon="6.42268"><ele>2287.0</ele></trkpt>
      <trkpt lat="45.07967" lon="6.42185"><ele>2292.7</ele></trkpt>
      <trkpt lat="45.0799" lon="6.42202"><ele>2294.3</ele></trkpt>
      <trkpt lat="45.08026" lon="6.42307"><ele>2299.1</ele></trkpt>
      <trkpt lat="45.08017" lon="6.42384"><ele>2302.7</ele></trkpt>
      <trkpt lat="45.08036" lon="6.42387"><ele>2304.1</ele></trkpt>
      <trkpt lat="45.08106" lon="6.42086"><ele>2321.2</ele></trkpt>
      <trkpt lat="45.08067" lon="6.4172"><ele>2342.0</ele></trkpt>
      <trkpt lat="45.08036" lon="6.41669"><ele>2346.0</ele></trkpt>
      <trkpt lat="45.07957" lon="6.41609"><ele>2353.7</ele></trkpt>
      <trkpt lat="45.07877" lon="6.41415"><ele>2368.3</ele></trkpt>
      <trkpt lat="45.07616" lon="6.41189"><ele>2396.3</ele></trkpt>
      <trkpt lat="45.07585" lon="6.41261"><ele>2402.8</ele></trkpt>
      <trkpt lat="45.07497" lon="6.41325"><ele>2412.2</ele></trkpt>
      <trkpt lat="45.07418" lon="6.41334"><ele>2419.4</ele></trkpt>
      <trkpt lat="45.07366" lon="6.41277"><ele>2425.5</ele></trkpt>
      <trkpt lat="45.07226" lon="6.41301"><ele>2437.8</ele></trkpt>
      <trkpt lat="45.07208" lon="6.4127"><ele>2439.8</ele></trkpt>
      <trkpt lat="45.07202" lon="6.41169"><ele>2444.9</ele></trkpt>
      <trkpt lat="45.07104" lon="6.41148"><ele>2452.0</ele></trkpt>
      <trkpt lat="45.06926" lon="6.41059"><ele>2469.1</ele></trkpt>
      <trkpt lat="45.06917" lon="6.40976"><ele>2477.5</ele></trkpt>
      <trkpt lat="45.06845" lon="6.41006"><ele>2486.7</ele></trkpt>
      <trkpt lat="45.06822" lon="6.41038"><ele>2489.4</ele></trkpt>
      <trkpt lat="45.06818" lon="6.41088"><ele>2492.5</ele></trkpt>
      <trkpt lat="45.06802" lon="6.41092"><ele>2493.9</ele></trkpt>
      <trkpt lat="45.06805" lon="6.40956"><ele>2502.4</ele></trkpt>
      <trkpt lat="45.06857" lon="6.40908"><ele>2508.3</ele></trkpt>
      <trkpt lat="45.06833" lon="6.40865"><ele>2512.3</ele></trkpt>
      <trkpt lat="45.06757" lon="6.40903"><ele>2520.1</ele></trkpt>
      <trkpt lat="45.0672" lon="6.41074"><ele>2534.7</ele></trkpt>
      <trkpt lat="45.06689" lon="6.40909"><ele>2547.6</ele></trkpt>
      <trkpt lat="45.06642" lon="6.40955"><ele>2553.6</ele></trkpt>
      <trkpt lat="45.06598" lon="6.40914"><ele>2560.6</ele></trkpt>
      <trkpt lat="45.06673" lon="6.41138"><ele>2581.6</ele></trkpt>
      <trkpt lat="45.06591" lon="6.41307"><ele>2596.1</ele></trkpt>
      <trkpt lat="45.06616" lon="6.41136"><ele>2610.6</ele></trkpt>
      <trkpt lat="45.06543" lon="6.41082"><ele>2617.5</ele></trkpt>
      <trkpt lat="45.06448" lon="6.40922"><ele>2623.8</ele></trkpt>
      <trkpt lat="45.06414" lon="6.40786"><ele>2615.0</ele></trkpt>
      <trkpt lat="45.06287" lon="6.41057"><ele>2595.9</ele></trkpt>
      <trkpt lat="45.06263" lon="6.41164"><ele>2587.8</ele></trkpt>
      <trkpt lat="45.06251" lon="6.41161"><ele>2586.3</ele></trkpt>
      <trkpt lat="45.06253" lon="6.41088"><ele>2580.5</ele></trkpt>
      <trkpt lat="45.06226" lon="6.41159"><ele>2573.9</ele></trkpt>
      <trkpt lat="45.06222" lon="6.40988"><ele>2559.9</ele></trkpt>
      <trkpt lat="45.06292" lon="6.40841"><ele>2551.5</ele></trkpt>
      <trkpt lat="45.06294" lon="6.40738"><ele>2547.7</ele></trkpt>
      <trkpt lat="45.06278" lon="6.40682"><ele>2544.3</ele></trkpt>
      <trkpt lat="45.06225" lon="6.40649"><ele>2539.4</ele></trkpt>
      <trkpt lat="45.06177" lon="6.40575"><ele>2533.2</ele></trkpt>
      <trkpt lat="45.0615" lon="6.40589"><ele>2531.2</ele></trkpt>
      <trkpt lat="45.06147" lon="6.40625"><ele>2530.1</ele></trkpt>
      <trkpt lat="45.0624" lon="6.40719"><ele>2525.2</ele></trkpt>
      <trkpt lat="45.06251" lon="6.40762"><ele>2523.6</ele></trkpt>
      <trkpt lat="45.06158" lon="6.40854"><ele>2515.9</ele></trkpt>
      <trkpt lat="45.06146" lon="6.40961"><ele>2511.0</ele></trkpt>
      <trkpt lat="45.06048" lon="6.41164"><ele>2500.9</ele></trkpt>
      <trkpt lat="45.06032" lon="6.41127"><ele>2498.8</ele></trkpt>
      <trkpt lat="45.06095" lon="6.40969"><ele>2491.9</ele></trkpt>
      <trkpt lat="45.06102" lon="6.40759"><ele>2484.8</ele></trkpt>
      <trkpt lat="45.0607" lon="6.40708"><ele>2483.7</ele></trkpt>
      <trkpt lat="45.06007" lon="6.40686"><ele>2483.4</ele></trkpt>
      <trkpt lat="45.05936" lon="6.40699"><ele>2483.0</ele></trkpt>
      <trkpt lat="45.05735" lon="6.40786"><ele>2464.5</ele></trkpt>
      <trkpt lat="45.0568" lon="6.40857"><ele>2453.1</ele></trkpt>
      <trkpt lat="45.05553" lon="6.40835"><ele>2436.7</ele></trkpt>
      <trkpt lat="45.05383" lon="6.40415"><ele>2416.5</ele></trkpt>
      <trkpt lat="45.05385" lon="6.40263"><ele>2405.5</ele></trkpt>
      <trkpt lat="45.05332" lon="6.40258"><ele>2399.5</ele></trkpt>
      <trkpt lat="45.0531" lon="6.40223"><ele>2394.7</ele></trkpt>
      <trkpt lat="45.05287" lon="6.40051"><ele>2378.1</ele></trkpt>
      <trkpt lat="45.05325" lon="6.39867"><ele>2368.1</ele></trkpt>
      <trkpt lat="45.05331" lon="6.39605"><ele>2362.1</ele></trkpt>
      <trkpt lat="45.05293" lon="6.39442"><ele>2356.3</ele></trkpt>
      <trkpt lat="45.05244" lon="6.39394"><ele>2352.5</ele></trkpt>
      <trkpt lat="45.05222" lon="6.39308"><ele>2348.3</ele></trkpt>
      <trkpt lat="45.05164" lon="6.39233"><ele>2343.0</ele></trkpt>
      <trkpt lat="45.05201" lon="6.3908"><ele>2337.9</ele></trkpt>
      <trkpt lat="45.05241" lon="6.3901"><ele>2337.9</ele></trkpt>
      <trkpt lat="45.05206" lon="6.38948"><ele>2337.8</ele></trkpt>
      <trkpt lat="45.05187" lon="6.3895"><ele>2337.6</ele></trkpt>
      <trkpt lat="45.05103" lon="6.39102"><ele>2330.8</ele></trkpt>
      <trkpt lat="45.0501" lon="6.39214"><ele>2322.3</ele></trkpt>
      <trkpt lat="45.05005" lon="6.39342"><ele>2315.0</ele></trkpt>
      <trkpt lat="45.04924" lon="6.39396"><ele>2308.0</ele></trkpt>
      <trkpt lat="45.04878" lon="6.39467"><ele>2302.7</ele></trkpt>
      <trkpt lat="45.04837" lon="6.39651"><ele>2291.7</ele></trkpt>
      <trkpt lat="45.04653" lon="6.39918"><ele>2269.3</ele></trkpt>
      <trkpt lat="45.04499" lon="6.40079"><ele>2246.1</ele></trkpt>
      <trkpt lat="45.04425" lon="6.40108"><ele>2235.8</ele></trkpt>
      <trkpt lat="45.04376" lon="6.40185"><ele>2226.1</ele></trkpt>
      <trkpt lat="45.04345" lon="6.40174"><ele>2223.1</ele></trkpt>
      <trkpt lat="45.04198" lon="6.3992"><ele>2203.6</ele></trkpt>
      <trkpt lat="45.03986" lon="6.39745"><ele>2184.6</ele></trkpt>
      <trkpt lat="45.03946" lon="6.39686"><ele>2180.1</ele></trkpt>
      <trkpt lat="45.03847" lon="6.39518"><ele>2168.7</ele></trkpt>
      <trkpt lat="45.0383" lon="6.393"><ele>2154.7</ele></trkpt>
      <trkpt lat="45.03818" lon="6.39285"><ele>2153.1</ele></trkpt>
      <trkpt lat="45.03801" lon="6.39301"><ele>2151.5</ele></trkpt>
      <trkpt lat="45.03798" lon="6.39462"><ele>2142.8</ele></trkpt>
      <trkpt lat="45.03735" lon="6.39652"><ele>2130.2</ele></trkpt>
      <trkpt lat="45.03735" lon="6.39804"><ele>2122.3</ele></trkpt>
      <trkpt lat="45.03753" lon="6.39828"><ele>2121.4</ele></trkpt>
      <trkpt lat="45.03845" lon="6.39852"><ele>2117.6</ele></trkpt>
      <trkpt lat="45.04087" lon="6.4015"><ele>2095.1</ele></trkpt>
      <trkpt lat="45.04073" lon="6.40168"><ele>2093.6</ele></trkpt>
      <trkpt lat="45.03933" lon="6.40073"><ele>2083.8</ele></trkpt>
      <trkpt lat="45.03885" lon="6.40076"><ele>2081.0</ele></trkpt>
      <trkpt lat="45.03858" lon="6.40115"><ele>2078.1</ele></trkpt>
      <trkpt lat="45.03812" lon="6.40278"><ele>2068.6</ele></trkpt>
      <trkpt lat="45.03735" lon="6.40287"><ele>2064.3</ele></trkpt>
      <trkpt lat="45.03682" lon="6.40397"><ele>2060.3</ele></trkpt>
      <trkpt lat="45.03569" lon="6.40488"><ele>2055.6</ele></trkpt>
      <trkpt lat="45.03551" lon="6.40525"><ele>2054.5</ele></trkpt>
      <trkpt lat="45.03618" lon="6.40601"><ele>2050.5</ele></trkpt>
      <trkpt lat="45.03662" lon="6.40606"><ele>2047.6</ele></trkpt>
      <trkpt lat="45.03703" lon="6.40567"><ele>2044.5</ele></trkpt>
      <trkpt lat="45.03745" lon="6.40465"><ele>2038.9</ele></trkpt>
      <trkpt lat="45.03802" lon="6.4043"><ele>2034.5</ele></trkpt>
      <trkpt lat="45.0385" lon="6.40445"><ele>2031.1</ele></trkpt>
      <trkpt lat="45.03949" lon="6.40543"><ele>2023.9</ele></trkpt>
      <trkpt lat="45.03961" lon="6.40624"><ele>2020.6</ele></trkpt>
      <trkpt lat="45.03862" lon="6.40897"><ele>2008.3</ele></trkpt>
      <trkpt lat="45.03858" lon="6.4103"><ele>2000.2</ele></trkpt>
      <trkpt lat="45.03918" lon="6.41182"><ele>1991.1</ele></trkpt>
      <trkpt lat="45.03988" lon="6.41291"><ele>1985.2</ele></trkpt>
      <trkpt lat="45.04185" lon="6.41473"><ele>1974.1</ele></trkpt>
      <trkpt lat="45.04281" lon="6.41668"><ele>1966.0</ele></trkpt>
      <trkpt lat="45.04277" lon="6.41714"><ele>1964.7</ele></trkpt>
      <trkpt lat="45.04175" lon="6.41842"><ele>1959.0</ele></trkpt>
      <trkpt lat="45.04149" lon="6.41991"><ele>1951.0</ele></trkpt>
      <trkpt lat="45.04154" lon="6.42105"><ele>1945.7</ele></trkpt>
      <trkpt lat="45.04179" lon="6.42191"><ele>1942.9</ele></trkpt>
      <trkpt lat="45.04211" lon="6.42201"><ele>1941.4</ele></trkpt>
      <trkpt lat="45.04278" lon="6.42155"><ele>1937.9</ele></trkpt>
      <trkpt lat="45.04305" lon="6.4218"><ele>1935.9</ele></trkpt>
      <trkpt lat="45.04308" lon="6.42376"><ele>1927.7</ele></trkpt>
      <trkpt lat="45.04271" lon="6.42593"><ele>1918.8</ele></trkpt>
      <trkpt lat="45.04235" lon="6.4266"><ele>1914.6</ele></trkpt>
      <trkpt lat="45.04055" lon="6.42817"><ele>1899.2</ele></trkpt>
      <trkpt lat="45.04003" lon="6.42934"><ele>1892.1</ele></trkpt>
      <trkpt lat="45.03948" lon="6.43173"><ele>1887.1</ele></trkpt>
      <trkpt lat="45.03909" lon="6.43248"><ele>1882.7</ele></trkpt>
      <trkpt lat="45.03691" lon="6.43494"><ele>1862.5</ele></trkpt>
      <trkpt lat="45.03567" lon="6.43698"><ele>1850.7</ele></trkpt>
      <trkpt lat="45.03385" lon="6.43867"><ele>1840.7</ele></trkpt>
      <trkpt lat="45.03194" lon="6.44084"><ele>1829.2</ele></trkpt>
      <trkpt lat="45.03107" lon="6.44226"><ele>1821.1</ele></trkpt>
      <trkpt lat="45.03026" lon="6.44431"><ele>1810.3</ele></trkpt>
      <trkpt lat="45.0292" lon="6.44581"><ele>1803.4</ele></trkpt>
      <trkpt lat="45.0288" lon="6.44678"><ele>1799.2</ele></trkpt>
      <trkpt lat="45.02637" lon="6.44977"><ele>1779.9</ele></trkpt>
      <trkpt lat="45.02539" lon="6.45154"><ele>1769.9</ele></trkpt>
      <trkpt lat="45.02429" lon="6.45438"><ele>1756.4</ele></trkpt>
      <trkpt lat="45.02201" lon="6.45753"><ele>1738.8</ele></trkpt>
      <trkpt lat="45.02102" lon="6.45955"><ele>1730.6</ele></trkpt>
      <trkpt lat="45.01986" lon="6.46292"><ele>1717.9</ele></trkpt>
      <trkpt lat="45.01872" lon="6.46443"><ele>1712.1</ele></trkpt>
      <trkpt lat="45.01852" lon="6.46556"><ele>1709.7</ele></trkpt>
      <trkpt lat="45.01793" lon="6.46609"><ele>1705.7</ele></trkpt>
      <trkpt lat="45.01632" lon="6.46528"><ele>1693.6</ele></trkpt>
      <trkpt lat="45.01581" lon="6.46538"><ele>1688.7</ele></trkpt>
      <trkpt lat="45.01443" lon="6.46718"><ele>1678.6</ele></trkpt>
      <trkpt lat="45.01298" lon="6.46777"><ele>1671.5</ele></trkpt>
      <trkpt lat="45.01123" lon="6.46974"><ele>1659.1</ele></trkpt>
      <trkpt lat="45.00893" lon="6.47114"><ele>1643.7</ele></trkpt>
      <trkpt lat="45.00812" lon="6.47204"><ele>1638.5</ele></trkpt>
      <trkpt lat="45.00638" lon="6.47271"><ele>1629.7</ele></trkpt>
      <trkpt lat="45.00523" lon="6.47268"><ele>1623.7</ele></trkpt>
      <trkpt lat="45.00268" lon="6.47542"><ele>1604.1</ele></trkpt>
      <trkpt lat="45.00094" lon="6.47675"><ele>1592.8</ele></trkpt>
      <trkpt lat="44.99935" lon="6.4771"><ele>1584.4</ele></trkpt>
      <trkpt lat="44.99788" lon="6.47791"><ele>1575.8</ele></trkpt>
      <trkpt lat="44.99725" lon="6.47851"><ele>1572.2</ele></trkpt>
      <trkpt lat="44.99638" lon="6.4787"><ele>1568.1</ele></trkpt>
      <trkpt lat="44.99533" lon="6.4799"><ele>1563.3</ele></trkpt>
      <trkpt lat="44.99335" lon="6.48127"><ele>1557.4</ele></trkpt>
      <trkpt lat="44.99244" lon="6.48241"><ele>1554.6</ele></trkpt>
      <trkpt lat="44.99151" lon="6.48448"><ele>1550.1</ele></trkpt>
      <trkpt lat="44.9902" lon="6.48639"><ele>1544.3</ele></trkpt>
      <trkpt lat="44.98889" lon="6.48894"><ele>1538.4</ele></trkpt>
      <trkpt lat="44.98856" lon="6.49008"><ele>1536.2</ele></trkpt>
      <trkpt lat="44.98708" lon="6.49204"><ele>1530.0</ele></trkpt>
      <trkpt lat="44.98633" lon="6.49399"><ele>1523.8</ele></trkpt>
      <trkpt lat="44.98508" lon="6.49542"><ele>1517.7</ele></trkpt>
      <trkpt lat="44.9834" lon="6.49838"><ele>1515.9</ele></trkpt>
      <trkpt lat="44.98246" lon="6.49918"><ele>1514.7</ele></trkpt>
      <trkpt lat="44.98186" lon="6.49943"><ele>1513.5</ele></trkpt>
      <trkpt lat="44.98088" lon="6.49922"><ele>1509.6</ele></trkpt>
      <trkpt lat="44.98148" lon="6.49824"><ele>1504.7</ele></trkpt>
      <trkpt lat="44.98265" lon="6.49353"><ele>1490.0</ele></trkpt>
      <trkpt lat="44.98232" lon="6.49345"><ele>1489.1</ele></trkpt>
      <trkpt lat="44.98199" lon="6.49402"><ele>1489.1</ele></trkpt>
      <trkpt lat="44.98055" lon="6.49521"><ele>1489.1</ele></trkpt>
      <trkpt lat="44.9806" lon="6.49537"><ele>1489.1</ele></trkpt>
    </trkseg>
  </trk>
</gpx>
