<?xml version="1.0" encoding="UTF-8"?>
<gpx version="1.1" creator="tools/extract_original.py"
     xmlns="http://www.topografix.com/GPX/1/1">
  <metadata><name>Tag 11: Camping de l’Izoard → Les Pommiers</name></metadata>
  <wpt lat="44.539108" lon="6.702572"><name>Col de Vars</name></wpt>
  <wpt lat="44.452195" lon="6.742922"><name>Ubaye River</name></wpt>
  <wpt lat="44.297654" lon="6.595767"><name>Refuge du col d’Allos</name></wpt>
  <wpt lat="44.2972" lon="6.5943"><name>Allos Pass</name></wpt>
  <trk>
    <name>Tag 11: Camping de l’Izoard → Les Pommiers</name>
    <trkseg>
      <trkpt lat="44.79989" lon="6.71626"><ele>1834.0</ele></trkpt>
      <trkpt lat="44.79948" lon="6.71624"><ele>1834.0</ele></trkpt>
      <trkpt lat="44.79943" lon="6.71709"><ele>1833.2</ele></trkpt>
      <trkpt lat="44.79853" lon="6.7188"><ele>1825.8</ele></trkpt>
      <trkpt lat="44.7983" lon="6.72021"><ele>1820.1</ele></trkpt>
      <trkpt lat="44.79708" lon="6.7217"><ele>1811.7</ele></trkpt>
      <trkpt lat="44.79674" lon="6.72245"><ele>1808.9</ele></trkpt>
      <trkpt lat="44.79538" lon="6.72363"><ele>1803.4</ele></trkpt>
      <trkpt lat="44.79407" lon="6.72634"><ele>1793.1</ele></trkpt>
      <trkpt lat="44.79297" lon="6.72692"><ele>1783.3</ele></trkpt>
      <trkpt lat="44.79243" lon="6.72841"><ele>1773.2</ele></trkpt>
      <trkpt lat="44.79005" lon="6.73242"><ele>1741.8</ele></trkpt>
      <trkpt lat="44.78927" lon="6.7329"><ele>1735.3</ele></trkpt>
      <trkpt lat="44.78635" lon="6.73315"><ele>1713.0</ele></trkpt>
      <trkpt lat="44.7837" lon="6.73467"><ele>1690.7</ele></trkpt>
      <trkpt lat="44.78137" lon="6.73495"><ele>1676.9</ele></trkpt>
      <trkpt lat="44.7808" lon="6.73538"><ele>1672.6</ele></trkpt>
      <trkpt lat="44.77847" lon="6.73507"><ele>1647.3</ele></trkpt>
      <trkpt lat="44.77734" lon="6.73532"><ele>1635.9</ele></trkpt>
      <trkpt lat="44.77614" lon="6.73521"><ele>1624.5</ele></trkpt>
      <trkpt lat="44.77348" lon="6.73632"><ele>1600.3</ele></trkpt>
      <trkpt lat="44.76948" lon="6.73697"><ele>1570.2</ele></trkpt>
      <trkpt lat="44.76695" lon="6.73873"><ele>1551.5</ele></trkpt>
      <trkpt lat="44.76317" lon="6.74286"><ele>1526.6</ele></trkpt>
      <trkpt lat="44.76167" lon="6.74363"><ele>1524.1</ele></trkpt>
      <trkpt lat="44.76081" lon="6.74528"><ele>1522.1</ele></trkpt>
      <trkpt lat="44.76011" lon="6.7457"><ele>1519.3</ele></trkpt>
      <trkpt lat="44.75863" lon="6.74727"><ele>1508.3</ele></trkpt>
      <trkpt lat="44.75787" lon="6.74865"><ele>1497.7</ele></trkpt>
      <trkpt lat="44.75766" lon="6.74947"><ele>1491.7</ele></trkpt>
      <trkpt lat="44.75661" lon="6.75056"><ele>1481.0</ele></trkpt>
      <trkpt lat="44.75658" lon="6.75112"><ele>1478.5</ele></trkpt>
      <trkpt lat="44.75619" lon="6.7522"><ele>1473.0</ele></trkpt>
      <trkpt lat="44.75554" lon="6.75282"><ele>1466.7</ele></trkpt>
      <trkpt lat="44.75477" lon="6.75449"><ele>1454.5</ele></trkpt>
      <trkpt lat="44.75469" lon="6.75558"><ele>1446.5</ele></trkpt>
      <trkpt lat="44.75417" lon="6.75689"><ele>1435.4</ele></trkpt>
      <trkpt lat="44.75408" lon="6.75768"><ele>1429.3</ele></trkpt>
      <trkpt lat="44.75362" lon="6.75814"><ele>1423.1</ele></trkpt>
      <trkpt lat="44.75341" lon="6.75927"><ele>1417.1</ele></trkpt>
      <trkpt lat="44.75265" lon="6.76066"><ele>1409.3</ele></trkpt>
      <trkpt lat="44.75244" lon="6.76161"><ele>1406.7</ele></trkpt>
      <trkpt lat="44.75187" lon="6.76196"><ele>1404.3</ele></trkpt>
      <trkpt lat="44.7513" lon="6.76295"><ele>1400.1</ele></trkpt>
      <trkpt lat="44.75017" lon="6.76608"><ele>1392.1</ele></trkpt>
      <trkpt lat="44.74896" lon="6.76673"><ele>1388.7</ele></trkpt>
      <trkpt lat="44.74817" lon="6.76674"><ele>1386.3</ele></trkpt>
      <trkpt lat="44.74774" lon="6.76892"><ele>1376.5</ele></trkpt>
      <trkpt lat="44.74707" lon="6.77016"><ele>1366.5</ele></trkpt>
      <trkpt lat="44.74812" lon="6.77214"><ele>1351.8</ele></trkpt>
      <trkpt lat="44.74804" lon="6.77253"><ele>1349.8</ele></trkpt>
      <trkpt lat="44.7467" lon="6.77069"><ele>1348.1</ele></trkpt>
      <trkpt lat="44.74456" lon="6.7697"><ele>1351.7</ele></trkpt>
      <trkpt lat="44.74434" lon="6.76883"><ele>1345.4</ele></trkpt>
      <trkpt lat="44.74456" lon="6.76769"><ele>1335.4</ele></trkpt>
      <trkpt lat="44.74447" lon="6.76722"><ele>1331.2</ele></trkpt>
      <trkpt lat="44.74413" lon="6.76741"><ele>1329.1</ele></trkpt>
      <trkpt lat="44.74413" lon="6.76809"><ele>1326.8</ele></trkpt>
      <trkpt lat="44.74396" lon="6.7682"><ele>1325.8</ele></trkpt>
      <trkpt lat="44.74358" lon="6.76752"><ele>1322.8</ele></trkpt>
      <trkpt lat="44.74317" lon="6.76742"><ele>1320.3</ele></trkpt>
      <trkpt lat="44.74265" lon="6.76687"><ele>1316.2</ele></trkpt>
      <trkpt lat="44.7412" lon="6.76639"><ele>1305.1</ele></trkpt>
      <trkpt lat="44.73975" lon="6.76665"><ele>1292.8</ele></trkpt>
      <trkpt lat="44.73791" lon="6.7685"><ele>1276.6</ele></trkpt>
      <trkpt lat="44.73525" lon="6.76816"><ele>1265.7</ele></trkpt>
      <trkpt lat="44.7328" lon="6.76719"><ele>1265.2</ele></trkpt>
      <trkpt lat="44.73157" lon="6.76694"><ele>1266.2</ele></trkpt>
      <trkpt lat="44.73014" lon="6.76463"><ele>1281.0</ele></trkpt>
      <trkpt lat="44.72944" lon="6.76405"><ele>1287.3</ele></trkpt>
      <trkpt lat="44.72811" lon="6.7642"><ele>1288.8</ele></trkpt>
      <trkpt lat="44.72654" lon="6.76399"><ele>1288.0</ele></trkpt>
      <trkpt lat="44.72523" lon="6.7635"><ele>1289.8</ele></trkpt>
      <trkpt lat="44.72402" lon="6.76254"><ele>1282.7</ele></trkpt>
      <trkpt lat="44.72201" lon="6.76248"><ele>1254.3</ele></trkpt>
      <trkpt lat="44.71867" lon="6.76122"><ele>1215.1</ele></trkpt>
      <trkpt lat="44.71781" lon="6.76054"><ele>1212.4</ele></trkpt>
      <trkpt lat="44.71734" lon="6.75983"><ele>1210.8</ele></trkpt>
      <trkpt lat="44.716" lon="6.75671"><ele>1209.5</ele></trkpt>
      <trkpt lat="44.71552" lon="6.75122"><ele>1200.1</ele></trkpt>
      <trkpt lat="44.71493" lon="6.74921"><ele>1196.4</ele></trkpt>
      <trkpt lat="44.71227" lon="6.74399"><ele>1192.3</ele></trkpt>
      <trkpt lat="44.71177" lon="6.74223"><ele>1190.2</ele></trkpt>
      <trkpt lat="44.71056" lon="6.74071"><ele>1186.4</ele></trkpt>
      <trkpt lat="44.70857" lon="6.73674"><ele>1179.9</ele></trkpt>
      <trkpt lat="44.70823" lon="6.73506"><ele>1178.4</ele></trkpt>
      <trkpt lat="44.70834" lon="6.73411"><ele>1178.3</ele></trkpt>
      <trkpt lat="44.70892" lon="6.73257"><ele>1177.7</ele></trkpt>
      <trkpt lat="44.70897" lon="6.73134"><ele>1176.7</ele></trkpt>
      <trkpt lat="44.70825" lon="6.72907"><ele>1168.4</ele></trkpt>
      <trkpt lat="44.70656" lon="6.72546"><ele>1157.7</ele></trkpt>
      <trkpt lat="44.70551" lon="6.72372"><ele>1155.0</ele></trkpt>
      <trkpt lat="44.70524" lon="6.72253"><ele>1154.5</ele></trkpt>
      <trkpt lat="44.70518" lon="6.72073"><ele>1156.3</ele></trkpt>
      <trkpt lat="44.70488" lon="6.71985"><ele>1157.7</ele></trkpt>
      <trkpt lat="44.7031" lon="6.71854"><ele>1149.3</ele></trkpt>
      <trkpt lat="44.70245" lon="6.71701"><ele>1144.6</ele></trkpt>
      <trkpt lat="44.70131" lon="6.71574"><ele>1142.0</ele></trkpt>
      <trkpt lat="44.69969" lon="6.71166"><ele>1134.8</ele></trkpt>
      <trkpt lat="44.69802" lon="6.70879"><ele>1118.6</ele></trkpt>
      <trkpt lat="44.69568" lon="6.70622"><ele>1108.8</ele></trkpt>
      <trkpt lat="44.69314" lon="6.70469"><ele>1099.0</ele></trkpt>
      <trkpt lat="44.6916" lon="6.7024"><ele>1092.0</ele></trkpt>
      <trkpt lat="44.68839" lon="6.69962"><ele>1084.5</ele></trkpt>
      <trkpt lat="44.68675" lon="6.69848"><ele>1081.2</ele></trkpt>
      <trkpt lat="44.68456" lon="6.69814"><ele>1082.7</ele></trkpt>
      <trkpt lat="44.68359" lon="6.69741"><ele>1080.5</ele></trkpt>
      <trkpt lat="44.68187" lon="6.69728"><ele>1073.7</ele></trkpt>
      <trkpt lat="44.68049" lon="6.69583"><ele>1070.7</ele></trkpt>
      <trkpt lat="44.6782" lon="6.69498"><ele>1066.6</ele></trkpt>
      <trkpt lat="44.67738" lon="6.69388"><ele>1065.3</ele></trkpt>
      <trkpt lat="44.67667" lon="6.69376"><ele>1067.5</ele></trkpt>
      <trkpt lat="44.67562" lon="6.69209"><ele>1070.9</ele></trkpt>
      <trkpt lat="44.67518" lon="6.68988"><ele>1076.5</ele></trkpt>
      <trkpt lat="44.67464" lon="6.68908"><ele>1080.6</ele></trkpt>
      <trkpt lat="44.67427" lon="6.68805"><ele>1083.5</ele></trkpt>
      <trkpt lat="44.67403" lon="6.68668"><ele>1086.4</ele></trkpt>
      <trkpt lat="44.67448" lon="6.68485"><ele>1080.0</ele></trkpt>
      <trkpt lat="44.67279" lon="6.68306"><ele>1079.1</ele></trkpt>
      <trkpt lat="44.67215" lon="6.68195"><ele>1085.1</ele></trkpt>
      <trkpt lat="44.67069" lon="6.68134"><ele>1096.3</ele></trkpt>
      <trkpt lat="44.66961" lon="6.68043"><ele>1106.3</ele></trkpt>
      <trkpt lat="44.66909" lon="6.67967"><ele>1106.5</ele></trkpt>
      <trkpt lat="44.66877" lon="6.67544"><ele>1086.8</ele></trkpt>
      <trkpt lat="44.66763" lon="6.67371"><ele>1086.3</ele></trkpt>
      <trkpt lat="44.66704" lon="6.67035"><ele>1097.8</ele></trkpt>
      <trkpt lat="44.66681" lon="6.66986"><ele>1099.5</ele></trkpt>
      <trkpt lat="44.66683" lon="6.66909"><ele>1101.7</ele></trkpt>
      <trkpt lat="44.66621" lon="6.66855"><ele>1100.7</ele></trkpt>
      <trkpt lat="44.66664" lon="6.66703"><ele>1099.1</ele></trkpt>
      <trkpt lat="44.66582" lon="6.66649"><ele>1097.8</ele></trkpt>
      <trkpt lat="44.66541" lon="6.66583"><ele>1096.9</ele></trkpt>
      <trkpt lat="44.66512" lon="6.66365"><ele>1098.0</ele></trkpt>
      <trkpt lat="44.66439" lon="6.66331"><ele>1095.7</ele></trkpt>
      <trkpt lat="44.6632" lon="6.66161"><ele>1087.8</ele></trkpt>
      <trkpt lat="44.66215" lon="6.66098"><ele>1082.0</ele></trkpt>
      <trkpt lat="44.66128" lon="6.65965"><ele>1076.5</ele></trkpt>
      <trkpt lat="44.65863" lon="6.65665"><ele>1062.0</ele></trkpt>
      <trkpt lat="44.65762" lon="6.65636"><ele>1057.9</ele></trkpt>
      <trkpt lat="44.6564" lon="6.65542"><ele>1053.4</ele></trkpt>
      <trkpt lat="44.65609" lon="6.6549"><ele>1052.2</ele></trkpt>
      <trkpt lat="44.65609" lon="6.6543"><ele>1051.2</ele></trkpt>
      <trkpt lat="44.65536" lon="6.65402"><ele>1049.7</ele></trkpt>
      <trkpt lat="44.65466" lon="6.6548"><ele>1051.2</ele></trkpt>
      <trkpt lat="44.65394" lon="6.6548"><ele>1053.9</ele></trkpt>
      <trkpt lat="44.65376" lon="6.6542"><ele>1055.5</ele></trkpt>
      <trkpt lat="44.65392" lon="6.65367"><ele>1053.7</ele></trkpt>
      <trkpt lat="44.65557" lon="6.65096"><ele>1045.2</ele></trkpt>
      <trkpt lat="44.65489" lon="6.64969"><ele>1049.3</ele></trkpt>
      <trkpt lat="44.65405" lon="6.64955"><ele>1055.7</ele></trkpt>
      <trkpt lat="44.65376" lon="6.64985"><ele>1058.9</ele></trkpt>
      <trkpt lat="44.65427" lon="6.6506"><ele>1065.3</ele></trkpt>
      <trkpt lat="44.65428" lon="6.65137"><ele>1069.8</ele></trkpt>
      <trkpt lat="44.6539" lon="6.65207"><ele>1074.6</ele></trkpt>
      <trkpt lat="44.65358" lon="6.65214"><ele>1076.7</ele></trkpt>
      <trkpt lat="44.65338" lon="6.65188"><ele>1078.3</ele></trkpt>
      <trkpt lat="44.65291" lon="6.64989"><ele>1084.2</ele></trkpt>
      <trkpt lat="44.65137" lon="6.6506"><ele>1087.9</ele></trkpt>
      <trkpt lat="44.65081" lon="6.65048"><ele>1091.7</ele></trkpt>
      <trkpt lat="44.6505" lon="6.65085"><ele>1094.5</ele></trkpt>
      <trkpt lat="44.6506" lon="6.6521"><ele>1104.0</ele></trkpt>
      <trkpt lat="44.65013" lon="6.65296"><ele>1114.2</ele></trkpt>
      <trkpt lat="44.65005" lon="6.65421"><ele>1125.3</ele></trkpt>
      <trkpt lat="44.64976" lon="6.6546"><ele>1130.1</ele></trkpt>
      <trkpt lat="44.64866" lon="6.65521"><ele>1144.4</ele></trkpt>
      <trkpt lat="44.64743" lon="6.65555"><ele>1159.8</ele></trkpt>
      <trkpt lat="44.64555" lon="6.65548"><ele>1174.3</ele></trkpt>
      <trkpt lat="44.6438" lon="6.65686"><ele>1187.4</ele></trkpt>
      <trkpt lat="44.64365" lon="6.65713"><ele>1189.3</ele></trkpt>
      <trkpt lat="44.64379" lon="6.65735"><ele>1191.1</ele></trkpt>
      <trkpt lat="44.64558" lon="6.6565"><ele>1206.2</ele></trkpt>
      <trkpt lat="44.64582" lon="6.65653"><ele>1208.1</ele></trkpt>
      <trkpt lat="44.64592" lon="6.65683"><ele>1210.0</ele></trkpt>
      <trkpt lat="44.64503" lon="6.65859"><ele>1223.1</ele></trkpt>
      <trkpt lat="44.64398" lon="6.65946"><ele>1234.8</ele></trkpt>
      <trkpt lat="44.64319" lon="6.66076"><ele>1247.9</ele></trkpt>
      <trkpt lat="44.64306" lon="6.66168"><ele>1255.0</ele></trkpt>
      <trkpt lat="44.64242" lon="6.66209"><ele>1261.9</ele></trkpt>
      <trkpt lat="44.64129" lon="6.66203"><ele>1271.4</ele></trkpt>
      <trkpt lat="44.64108" lon="6.66228"><ele>1273.2</ele></trkpt>
      <trkpt lat="44.64126" lon="6.66265"><ele>1275.5</ele></trkpt>
      <trkpt lat="44.64189" lon="6.66272"><ele>1279.3</ele></trkpt>
      <trkpt lat="44.64313" lon="6.66232"><ele>1291.7</ele></trkpt>
      <trkpt lat="44.64328" lon="6.6628"><ele>1295.9</ele></trkpt>
      <trkpt lat="44.64261" lon="6.66328"><ele>1305.5</ele></trkpt>
      <trkpt lat="44.64175" lon="6.66345"><ele>1317.3</ele></trkpt>
      <trkpt lat="44.64115" lon="6.66519"><ele>1335.9</ele></trkpt>
      <trkpt lat="44.6404" lon="6.66573"><ele>1346.9</ele></trkpt>
      <trkpt lat="44.6395" lon="6.6655"><ele>1354.8</ele></trkpt>
      <trkpt lat="44.63732" lon="6.66587"><ele>1374.8</ele></trkpt>
      <trkpt lat="44.63741" lon="6.66616"><ele>1377.2</ele></trkpt>
      <trkpt lat="44.63812" lon="6.6662"><ele>1386.4</ele></trkpt>
      <trkpt lat="44.63987" lon="6.66696"><ele>1409.2</ele></trkpt>
      <trkpt lat="44.63988" lon="6.66738"><ele>1413.3</ele></trkpt>
      <trkpt lat="44.63884" lon="6.66733"><ele>1424.4</ele></trkpt>
      <trkpt lat="44.63832" lon="6.66792"><ele>1430.6</ele></trkpt>
      <trkpt lat="44.63719" lon="6.6685"><ele>1441.2</ele></trkpt>
      <trkpt lat="44.63616" lon="6.66851"><ele>1449.5</ele></trkpt>
      <trkpt lat="44.63622" lon="6.66887"><ele>1451.7</ele></trkpt>
      <trkpt lat="44.63678" lon="6.66927"><ele>1455.4</ele></trkpt>
      <trkpt lat="44.63764" lon="6.66939"><ele>1460.4</ele></trkpt>
      <trkpt lat="44.63761" lon="6.66983"><ele>1462.7</ele></trkpt>
      <trkpt lat="44.63623" lon="6.66998"><ele>1475.2</ele></trkpt>
      <trkpt lat="44.635" lon="6.66964"><ele>1479.3</ele></trkpt>
      <trkpt lat="44.63312" lon="6.67114"><ele>1481.9</ele></trkpt>
      <trkpt lat="44.63308" lon="6.67174"><ele>1482.7</ele></trkpt>
      <trkpt lat="44.63384" lon="6.67213"><ele>1490.8</ele></trkpt>
      <trkpt lat="44.63438" lon="6.67279"><ele>1498.6</ele></trkpt>
      <trkpt lat="44.63468" lon="6.67378"><ele>1507.3</ele></trkpt>
      <trkpt lat="44.63463" lon="6.67485"><ele>1516.2</ele></trkpt>
      <trkpt lat="44.63355" lon="6.67647"><ele>1532.6</ele></trkpt>
      <trkpt lat="44.63294" lon="6.67678"><ele>1539.0</ele></trkpt>
      <trkpt lat="44.63191" lon="6.67662"><ele>1546.2</ele></trkpt>
      <trkpt lat="44.6313" lon="6.67735"><ele>1551.2</ele></trkpt>
      <trkpt lat="44.63068" lon="6.67752"><ele>1556.4</ele></trkpt>
      <trkpt lat="44.62938" lon="6.67889"><ele>1573.2</ele></trkpt>
      <trkpt lat="44.62852" lon="6.68058"><ele>1596.9</ele></trkpt>
      <trkpt lat="44.62793" lon="6.6811"><ele>1602.5</ele></trkpt>
      <trkpt lat="44.62701" lon="6.68008"><ele>1609.5</ele></trkpt>
      <trkpt lat="44.62645" lon="6.68004"><ele>1606.2</ele></trkpt>
      <trkpt lat="44.62578" lon="6.68044"><ele>1602.0</ele></trkpt>
      <trkpt lat="44.62559" lon="6.68079"><ele>1600.4</ele></trkpt>
      <trkpt lat="44.62562" lon="6.68177"><ele>1604.3</ele></trkpt>
      <trkpt lat="44.62492" lon="6.68302"><ele>1610.4</ele></trkpt>
      <trkpt lat="44.6245" lon="6.6834"><ele>1612.5</ele></trkpt>
      <trkpt lat="44.62197" lon="6.68295"><ele>1624.3</ele></trkpt>
      <trkpt lat="44.62156" lon="6.6832"><ele>1626.6</ele></trkpt>
      <trkpt lat="44.62094" lon="6.6841"><ele>1634.6</ele></trkpt>
      <trkpt lat="44.61974" lon="6.68361"><ele>1642.1</ele></trkpt>
      <trkpt lat="44.61855" lon="6.68394"><ele>1642.3</ele></trkpt>
      <trkpt lat="44.61693" lon="6.68521"><ele>1637.1</ele></trkpt>
      <trkpt lat="44.61604" lon="6.68567"><ele>1635.1</ele></trkpt>
      <trkpt lat="44.6141" lon="6.68591"><ele>1631.6</ele></trkpt>
      <trkpt lat="44.61307" lon="6.68698"><ele>1631.4</ele></trkpt>
      <trkpt lat="44.61016" lon="6.68801"><ele>1633.4</ele></trkpt>
      <trkpt lat="44.60979" lon="6.68849"><ele>1632.7</ele></trkpt>
      <trkpt lat="44.60741" lon="6.6884"><ele>1629.1</ele></trkpt>
      <trkpt lat="44.60508" lon="6.68938"><ele>1630.2</ele></trkpt>
      <trkpt lat="44.60433" lon="6.68873"><ele>1629.0</ele></trkpt>
      <trkpt lat="44.60345" lon="6.68859"><ele>1627.7</ele></trkpt>
      <trkpt lat="44.60277" lon="6.68901"><ele>1631.7</ele></trkpt>
      <trkpt lat="44.60181" lon="6.68902"><ele>1637.5</ele></trkpt>
      <trkpt lat="44.59975" lon="6.68987"><ele>1648.7</ele></trkpt>
      <trkpt lat="44.59467" lon="6.6899"><ele>1656.6</ele></trkpt>
      <trkpt lat="44.59396" lon="6.68948"><ele>1659.8</ele></trkpt>
      <trkpt lat="44.59279" lon="6.68938"><ele>1665.4</ele></trkpt>
      <trkpt lat="44.5922" lon="6.68895"><ele>1670.0</ele></trkpt>
      <trkpt lat="44.59135" lon="6.6888"><ele>1675.9</ele></trkpt>
      <trkpt lat="44.59081" lon="6.6878"><ele>1682.7</ele></trkpt>
      <trkpt lat="44.5887" lon="6.68771"><ele>1697.7</ele></trkpt>
      <trkpt lat="44.58662" lon="6.68663"><ele>1714.6</ele></trkpt>
      <trkpt lat="44.58462" lon="6.68368"><ele>1742.9</ele></trkpt>
      <trkpt lat="44.58352" lon="6.68285"><ele>1756.1</ele></trkpt>
      <trkpt lat="44.58299" lon="6.68287"><ele>1760.5</ele></trkpt>
      <trkpt lat="44.5806" lon="6.68442"><ele>1776.4</ele></trkpt>
      <trkpt lat="44.57964" lon="6.68435"><ele>1782.7</ele></trkpt>
      <trkpt lat="44.57907" lon="6.68407"><ele>1786.9</ele></trkpt>
      <trkpt lat="44.57835" lon="6.68291"><ele>1796.0</ele></trkpt>
      <trkpt lat="44.57754" lon="6.68289"><ele>1803.2</ele></trkpt>
      <trkpt lat="44.57642" lon="6.68206"><ele>1814.3</ele></trkpt>
      <trkpt lat="44.57559" lon="6.68209"><ele>1821.7</ele></trkpt>
      <trkpt lat="44.5748" lon="6.68179"><ele>1829.7</ele></trkpt>
      <trkpt lat="44.57354" lon="6.68192"><ele>1841.6</ele></trkpt>
      <trkpt lat="44.57285" lon="6.68015"><ele>1853.3</ele></trkpt>
      <trkpt lat="44.57203" lon="6.68004"><ele>1860.8</ele></trkpt>
      <trkpt lat="44.5717" lon="6.68051"><ele>1865.1</ele></trkpt>
      <trkpt lat="44.57166" lon="6.68181"><ele>1873.3</ele></trkpt>
      <trkpt lat="44.57111" lon="6.68261"><ele>1880.4</ele></trkpt>
      <trkpt lat="44.57073" lon="6.68277"><ele>1883.9</ele></trkpt>
      <trkpt lat="44.56973" lon="6.68259"><ele>1892.6</ele></trkpt>
      <trkpt lat="44.56921" lon="6.68313"><ele>1898.1</ele></trkpt>
      <trkpt lat="44.56945" lon="6.68419"><ele>1905.7</ele></trkpt>
      <trkpt lat="44.5693" lon="6.68446"><ele>1908.0</ele></trkpt>
      <trkpt lat="44.5681" lon="6.68504"><ele>1919.0</ele></trkpt>
      <trkpt lat="44.56703" lon="6.68506"><ele>1925.3</ele></trkpt>
      <trkpt lat="44.56508" lon="6.68742"><ele>1936.4</ele></trkpt>
      <trkpt lat="44.56411" lon="6.68778"><ele>1942.6</ele></trkpt>
      <trkpt lat="44.56296" lon="6.68926"><ele>1948.2</ele></trkpt>
      <trkpt lat="44.56177" lon="6.68973"><ele>1952.7</ele></trkpt>
      <trkpt lat="44.56064" lon="6.69066"><ele>1959.3</ele></trkpt>
      <trkpt lat="44.56009" lon="6.69187"><ele>1968.5</ele></trkpt>
      <trkpt lat="44.55745" lon="6.69435"><ele>1986.1</ele></trkpt>
      <trkpt lat="44.55642" lon="6.69715"><ele>1987.7</ele></trkpt>
      <trkpt lat="44.55552" lon="6.69843"><ele>1990.4</ele></trkpt>
      <trkpt lat="44.55322" lon="6.69926"><ele>2001.2</ele></trkpt>
      <trkpt lat="44.55238" lon="6.70046"><ele>2011.1</ele></trkpt>
      <trkpt lat="44.55123" lon="6.70046"><ele>2022.2</ele></trkpt>
      <trkpt lat="44.5481" lon="6.70278"><ele>2051.6</ele></trkpt>
      <trkpt lat="44.54694" lon="6.70236"><ele>2060.0</ele></trkpt>
      <trkpt lat="44.54543" lon="6.70219"><ele>2071.1</ele></trkpt>
      <trkpt lat="44.54232" lon="6.70291"><ele>2088.4</ele></trkpt>
      <trkpt lat="44.54158" lon="6.70255"><ele>2092.4</ele></trkpt>
      <trkpt lat="44.53983" lon="6.70224"><ele>2101.4</ele></trkpt>
      <trkpt lat="44.5388" lon="6.70284"><ele>2100.9</ele></trkpt>
      <trkpt lat="44.53616" lon="6.70344"><ele>2079.2</ele></trkpt>
      <trkpt lat="44.53543" lon="6.70454"><ele>2066.2</ele></trkpt>
      <trkpt lat="44.53482" lon="6.70487"><ele>2057.9</ele></trkpt>
      <trkpt lat="44.53425" lon="6.70455"><ele>2049.9</ele></trkpt>
      <trkpt lat="44.53337" lon="6.70473"><ele>2038.3</ele></trkpt>
      <trkpt lat="44.53307" lon="6.70455"><ele>2034.0</ele></trkpt>
      <trkpt lat="44.53205" lon="6.70149"><ele>2014.6</ele></trkpt>
      <trkpt lat="44.53185" lon="6.7014"><ele>2012.3</ele></trkpt>
      <trkpt lat="44.53179" lon="6.70171"><ele>2009.7</ele></trkpt>
      <trkpt lat="44.53218" lon="6.70304"><ele>1999.0</ele></trkpt>
      <trkpt lat="44.53209" lon="6.70441"><ele>1989.4</ele></trkpt>
      <trkpt lat="44.5323" lon="6.70533"><ele>1982.6</ele></trkpt>
      <trkpt lat="44.53233" lon="6.70724"><ele>1974.2</ele></trkpt>
      <trkpt lat="44.53285" lon="6.7079"><ele>1968.4</ele></trkpt>
      <trkpt lat="44.5329" lon="6.70842"><ele>1963.8</ele></trkpt>
      <trkpt lat="44.53239" lon="6.7094"><ele>1953.3</ele></trkpt>
      <trkpt lat="44.53145" lon="6.71033"><ele>1939.6</ele></trkpt>
      <trkpt lat="44.53116" lon="6.71088"><ele>1933.8</ele></trkpt>
      <trkpt lat="44.5311" lon="6.71157"><ele>1928.1</ele></trkpt>
      <trkpt lat="44.53142" lon="6.71269"><ele>1921.6</ele></trkpt>
      <trkpt lat="44.53127" lon="6.71307"><ele>1919.1</ele></trkpt>
      <trkpt lat="44.53087" lon="6.71288"><ele>1915.8</ele></trkpt>
      <trkpt lat="44.5304" lon="6.71159"><ele>1906.7</ele></trkpt>
      <trkpt lat="44.53077" lon="6.70991"><ele>1893.1</ele></trkpt>
      <trkpt lat="44.5306" lon="6.70991"><ele>1890.9</ele></trkpt>
      <trkpt lat="44.52962" lon="6.71179"><ele>1871.4</ele></trkpt>
      <trkpt lat="44.52951" lon="6.71261"><ele>1865.1</ele></trkpt>
      <trkpt lat="44.52963" lon="6.71352"><ele>1858.1</ele></trkpt>
      <trkpt lat="44.52932" lon="6.71615"><ele>1838.8</ele></trkpt>
      <trkpt lat="44.5294" lon="6.71715"><ele>1830.5</ele></trkpt>
      <trkpt lat="44.52878" lon="6.72222"><ele>1792.4</ele></trkpt>
      <trkpt lat="44.52863" lon="6.72215"><ele>1790.8</ele></trkpt>
      <trkpt lat="44.52801" lon="6.71738"><ele>1754.0</ele></trkpt>
      <trkpt lat="44.52713" lon="6.71506"><ele>1731.3</ele></trkpt>
      <trkpt lat="44.52694" lon="6.71509"><ele>1728.4</ele></trkpt>
      <trkpt lat="44.52687" lon="6.71729"><ele>1712.0</ele></trkpt>
      <trkpt lat="44.52716" lon="6.71791"><ele>1706.8</ele></trkpt>
      <trkpt lat="44.52672" lon="6.71841"><ele>1700.1</ele></trkpt>
      <trkpt lat="44.52555" lon="6.7224"><ele>1662.9</ele></trkpt>
      <trkpt lat="44.52538" lon="6.72353"><ele>1658.6</ele></trkpt>
      <trkpt lat="44.52556" lon="6.72573"><ele>1654.2</ele></trkpt>
      <trkpt lat="44.52573" lon="6.726"><ele>1654.4</ele></trkpt>
      <trkpt lat="44.5263" lon="6.72606"><ele>1654.8</ele></trkpt>
      <trkpt lat="44.52636" lon="6.72628"><ele>1655.0</ele></trkpt>
      <trkpt lat="44.52605" lon="6.72677"><ele>1654.5</ele></trkpt>
      <trkpt lat="44.52539" lon="6.72713"><ele>1652.3</ele></trkpt>
      <trkpt lat="44.52504" lon="6.72869"><ele>1649.9</ele></trkpt>
      <trkpt lat="44.52508" lon="6.73022"><ele>1649.8</ele></trkpt>
      <trkpt lat="44.52487" lon="6.73215"><ele>1643.8</ele></trkpt>
      <trkpt lat="44.52381" lon="6.73282"><ele>1635.9</ele></trkpt>
      <trkpt lat="44.52334" lon="6.73376"><ele>1629.0</ele></trkpt>
      <trkpt lat="44.52338" lon="6.7354"><ele>1619.7</ele></trkpt>
      <trkpt lat="44.52296" lon="6.73718"><ele>1610.4</ele></trkpt>
      <trkpt lat="44.52314" lon="6.73847"><ele>1604.6</ele></trkpt>
      <trkpt lat="44.52302" lon="6.739"><ele>1602.2</ele></trkpt>
      <trkpt lat="44.5227" lon="6.73937"><ele>1599.3</ele></trkpt>
      <trkpt lat="44.52196" lon="6.73963"><ele>1593.1</ele></trkpt>
      <trkpt lat="44.52135" lon="6.7406"><ele>1585.7</ele></trkpt>
      <trkpt lat="44.52042" lon="6.74048"><ele>1579.5</ele></trkpt>
      <trkpt lat="44.52015" lon="6.74078"><ele>1577.3</ele></trkpt>
      <trkpt lat="44.52008" lon="6.74119"><ele>1575.3</ele></trkpt>
      <trkpt lat="44.52036" lon="6.74284"><ele>1569.2</ele></trkpt>
      <trkpt lat="44.5202" lon="6.74362"><ele>1566.4</ele></trkpt>
      <trkpt lat="44.51822" lon="6.7456"><ele>1544.1</ele></trkpt>
      <trkpt lat="44.5173" lon="6.74734"><ele>1527.2</ele></trkpt>
      <trkpt lat="44.51712" lon="6.74901"><ele>1515.7</ele></trkpt>
      <trkpt lat="44.51798" lon="6.75152"><ele>1502.1</ele></trkpt>
      <trkpt lat="44.5179" lon="6.75273"><ele>1495.9</ele></trkpt>
      <trkpt lat="44.51762" lon="6.75256"><ele>1493.5</ele></trkpt>
      <trkpt lat="44.5174" lon="6.75137"><ele>1487.4</ele></trkpt>
      <trkpt lat="44.51543" lon="6.75038"><ele>1473.0</ele></trkpt>
      <trkpt lat="44.51458" lon="6.74866"><ele>1461.3</ele></trkpt>
      <trkpt lat="44.51473" lon="6.74683"><ele>1454.6</ele></trkpt>
      <trkpt lat="44.51526" lon="6.74579"><ele>1456.3</ele></trkpt>
      <trkpt lat="44.51563" lon="6.74451"><ele>1460.1</ele></trkpt>
      <trkpt lat="44.5155" lon="6.74415"><ele>1460.4</ele></trkpt>
      <trkpt lat="44.51125" lon="6.74426"><ele>1442.2</ele></trkpt>
      <trkpt lat="44.51049" lon="6.74515"><ele>1434.6</ele></trkpt>
      <trkpt lat="44.51019" lon="6.74643"><ele>1429.1</ele></trkpt>
      <trkpt lat="44.50968" lon="6.74665"><ele>1425.9</ele></trkpt>
      <trkpt lat="44.50507" lon="6.74497"><ele>1415.0</ele></trkpt>
      <trkpt lat="44.50471" lon="6.74454"><ele>1413.4</ele></trkpt>
      <trkpt lat="44.50451" lon="6.74361"><ele>1410.1</ele></trkpt>
      <trkpt lat="44.50305" lon="6.74287"><ele>1399.8</ele></trkpt>
      <trkpt lat="44.50277" lon="6.74144"><ele>1389.0</ele></trkpt>
      <trkpt lat="44.50236" lon="6.74078"><ele>1382.8</ele></trkpt>
      <trkpt lat="44.50099" lon="6.74055"><ele>1378.8</ele></trkpt>
      <trkpt lat="44.49934" lon="6.7394"><ele>1379.0</ele></trkpt>
      <trkpt lat="44.49832" lon="6.7392"><ele>1378.3</ele></trkpt>
      <trkpt lat="44.49581" lon="6.74082"><ele>1370.2</ele></trkpt>
      <trkpt lat="44.49405" lon="6.74136"><ele>1366.2</ele></trkpt>
      <trkpt lat="44.49288" lon="6.74203"><ele>1362.9</ele></trkpt>
      <trkpt lat="44.49143" lon="6.74213"><ele>1359.7</ele></trkpt>
      <trkpt lat="44.49037" lon="6.74308"><ele>1357.9</ele></trkpt>
      <trkpt lat="44.48945" lon="6.74343"><ele>1357.5</ele></trkpt>
      <trkpt lat="44.4883" lon="6.74518"><ele>1353.3</ele></trkpt>
      <trkpt lat="44.48706" lon="6.74606"><ele>1348.1</ele></trkpt>
      <trkpt lat="44.48604" lon="6.74747"><ele>1343.3</ele></trkpt>
      <trkpt lat="44.48538" lon="6.74772"><ele>1341.9</ele></trkpt>
      <trkpt lat="44.48412" lon="6.7487"><ele>1338.0</ele></trkpt>
      <trkpt lat="44.48149" lon="6.75184"><ele>1333.5</ele></trkpt>
      <trkpt lat="44.48058" lon="6.75339"><ele>1329.4</ele></trkpt>
      <trkpt lat="44.48" lon="6.75556"><ele>1315.9</ele></trkpt>
      <trkpt lat="44.47812" lon="6.75785"><ele>1310.5</ele></trkpt>
      <trkpt lat="44.47676" lon="6.76045"><ele>1308.5</ele></trkpt>
      <trkpt lat="44.47243" lon="6.76314"><ele>1306.2</ele></trkpt>
      <trkpt lat="44.47102" lon="6.76377"><ele>1305.8</ele></trkpt>
      <trkpt lat="44.46729" lon="6.76161"><ele>1301.6</ele></trkpt>
      <trkpt lat="44.46501" lon="6.75711"><ele>1293.3</ele></trkpt>
      <trkpt lat="44.46493" lon="6.75634"><ele>1291.3</ele></trkpt>
      <trkpt lat="44.46527" lon="6.75354"><ele>1288.6</ele></trkpt>
      <trkpt lat="44.46458" lon="6.75189"><ele>1289.6</ele></trkpt>
      <trkpt lat="44.46349" lon="6.75054"><ele>1288.6</ele></trkpt>
      <trkpt lat="44.46225" lon="6.74984"><ele>1287.6</ele></trkpt>
      <trkpt lat="44.46039" lon="6.74732"><ele>1284.5</ele></trkpt>
      <trkpt lat="44.45961" lon="6.74683"><ele>1283.6</ele></trkpt>
      <trkpt lat="44.45833" lon="6.74648"><ele>1283.0</ele></trkpt>
      <trkpt lat="44.45796" lon="6.74504"><ele>1284.6</ele></trkpt>
      <trkpt lat="44.45705" lon="6.74425"><ele>1285.3</ele></trkpt>
      <trkpt lat="44.45495" lon="6.74367"><ele>1281.3</ele></trkpt>
      <trkpt lat="44.45311" lon="6.7438"><ele>1276.1</ele></trkpt>
      <trkpt lat="44.45002" lon="6.74083"><ele>1268.3</ele></trkpt>
      <trkpt lat="44.44772" lon="6.7402"><ele>1267.3</ele></trkpt>
      <trkpt lat="44.44464" lon="6.74257"><ele>1267.4</ele></trkpt>
      <trkpt lat="44.44148" lon="6.74198"><ele>1263.6</ele></trkpt>
      <trkpt lat="44.44065" lon="6.74271"><ele>1261.6</ele></trkpt>
      <trkpt lat="44.43982" lon="6.74281"><ele>1260.0</ele></trkpt>
      <trkpt lat="44.43876" lon="6.74393"><ele>1257.5</ele></trkpt>
      <trkpt lat="44.43816" lon="6.74384"><ele>1256.4</ele></trkpt>
      <trkpt lat="44.43749" lon="6.74409"><ele>1255.2</ele></trkpt>
      <trkpt lat="44.43625" lon="6.74367"><ele>1253.2</ele></trkpt>
      <trkpt lat="44.43548" lon="6.74406"><ele>1249.9</ele></trkpt>
      <trkpt lat="44.43452" lon="6.74393"><ele>1245.6</ele></trkpt>
      <trkpt lat="44.4343" lon="6.74364"><ele>1244.4</ele></trkpt>
      <trkpt lat="44.43361" lon="6.7413"><ele>1238.9</ele></trkpt>
      <trkpt lat="44.43266" lon="6.74036"><ele>1240.0</ele></trkpt>
      <trkpt lat="44.43181" lon="6.73885"><ele>1238.9</ele></trkpt>
      <trkpt lat="44.43078" lon="6.73819"><ele>1236.8</ele></trkpt>
      <trkpt lat="44.42965" lon="6.73652"><ele>1232.9</ele></trkpt>
      <trkpt lat="44.42891" lon="6.7363"><ele>1232.2</ele></trkpt>
      <trkpt lat="44.42702" lon="6.73695"><ele>1230.8</ele></trkpt>
      <trkpt lat="44.42227" lon="6.7372"><ele>1219.3</ele></trkpt>
      <trkpt lat="44.4209" lon="6.7368"><ele>1216.4</ele></trkpt>
      <trkpt lat="44.42016" lon="6.73619"><ele>1216.0</ele></trkpt>
      <trkpt lat="44.41962" lon="6.73418"><ele>1214.9</ele></trkpt>
      <trkpt lat="44.41874" lon="6.73303"><ele>1213.7</ele></trkpt>
      <trkpt lat="44.41828" lon="6.73115"><ele>1212.5</ele></trkpt>
      <trkpt lat="44.4166" lon="6.72867"><ele>1213.2</ele></trkpt>
      <trkpt lat="44.41523" lon="6.72821"><ele>1214.4</ele></trkpt>
      <trkpt lat="44.41327" lon="6.72896"><ele>1213.2</ele></trkpt>
      <trkpt lat="44.41249" lon="6.729"><ele>1212.1</ele></trkpt>
      <trkpt lat="44.41106" lon="6.72854"><ele>1211.0</ele></trkpt>
      <trkpt lat="44.40986" lon="6.72748"><ele>1210.6</ele></trkpt>
      <trkpt lat="44.4091" lon="6.72633"><ele>1209.8</ele></trkpt>
      <trkpt lat="44.4072" lon="6.7223"><ele>1208.6</ele></trkpt>
      <trkpt lat="44.40588" lon="6.71797"><ele>1199.3</ele></trkpt>
      <trkpt lat="44.40486" lon="6.71139"><ele>1188.3</ele></trkpt>
      <trkpt lat="44.40479" lon="6.70564"><ele>1180.9</ele></trkpt>
      <trkpt lat="44.40393" lon="6.7024"><ele>1182.0</ele></trkpt>
      <trkpt lat="44.40367" lon="6.70203"><ele>1182.2</ele></trkpt>
      <trkpt lat="44.40228" lon="6.70142"><ele>1182.4</ele></trkpt>
      <trkpt lat="44.40193" lon="6.70105"><ele>1182.0</ele></trkpt>
      <trkpt lat="44.39946" lon="6.69425"><ele>1175.6</ele></trkpt>
      <trkpt lat="44.3956" lon="6.69087"><ele>1170.5</ele></trkpt>
      <trkpt lat="44.39456" lon="6.68967"><ele>1168.5</ele></trkpt>
      <trkpt lat="44.39251" lon="6.68628"><ele>1165.9</ele></trkpt>
      <trkpt lat="44.39164" lon="6.68307"><ele>1163.9</ele></trkpt>
      <trkpt lat="44.39128" lon="6.6708"><ele>1151.1</ele></trkpt>
      <trkpt lat="44.3904" lon="6.66962"><ele>1149.0</ele></trkpt>
      <trkpt lat="44.38999" lon="6.66778"><ele>1146.7</ele></trkpt>
      <trkpt lat="44.389" lon="6.66849"><ele>1145.1</ele></trkpt>
      <trkpt lat="44.38888" lon="6.66833"><ele>1144.8</ele></trkpt>
      <trkpt lat="44.3852" lon="6.66204"><ele>1139.6</ele></trkpt>
      <trkpt lat="44.38384" lon="6.65902"><ele>1138.3</ele></trkpt>
      <trkpt lat="44.38367" lon="6.65805"><ele>1137.3</ele></trkpt>
      <trkpt lat="44.38374" lon="6.65555"><ele>1135.1</ele></trkpt>
      <trkpt lat="44.38404" lon="6.65136"><ele>1133.6</ele></trkpt>
      <trkpt lat="44.38453" lon="6.64845"><ele>1132.0</ele></trkpt>
      <trkpt lat="44.38452" lon="6.64715"><ele>1130.7</ele></trkpt>
      <trkpt lat="44.38304" lon="6.63674"><ele>1124.1</ele></trkpt>
      <trkpt lat="44.38287" lon="6.63405"><ele>1124.0</ele></trkpt>
      <trkpt lat="44.3821" lon="6.63124"><ele>1124.9</ele></trkpt>
      <trkpt lat="44.38078" lon="6.62963"><ele>1128.0</ele></trkpt>
      <trkpt lat="44.3793" lon="6.62874"><ele>1131.6</ele></trkpt>
      <trkpt lat="44.37561" lon="6.62757"><ele>1138.3</ele></trkpt>
      <trkpt lat="44.37529" lon="6.62706"><ele>1138.8</ele></trkpt>
      <trkpt lat="44.37465" lon="6.62384"><ele>1143.1</ele></trkpt>
      <trkpt lat="44.37311" lon="6.62221"><ele>1156.9</ele></trkpt>
      <trkpt lat="44.37278" lon="6.62229"><ele>1160.0</ele></trkpt>
      <trkpt lat="44.37178" lon="6.62367"><ele>1171.3</ele></trkpt>
      <trkpt lat="44.37098" lon="6.62424"><ele>1177.4</ele></trkpt>
      <trkpt lat="44.36878" lon="6.62433"><ele>1196.1</ele></trkpt>
      <trkpt lat="44.36748" lon="6.62498"><ele>1203.3</ele></trkpt>
      <trkpt lat="44.36684" lon="6.62506"><ele>1206.9</ele></trkpt>
      <trkpt lat="44.36505" lon="6.62414"><ele>1219.7</ele></trkpt>
      <trkpt lat="44.36344" lon="6.62368"><ele>1234.1</ele></trkpt>
      <trkpt lat="44.36282" lon="6.62259"><ele>1244.9</ele></trkpt>
      <trkpt lat="44.36195" lon="6.62242"><ele>1253.0</ele></trkpt>
      <trkpt lat="44.3612" lon="6.62271"><ele>1258.3</ele></trkpt>
      <trkpt lat="44.36046" lon="6.62254"><ele>1263.2</ele></trkpt>
      <trkpt lat="44.36024" lon="6.622"><ele>1265.3</ele></trkpt>
      <trkpt lat="44.35973" lon="6.62239"><ele>1268.1</ele></trkpt>
      <trkpt lat="44.3593" lon="6.62188"><ele>1270.8</ele></trkpt>
      <trkpt lat="44.35842" lon="6.62153"><ele>1280.7</ele></trkpt>
      <trkpt lat="44.35715" lon="6.61944"><ele>1299.9</ele></trkpt>
      <trkpt lat="44.35645" lon="6.62026"><ele>1307.1</ele></trkpt>
      <trkpt lat="44.35612" lon="6.62022"><ele>1309.0</ele></trkpt>
      <trkpt lat="44.35456" lon="6.61799"><ele>1323.4</ele></trkpt>
      <trkpt lat="44.35324" lon="6.61696"><ele>1335.0</ele></trkpt>
      <trkpt lat="44.35268" lon="6.61591"><ele>1342.2</ele></trkpt>
      <trkpt lat="44.3526" lon="6.61501"><ele>1351.4</ele></trkpt>
      <trkpt lat="44.35212" lon="6.61419"><ele>1364.0</ele></trkpt>
      <trkpt lat="44.351" lon="6.6144"><ele>1376.3</ele></trkpt>
      <trkpt lat="44.35043" lon="6.61597"><ele>1385.6</ele></trkpt>
      <trkpt lat="44.34838" lon="6.61634"><ele>1404.3</ele></trkpt>
      <trkpt lat="44.34773" lon="6.61618"><ele>1408.8</ele></trkpt>
      <trkpt lat="44.34625" lon="6.61685"><ele>1418.9</ele></trkpt>
      <trkpt lat="44.34536" lon="6.6166"><ele>1424.5</ele></trkpt>
      <trkpt lat="44.34467" lon="6.61598"><ele>1429.5</ele></trkpt>
      <trkpt lat="44.34391" lon="6.61639"><ele>1434.3</ele></trkpt>
      <trkpt lat="44.34288" lon="6.61556"><ele>1441.0</ele></trkpt>
      <trkpt lat="44.34153" lon="6.61529"><ele>1448.5</ele></trkpt>
      <trkpt lat="44.34113" lon="6.61494"><ele>1450.9</ele></trkpt>
      <trkpt lat="44.34092" lon="6.6144"><ele>1453.3</ele></trkpt>
      <trkpt lat="44.33999" lon="6.61398"><ele>1464.4</ele></trkpt>
      <trkpt lat="44.33897" lon="6.61228"><ele>1482.8</ele></trkpt>
      <trkpt lat="44.33766" lon="6.61218"><ele>1494.4</ele></trkpt>
      <trkpt lat="44.33577" lon="6.61138"><ele>1506.6</ele></trkpt>
      <trkpt lat="44.33453" lon="6.61147"><ele>1513.2</ele></trkpt>
      <trkpt lat="44.33312" lon="6.6101"><ele>1511.8</ele></trkpt>
      <trkpt lat="44.333" lon="6.60976"><ele>1511.5</ele></trkpt>
      <trkpt lat="44.33352" lon="6.60877"><ele>1516.8</ele></trkpt>
      <trkpt lat="44.33385" lon="6.60859"><ele>1519.1</ele></trkpt>
      <trkpt lat="44.33415" lon="6.6076"><ele>1525.1</ele></trkpt>
      <trkpt lat="44.33463" lon="6.60746"><ele>1530.8</ele></trkpt>
      <trkpt lat="44.33484" lon="6.60713"><ele>1534.4</ele></trkpt>
      <trkpt lat="44.33477" lon="6.60603"><ele>1543.0</ele></trkpt>
      <trkpt lat="44.33515" lon="6.60558"><ele>1545.8</ele></trkpt>
      <trkpt lat="44.33575" lon="6.60336"><ele>1560.0</ele></trkpt>
      <trkpt lat="44.33594" lon="6.60174"><ele>1576.5</ele></trkpt>
      <trkpt lat="44.33656" lon="6.60038"><ele>1594.0</ele></trkpt>
      <trkpt lat="44.33644" lon="6.60001"><ele>1598.5</ele></trkpt>
      <trkpt lat="44.33596" lon="6.60025"><ele>1601.4</ele></trkpt>
      <trkpt lat="44.33527" lon="6.60004"><ele>1591.2</ele></trkpt>
      <trkpt lat="44.33484" lon="6.60027"><ele>1584.7</ele></trkpt>
      <trkpt lat="44.33427" lon="6.60014"><ele>1578.6</ele></trkpt>
      <trkpt lat="44.33409" lon="6.59985"><ele>1579.3</ele></trkpt>
      <trkpt lat="44.33406" lon="6.59905"><ele>1580.7</ele></trkpt>
      <trkpt lat="44.33474" lon="6.59822"><ele>1583.5</ele></trkpt>
      <trkpt lat="44.33512" lon="6.59704"><ele>1588.9</ele></trkpt>
      <trkpt lat="44.33503" lon="6.59636"><ele>1591.8</ele></trkpt>
      <trkpt lat="44.33531" lon="6.59526"><ele>1593.7</ele></trkpt>
      <trkpt lat="44.33501" lon="6.59408"><ele>1594.7</ele></trkpt>
      <trkpt lat="44.33517" lon="6.59262"><ele>1606.2</ele></trkpt>
      <trkpt lat="44.33597" lon="6.59163"><ele>1620.6</ele></trkpt>
      <trkpt lat="44.33594" lon="6.59141"><ele>1621.5</ele></trkpt>
      <trkpt lat="44.33525" lon="6.59102"><ele>1625.6</ele></trkpt>
      <trkpt lat="44.3349" lon="6.5902"><ele>1629.2</ele></trkpt>
      <trkpt lat="44.33482" lon="6.58933"><ele>1631.4</ele></trkpt>
      <trkpt lat="44.33505" lon="6.58736"><ele>1637.1</ele></trkpt>
      <trkpt lat="44.3361" lon="6.58514"><ele>1653.6</ele></trkpt>
      <trkpt lat="44.33619" lon="6.58401"><ele>1665.0</ele></trkpt>
      <trkpt lat="44.33646" lon="6.58341"><ele>1672.2</ele></trkpt>
      <trkpt lat="44.33637" lon="6.58289"><ele>1675.1</ele></trkpt>
      <trkpt lat="44.33555" lon="6.58328"><ele>1678.5</ele></trkpt>
      <trkpt lat="44.33492" lon="6.58441"><ele>1681.8</ele></trkpt>
      <trkpt lat="44.33429" lon="6.58451"><ele>1683.3</ele></trkpt>
      <trkpt lat="44.3336" lon="6.58502"><ele>1685.2</ele></trkpt>
      <trkpt lat="44.33279" lon="6.58515"><ele>1694.2</ele></trkpt>
      <trkpt lat="44.33238" lon="6.58459"><ele>1700.6</ele></trkpt>
      <trkpt lat="44.33196" lon="6.58438"><ele>1705.5</ele></trkpt>
      <trkpt lat="44.33195" lon="6.58524"><ele>1711.9</ele></trkpt>
      <trkpt lat="44.3311" lon="6.58705"><ele>1726.4</ele></trkpt>
      <trkpt lat="44.3301" lon="6.58763"><ele>1736.2</ele></trkpt>
      <trkpt lat="44.33105" lon="6.58872"><ele>1736.7</ele></trkpt>
      <trkpt lat="44.3311" lon="6.58953"><ele>1736.1</ele></trkpt>
      <trkpt lat="44.32988" lon="6.59036"><ele>1744.6</ele></trkpt>
      <trkpt lat="44.32924" lon="6.59217"><ele>1755.0</ele></trkpt>
      <trkpt lat="44.3293" lon="6.59266"><ele>1757.6</ele></trkpt>
      <trkpt lat="44.3289" lon="6.5932"><ele>1761.7</ele></trkpt>
      <trkpt lat="44.32867" lon="6.59315"><ele>1764.0</ele></trkpt>
      <trkpt lat="44.32889" lon="6.59238"><ele>1769.0</ele></trkpt>
      <trkpt lat="44.32882" lon="6.59058"><ele>1781.5</ele></trkpt>
      <trkpt lat="44.32864" lon="6.59064"><ele>1783.9</ele></trkpt>
      <trkpt lat="44.32846" lon="6.59163"><ele>1792.4</ele></trkpt>
      <trkpt lat="44.32783" lon="6.5923"><ele>1801.6</ele></trkpt>
      <trkpt lat="44.32813" lon="6.59336"><ele>1811.3</ele></trkpt>
      <trkpt lat="44.32826" lon="6.59487"><ele>1822.3</ele></trkpt>
      <trkpt lat="44.32806" lon="6.59656"><ele>1832.9</ele></trkpt>
      <trkpt lat="44.32837" lon="6.59694"><ele>1835.4</ele></trkpt>
      <trkpt lat="44.3284" lon="6.59761"><ele>1838.2</ele></trkpt>
      <trkpt lat="44.32831" lon="6.59831"><ele>1841.2</ele></trkpt>
      <trkpt lat="44.32796" lon="6.59906"><ele>1845.8</ele></trkpt>
      <trkpt lat="44.32796" lon="6.60008"><ele>1852.3</ele></trkpt>
      <trkpt lat="44.32729" lon="6.60037"><ele>1858.7</ele></trkpt>
      <trkpt lat="44.32718" lon="6.60096"><ele>1860.3</ele></trkpt>
      <trkpt lat="44.32646" lon="6.60205"><ele>1863.8</ele></trkpt>
      <trkpt lat="44.32616" lon="6.60304"><ele>1865.3</ele></trkpt>
      <trkpt lat="44.32527" lon="6.60394"><ele>1866.3</ele></trkpt>
      <trkpt lat="44.3241" lon="6.60397"><ele>1872.2</ele></trkpt>
      <trkpt lat="44.32375" lon="6.60303"><ele>1876.8</ele></trkpt>
      <trkpt lat="44.32261" lon="6.60256"><ele>1886.1</ele></trkpt>
      <trkpt lat="44.3219" lon="6.60196"><ele>1892.1</ele></trkpt>
      <trkpt lat="44.3218" lon="6.601"><ele>1896.1</ele></trkpt>
      <trkpt lat="44.32047" lon="6.60073"><ele>1905.5</ele></trkpt>
      <trkpt lat="44.3201" lon="6.59785"><ele>1923.9</ele></trkpt>
      <trkpt lat="44.3192" lon="6.59789"><ele>1930.8</ele></trkpt>
      <trkpt lat="44.31831" lon="6.59757"><ele>1935.9</ele></trkpt>
      <trkpt lat="44.31829" lon="6.5969"><ele>1938.5</ele></trkpt>
      <trkpt lat="44.31785" lon="6.59563"><ele>1949.0</ele></trkpt>
      <trkpt lat="44.31646" lon="6.59406"><ele>1972.6</ele></trkpt>
      <trkpt lat="44.31549" lon="6.59393"><ele>1984.3</ele></trkpt>
      <trkpt lat="44.31518" lon="6.59455"><ele>1988.7</ele></trkpt>
      <trkpt lat="44.31462" lon="6.59483"><ele>1992.4</ele></trkpt>
      <trkpt lat="44.31516" lon="6.59429"><ele>1996.3</ele></trkpt>
      <trkpt lat="44.31539" lon="6.59365"><ele>1997.9</ele></trkpt>
      <trkpt lat="44.31604" lon="6.59343"><ele>1999.8</ele></trkpt>
      <trkpt lat="44.31676" lon="6.59327"><ele>2001.9</ele></trkpt>
      <trkpt lat="44.31703" lon="6.5936"><ele>2003.9</ele></trkpt>
      <trkpt lat="44.31761" lon="6.59345"><ele>2007.4</ele></trkpt>
      <trkpt lat="44.31821" lon="6.59376"><ele>2011.3</ele></trkpt>
      <trkpt lat="44.31809" lon="6.59339"><ele>2014.1</ele></trkpt>
      <trkpt lat="44.31735" lon="6.59312"><ele>2022.5</ele></trkpt>
      <trkpt lat="44.31687" lon="6.59262"><ele>2029.2</ele></trkpt>
      <trkpt lat="44.31498" lon="6.59244"><ele>2051.7</ele></trkpt>
      <trkpt lat="44.31341" lon="6.59329"><ele>2057.2</ele></trkpt>
      <trkpt lat="44.31271" lon="6.59316"><ele>2062.4</ele></trkpt>
      <trkpt lat="44.31134" lon="6.59236"><ele>2076.2</ele></trkpt>
      <trkpt lat="44.31043" lon="6.59249"><ele>2089.0</ele></trkpt>
      <trkpt lat="44.31022" lon="6.5929"><ele>2094.1</ele></trkpt>
      <trkpt lat="44.31006" lon="6.59468"><ele>2104.3</ele></trkpt>
      <trkpt lat="44.31061" lon="6.59703"><ele>2110.6</ele></trkpt>
      <trkpt lat="44.31043" lon="6.59752"><ele>2111.2</ele></trkpt>
      <trkpt lat="44.30978" lon="6.59744"><ele>2114.0</ele></trkpt>
      <trkpt lat="44.30849" lon="6.59641"><ele>2125.5</ele></trkpt>
      <trkpt lat="44.30725" lon="6.59592"><ele>2136.3</ele></trkpt>
      <trkpt lat="44.30658" lon="6.59477"><ele>2147.4</ele></trkpt>
      <trkpt lat="44.30595" lon="6.59437"><ele>2155.5</ele></trkpt>
      <trkpt lat="44.30546" lon="6.59447"><ele>2161.5</ele></trkpt>
      <trkpt lat="44.30497" lon="6.5951"><ele>2166.5</ele></trkpt>
      <trkpt lat="44.30387" lon="6.59522"><ele>2174.8</ele></trkpt>
      <trkpt lat="44.30342" lon="6.59577"><ele>2177.7</ele></trkpt>
      <trkpt lat="44.30223" lon="6.59652"><ele>2184.3</ele></trkpt>
      <trkpt lat="44.30157" lon="6.59662"><ele>2188.7</ele></trkpt>
      <trkpt lat="44.3004" lon="6.59587"><ele>2197.5</ele></trkpt>
      <trkpt lat="44.29979" lon="6.59574"><ele>2202.2</ele></trkpt>
      <trkpt lat="44.29895" lon="6.59621"><ele>2209.3</ele></trkpt>
      <trkpt lat="44.29812" lon="6.59628"><ele>2212.6</ele></trkpt>
      <trkpt lat="44.29695" lon="6.59534"><ele>2226.0</ele></trkpt>
      <trkpt lat="44.29669" lon="6.59471"><ele>2229.1</ele></trkpt>
      <trkpt lat="44.29722" lon="6.59431"><ele>2231.9</ele></trkpt>
      <trkpt lat="44.29725" lon="6.5936"><ele>2234.2</ele></trkpt>
      <trkpt lat="44.29802" lon="6.59312"><ele>2232.1</ele></trkpt>
      <trkpt lat="44.29851" lon="6.59249"><ele>2226.9</ele></trkpt>
      <trkpt lat="44.29845" lon="6.59206"><ele>2224.4</ele></trkpt>
      <trkpt lat="44.298" lon="6.59149"><ele>2218.0</ele></trkpt>
      <trkpt lat="44.29868" lon="6.59039"><ele>2204.8</ele></trkpt>
      <trkpt lat="44.29881" lon="6.58954"><ele>2198.0</ele></trkpt>
      <trkpt lat="44.30037" lon="6.58822"><ele>2185.1</ele></trkpt>
      <trkpt lat="44.30084" lon="6.58744"><ele>2179.1</ele></trkpt>
      <trkpt lat="44.30172" lon="6.58691"><ele>2171.2</ele></trkpt>
      <trkpt lat="44.30212" lon="6.58628"><ele>2166.7</ele></trkpt>
      <trkpt lat="44.30236" lon="6.58468"><ele>2157.9</ele></trkpt>
      <trkpt lat="44.30219" lon="6.58481"><ele>2156.8</ele></trkpt>
      <trkpt lat="44.30188" lon="6.58599"><ele>2151.8</ele></trkpt>
      <trkpt lat="44.30155" lon="6.58635"><ele>2149.4</ele></trkpt>
      <trkpt lat="44.29902" lon="6.58763"><ele>2126.6</ele></trkpt>
      <trkpt lat="44.29992" lon="6.58691"><ele>2119.3</ele></trkpt>
      <trkpt lat="44.30082" lon="6.58543"><ele>2110.2</ele></trkpt>
      <trkpt lat="44.30079" lon="6.58427"><ele>2102.8</ele></trkpt>
      <trkpt lat="44.30101" lon="6.58372"><ele>2098.8</ele></trkpt>
      <trkpt lat="44.30273" lon="6.5819"><ele>2084.9</ele></trkpt>
      <trkpt lat="44.30112" lon="6.58075"><ele>2064.8</ele></trkpt>
      <trkpt lat="44.30054" lon="6.57988"><ele>2056.7</ele></trkpt>
      <trkpt lat="44.30012" lon="6.57628"><ele>2033.1</ele></trkpt>
      <trkpt lat="44.30035" lon="6.57558"><ele>2028.1</ele></trkpt>
      <trkpt lat="44.29993" lon="6.57627"><ele>2022.4</ele></trkpt>
      <trkpt lat="44.29935" lon="6.57987"><ele>2001.8</ele></trkpt>
      <trkpt lat="44.29889" lon="6.57423"><ele>1964.7</ele></trkpt>
      <trkpt lat="44.29811" lon="6.57698"><ele>1947.4</ele></trkpt>
      <trkpt lat="44.29795" lon="6.57693"><ele>1945.7</ele></trkpt>
      <trkpt lat="44.29826" lon="6.57503"><ele>1934.2</ele></trkpt>
      <trkpt lat="44.29785" lon="6.57369"><ele>1926.3</ele></trkpt>
      <trkpt lat="44.29821" lon="6.57332"><ele>1923.9</ele></trkpt>
      <trkpt lat="44.29844" lon="6.57265"><ele>1921.0</ele></trkpt>
      <trkpt lat="44.29832" lon="6.57259"><ele>1920.2</ele></trkpt>
      <trkpt lat="44.29814" lon="6.57304"><ele>1917.8</ele></trkpt>
      <trkpt lat="44.2976" lon="6.57316"><ele>1913.3</ele></trkpt>
      <trkpt lat="44.29751" lon="6.57295"><ele>1911.3</ele></trkpt>
      <trkpt lat="44.29798" lon="6.57267"><ele>1906.7</ele></trkpt>
      <trkpt lat="44.29729" lon="6.57262"><ele>1900.2</ele></trkpt>
      <trkpt lat="44.29776" lon="6.57235"><ele>1895.7</ele></trkpt>
      <trkpt lat="44.29847" lon="6.56977"><ele>1879.9</ele></trkpt>
      <trkpt lat="44.29943" lon="6.56817"><ele>1870.1</ele></trkpt>
      <trkpt lat="44.29956" lon="6.5672"><ele>1866.1</ele></trkpt>
      <trkpt lat="44.29759" lon="6.56893"><ele>1850.0</ele></trkpt>
      <trkpt lat="44.29632" lon="6.56968"><ele>1840.1</ele></trkpt>
      <trkpt lat="44.29571" lon="6.56924"><ele>1834.4</ele></trkpt>
      <trkpt lat="44.29325" lon="6.56947"><ele>1812.4</ele></trkpt>
      <trkpt lat="44.29275" lon="6.57005"><ele>1806.9</ele></trkpt>
      <trkpt lat="44.2921" lon="6.57004"><ele>1803.0</ele></trkpt>
      <trkpt lat="44.29085" lon="6.5716"><ele>1794.2</ele></trkpt>
      <trkpt lat="44.2894" lon="6.57233"><ele>1788.0</ele></trkpt>
      <trkpt lat="44.29111" lon="6.56972"><ele>1784.3</ele></trkpt>
      <trkpt lat="44.29103" lon="6.56917"><ele>1784.3</ele></trkpt>
      <trkpt lat="44.29038" lon="6.56912"><ele>1783.7</ele></trkpt>
      <trkpt lat="44.28998" lon="6.56873"><ele>1783.3</ele></trkpt>
      <trkpt lat="44.28857" lon="6.56973"><ele>1777.5</ele></trkpt>
      <trkpt lat="44.28657" lon="6.57186"><ele>1764.6</ele></trkpt>
      <trkpt lat="44.28565" lon="6.57245"><ele>1759.5</ele></trkpt>
      <trkpt lat="44.28514" lon="6.57258"><ele>1756.9</ele></trkpt>
      <trkpt lat="44.28375" lon="6.5723"><ele>1752.3</ele></trkpt>
      <trkpt lat="44.28242" lon="6.57358"><ele>1745.3</ele></trkpt>
      <trkpt lat="44.28036" lon="6.57441"><ele>1731.7</ele></trkpt>
      <trkpt lat="44.27931" lon="6.57554"><ele>1722.6</ele></trkpt>
      <trkpt lat="44.27795" lon="6.57774"><ele>1709.3</ele></trkpt>
      <trkpt lat="44.27732" lon="6.57836"><ele>1704.8</ele></trkpt>
      <trkpt lat="44.27657" lon="6.57862"><ele>1701.3</ele></trkpt>
      <trkpt lat="44.27629" lon="6.57914"><ele>1699.2</ele></trkpt>
      <trkpt lat="44.27532" lon="6.57864"><ele>1695.4</ele></trkpt>
      <trkpt lat="44.27441" lon="6.57954"><ele>1692.0</ele></trkpt>
      <trkpt lat="44.27374" lon="6.57968"><ele>1687.5</ele></trkpt>
      <trkpt lat="44.27251" lon="6.57908"><ele>1678.1</ele></trkpt>
      <trkpt lat="44.27156" lon="6.58"><ele>1669.7</ele></trkpt>
      <trkpt lat="44.26721" lon="6.58079"><ele>1641.8</ele></trkpt>
      <trkpt lat="44.26526" lon="6.5822"><ele>1626.2</ele></trkpt>
      <trkpt lat="44.26317" lon="6.58297"><ele>1611.4</ele></trkpt>
      <trkpt lat="44.26322" lon="6.58394"><ele>1606.2</ele></trkpt>
      <trkpt lat="44.26137" lon="6.58558"><ele>1590.7</ele></trkpt>
      <trkpt lat="44.26018" lon="6.58705"><ele>1578.4</ele></trkpt>
      <trkpt lat="44.25964" lon="6.58846"><ele>1569.4</ele></trkpt>
      <trkpt lat="44.25858" lon="6.58894"><ele>1560.4</ele></trkpt>
      <trkpt lat="44.25816" lon="6.59029"><ele>1552.0</ele></trkpt>
      <trkpt lat="44.25501" lon="6.59536"><ele>1533.3</ele></trkpt>
      <trkpt lat="44.25401" lon="6.59623"><ele>1525.6</ele></trkpt>
      <trkpt lat="44.25179" lon="6.59941"><ele>1505.7</ele></trkpt>
      <trkpt lat="44.25137" lon="6.60032"><ele>1501.4</ele></trkpt>
      <trkpt lat="44.24947" lon="6.60153"><ele>1492.5</ele></trkpt>
      <trkpt lat="44.24896" lon="6.60239"><ele>1489.8</ele></trkpt>
      <trkpt lat="44.24881" lon="6.60309"><ele>1488.3</ele></trkpt>
      <trkpt lat="44.24699" lon="6.60526"><ele>1478.6</ele></trkpt>
      <trkpt lat="44.24687" lon="6.60565"><ele>1477.2</ele></trkpt>
      <trkpt lat="44.2469" lon="6.60776"><ele>1470.8</ele></trkpt>
      <trkpt lat="44.24583" lon="6.6116"><ele>1453.7</ele></trkpt>
      <trkpt lat="44.24489" lon="6.61406"><ele>1447.5</ele></trkpt>
      <trkpt lat="44.24467" lon="6.61556"><ele>1445.1</ele></trkpt>
      <trkpt lat="44.2448" lon="6.61658"><ele>1442.8</ele></trkpt>
      <trkpt lat="44.24524" lon="6.6176"><ele>1440.2</ele></trkpt>
      <trkpt lat="44.24514" lon="6.61827"><ele>1438.8</ele></trkpt>
      <trkpt lat="44.24477" lon="6.61877"><ele>1437.2</ele></trkpt>
      <trkpt lat="44.24472" lon="6.62007"><ele>1435.6</ele></trkpt>
      <trkpt lat="44.24562" lon="6.62292"><ele>1434.7</ele></trkpt>
      <trkpt lat="44.24513" lon="6.62459"><ele>1434.2</ele></trkpt>
      <trkpt lat="44.24444" lon="6.62472"><ele>1434.5</ele></trkpt>
      <trkpt lat="44.24258" lon="6.62604"><ele>1436.0</ele></trkpt>
      <trkpt lat="44.24201" lon="6.62687"><ele>1436.0</ele></trkpt>
      <trkpt lat="44.24129" lon="6.62676"><ele>1435.4</ele></trkpt>
      <trkpt lat="44.24068" lon="6.62796"><ele>1431.3</ele></trkpt>
      <trkpt lat="44.23937" lon="6.62893"><ele>1419.4</ele></trkpt>
      <trkpt lat="44.23855" lon="6.62914"><ele>1415.3</ele></trkpt>
      <trkpt lat="44.23817" lon="6.6289"><ele>1413.2</ele></trkpt>
      <trkpt lat="44.23679" lon="6.62878"><ele>1408.2</ele></trkpt>
      <trkpt lat="44.23551" lon="6.62929"><ele>1405.1</ele></trkpt>
      <trkpt lat="44.23422" lon="6.62929"><ele>1403.6</ele></trkpt>
      <trkpt lat="44.23237" lon="6.62888"><ele>1399.8</ele></trkpt>
      <trkpt lat="44.23128" lon="6.62939"><ele>1395.7</ele></trkpt>
      <trkpt lat="44.2303" lon="6.62955"><ele>1391.3</ele></trkpt>
      <trkpt lat="44.2281" lon="6.631"><ele>1379.6</ele></trkpt>
      <trkpt lat="44.22673" lon="6.63264"><ele>1373.1</ele></trkpt>
      <trkpt lat="44.22588" lon="6.6332"><ele>1370.2</ele></trkpt>
      <trkpt lat="44.22444" lon="6.63362"><ele>1365.3</ele></trkpt>
      <trkpt lat="44.21725" lon="6.63473"><ele>1352.2</ele></trkpt>
      <trkpt lat="44.21659" lon="6.63505"><ele>1350.2</ele></trkpt>
      <trkpt lat="44.21561" lon="6.636"><ele>1346.8</ele></trkpt>
      <trkpt lat="44.21481" lon="6.63601"><ele>1344.2</ele></trkpt>
      <trkpt lat="44.21238" lon="6.63717"><ele>1337.1</ele></trkpt>
      <trkpt lat="44.20869" lon="6.63786"><ele>1331.7</ele></trkpt>
      <trkpt lat="44.20665" lon="6.63669"><ele>1327.5</ele></trkpt>
      <trkpt lat="44.20551" lon="6.63684"><ele>1322.9</ele></trkpt>
      <trkpt lat="44.20352" lon="6.63631"><ele>1318.6</ele></trkpt>
      <trkpt lat="44.20274" lon="6.63668"><ele>1319.8</ele></trkpt>
      <trkpt lat="44.20042" lon="6.63558"><ele>1315.8</ele></trkpt>
      <trkpt lat="44.19948" lon="6.6358"><ele>1314.5</ele></trkpt>
      <trkpt lat="44.19876" lon="6.63679"><ele>1314.0</ele></trkpt>
      <trkpt lat="44.1984" lon="6.63689"><ele>1313.2</ele></trkpt>
      <trkpt lat="44.1966" lon="6.63578"><ele>1307.4</ele></trkpt>
      <trkpt lat="44.19533" lon="6.6361"><ele>1301.8</ele></trkpt>
      <trkpt lat="44.19459" lon="6.63602"><ele>1297.3</ele></trkpt>
      <trkpt lat="44.19279" lon="6.63479"><ele>1285.8</ele></trkpt>
      <trkpt lat="44.19082" lon="6.63523"><ele>1280.9</ele></trkpt>
      <trkpt lat="44.18914" lon="6.63484"><ele>1280.9</ele></trkpt>
      <trkpt lat="44.18734" lon="6.63254"><ele>1280.0</ele></trkpt>
      <trkpt lat="44.18637" lon="6.63173"><ele>1278.9</ele></trkpt>
      <trkpt lat="44.18424" lon="6.63169"><ele>1272.9</ele></trkpt>
      <trkpt lat="44.18367" lon="6.6302"><ele>1264.4</ele></trkpt>
      <trkpt lat="44.18296" lon="6.62941"><ele>1256.3</ele></trkpt>
      <trkpt lat="44.18276" lon="6.62801"><ele>1250.2</ele></trkpt>
      <trkpt lat="44.18213" lon="6.62762"><ele>1245.9</ele></trkpt>
      <trkpt lat="44.18122" lon="6.62769"><ele>1244.1</ele></trkpt>
      <trkpt lat="44.18084" lon="6.62721"><ele>1243.2</ele></trkpt>
      <trkpt lat="44.18036" lon="6.62592"><ele>1241.8</ele></trkpt>
      <trkpt lat="44.17968" lon="6.62568"><ele>1241.1</ele></trkpt>
      <trkpt lat="44.17894" lon="6.62583"><ele>1240.0</ele></trkpt>
      <trkpt lat="44.17845" lon="6.62355"><ele>1237.3</ele></trkpt>
      <trkpt lat="44.17815" lon="6.62315"><ele>1237.7</ele></trkpt>
      <trkpt lat="44.17787" lon="6.62187"><ele>1238.7</ele></trkpt>
      <trkpt lat="44.17684" lon="6.6215"><ele>1238.9</ele></trkpt>
      <trkpt lat="44.17591" lon="6.62029"><ele>1238.9</ele></trkpt>
    </trkseg>
  </trk>
</gpx>
