<?xml version="1.0" encoding="UTF-8"?>
<gpx version="1.1" creator="tools/extract_original.py"
     xmlns="http://www.topografix.com/GPX/1/1">
  <metadata><name>Tag 5: Thonon-les-Bains → Cluses</name></metadata>
  <wpt lat="46.300033" lon="6.50207"><name>View of Lake Geneva and the Geneva Valley from Pré de la Basse</name></wpt>
  <wpt lat="46.29428" lon="6.509211"><name>Col du Feu</name></wpt>
  <wpt lat="46.299398" lon="6.615919"><name>Jotty Lake and Dam</name></wpt>
  <wpt lat="46.159267" lon="6.703122"><name>Joux Plan water fountain</name></wpt>
  <wpt lat="46.139293" lon="6.695713"><name>Col du Ranfolly</name></wpt>
  <wpt lat="46.084426" lon="6.723919"><name>Ascent of the Col de Joux Plane from Samoëns</name></wpt>
  <trk>
    <name>Tag 5: Thonon-les-Bains → Cluses</name>
    <trkseg>
      <trkpt lat="46.40148" lon="6.59462"><ele>376.7</ele></trkpt>
      <trkpt lat="46.40137" lon="6.59425"><ele>376.7</ele></trkpt>
      <trkpt lat="46.40147" lon="6.59332"><ele>376.6</ele></trkpt>
      <trkpt lat="46.40209" lon="6.59039"><ele>374.4</ele></trkpt>
      <trkpt lat="46.40205" lon="6.58806"><ele>374.4</ele></trkpt>
      <trkpt lat="46.40164" lon="6.586"><ele>376.3</ele></trkpt>
      <trkpt lat="46.39931" lon="6.5807"><ele>392.3</ele></trkpt>
      <trkpt lat="46.39887" lon="6.57756"><ele>396.0</ele></trkpt>
      <trkpt lat="46.39893" lon="6.5769"><ele>396.2</ele></trkpt>
      <trkpt lat="46.39867" lon="6.57607"><ele>396.1</ele></trkpt>
      <trkpt lat="46.39514" lon="6.55272"><ele>391.6</ele></trkpt>
      <trkpt lat="46.3946" lon="6.54512"><ele>377.3</ele></trkpt>
      <trkpt lat="46.39504" lon="6.54227"><ele>376.2</ele></trkpt>
      <trkpt lat="46.39503" lon="6.54065"><ele>376.1</ele></trkpt>
      <trkpt lat="46.39477" lon="6.53969"><ele>376.4</ele></trkpt>
      <trkpt lat="46.39387" lon="6.53803"><ele>376.9</ele></trkpt>
      <trkpt lat="46.39306" lon="6.53581"><ele>378.3</ele></trkpt>
      <trkpt lat="46.393" lon="6.53514"><ele>379.0</ele></trkpt>
      <trkpt lat="46.39133" lon="6.53158"><ele>384.2</ele></trkpt>
      <trkpt lat="46.39049" lon="6.52742"><ele>384.2</ele></trkpt>
      <trkpt lat="46.39062" lon="6.52658"><ele>384.4</ele></trkpt>
      <trkpt lat="46.38965" lon="6.52484"><ele>385.5</ele></trkpt>
      <trkpt lat="46.38977" lon="6.52411"><ele>386.7</ele></trkpt>
      <trkpt lat="46.3892" lon="6.52406"><ele>388.0</ele></trkpt>
      <trkpt lat="46.3881" lon="6.52287"><ele>390.7</ele></trkpt>
      <trkpt lat="46.38738" lon="6.52047"><ele>392.1</ele></trkpt>
      <trkpt lat="46.38739" lon="6.5198"><ele>392.0</ele></trkpt>
      <trkpt lat="46.38715" lon="6.51958"><ele>391.9</ele></trkpt>
      <trkpt lat="46.38587" lon="6.51671"><ele>391.7</ele></trkpt>
      <trkpt lat="46.38577" lon="6.51581"><ele>392.2</ele></trkpt>
      <trkpt lat="46.38535" lon="6.51545"><ele>392.6</ele></trkpt>
      <trkpt lat="46.38431" lon="6.51312"><ele>395.2</ele></trkpt>
      <trkpt lat="46.38396" lon="6.51316"><ele>395.4</ele></trkpt>
      <trkpt lat="46.38311" lon="6.5115"><ele>395.5</ele></trkpt>
      <trkpt lat="46.38286" lon="6.51046"><ele>395.3</ele></trkpt>
      <trkpt lat="46.38294" lon="6.50597"><ele>398.0</ele></trkpt>
      <trkpt lat="46.38271" lon="6.5044"><ele>399.6</ele></trkpt>
      <trkpt lat="46.38206" lon="6.50417"><ele>400.4</ele></trkpt>
      <trkpt lat="46.38008" lon="6.50263"><ele>402.5</ele></trkpt>
      <trkpt lat="46.37834" lon="6.49996"><ele>412.5</ele></trkpt>
      <trkpt lat="46.3776" lon="6.49963"><ele>415.9</ele></trkpt>
      <trkpt lat="46.37587" lon="6.49944"><ele>421.7</ele></trkpt>
      <trkpt lat="46.37515" lon="6.49961"><ele>423.9</ele></trkpt>
      <trkpt lat="46.37471" lon="6.49938"><ele>425.4</ele></trkpt>
      <trkpt lat="46.37323" lon="6.49744"><ele>431.2</ele></trkpt>
      <trkpt lat="46.37215" lon="6.49561"><ele>435.4</ele></trkpt>
      <trkpt lat="46.37161" lon="6.49304"><ele>437.4</ele></trkpt>
      <trkpt lat="46.37065" lon="6.491"><ele>442.8</ele></trkpt>
      <trkpt lat="46.36946" lon="6.49239"><ele>446.7</ele></trkpt>
      <trkpt lat="46.36879" lon="6.4938"><ele>451.1</ele></trkpt>
      <trkpt lat="46.36705" lon="6.49642"><ele>459.9</ele></trkpt>
      <trkpt lat="46.36652" lon="6.49685"><ele>461.5</ele></trkpt>
      <trkpt lat="46.36563" lon="6.49678"><ele>464.0</ele></trkpt>
      <trkpt lat="46.36446" lon="6.49751"><ele>469.4</ele></trkpt>
      <trkpt lat="46.36364" lon="6.49629"><ele>476.0</ele></trkpt>
      <trkpt lat="46.3626" lon="6.49574"><ele>480.9</ele></trkpt>
      <trkpt lat="46.36221" lon="6.49358"><ele>486.7</ele></trkpt>
      <trkpt lat="46.36233" lon="6.49296"><ele>488.3</ele></trkpt>
      <trkpt lat="46.36189" lon="6.49274"><ele>489.9</ele></trkpt>
      <trkpt lat="46.36127" lon="6.49143"><ele>493.4</ele></trkpt>
      <trkpt lat="46.36079" lon="6.49141"><ele>494.9</ele></trkpt>
      <trkpt lat="46.36041" lon="6.49193"><ele>497.8</ele></trkpt>
      <trkpt lat="46.36007" lon="6.49425"><ele>506.7</ele></trkpt>
      <trkpt lat="46.35914" lon="6.49609"><ele>515.3</ele></trkpt>
      <trkpt lat="46.35913" lon="6.49647"><ele>517.4</ele></trkpt>
      <trkpt lat="46.36001" lon="6.4979"><ele>528.1</ele></trkpt>
      <trkpt lat="46.35996" lon="6.49947"><ele>534.8</ele></trkpt>
      <trkpt lat="46.36029" lon="6.50073"><ele>539.7</ele></trkpt>
      <trkpt lat="46.3609" lon="6.50176"><ele>540.6</ele></trkpt>
      <trkpt lat="46.36217" lon="6.50267"><ele>544.1</ele></trkpt>
      <trkpt lat="46.36276" lon="6.50344"><ele>547.2</ele></trkpt>
      <trkpt lat="46.3631" lon="6.5044"><ele>551.1</ele></trkpt>
      <trkpt lat="46.36277" lon="6.50568"><ele>556.7</ele></trkpt>
      <trkpt lat="46.36268" lon="6.50726"><ele>563.9</ele></trkpt>
      <trkpt lat="46.36232" lon="6.50772"><ele>567.2</ele></trkpt>
      <trkpt lat="46.36113" lon="6.50824"><ele>576.9</ele></trkpt>
      <trkpt lat="46.3608" lon="6.50904"><ele>582.6</ele></trkpt>
      <trkpt lat="46.35955" lon="6.51548"><ele>596.8</ele></trkpt>
      <trkpt lat="46.35922" lon="6.51555"><ele>597.9</ele></trkpt>
      <trkpt lat="46.35887" lon="6.51525"><ele>599.0</ele></trkpt>
      <trkpt lat="46.35848" lon="6.51441"><ele>601.3</ele></trkpt>
      <trkpt lat="46.35804" lon="6.51426"><ele>603.2</ele></trkpt>
      <trkpt lat="46.3567" lon="6.51456"><ele>608.5</ele></trkpt>
      <trkpt lat="46.35482" lon="6.51454"><ele>613.8</ele></trkpt>
      <trkpt lat="46.35227" lon="6.51532"><ele>623.4</ele></trkpt>
      <trkpt lat="46.35187" lon="6.51577"><ele>625.9</ele></trkpt>
      <trkpt lat="46.35065" lon="6.51834"><ele>632.8</ele></trkpt>
      <trkpt lat="46.35042" lon="6.52011"><ele>634.9</ele></trkpt>
      <trkpt lat="46.34999" lon="6.52124"><ele>636.7</ele></trkpt>
      <trkpt lat="46.3494" lon="6.52117"><ele>638.0</ele></trkpt>
      <trkpt lat="46.3488" lon="6.52043"><ele>640.1</ele></trkpt>
      <trkpt lat="46.34793" lon="6.52002"><ele>644.3</ele></trkpt>
      <trkpt lat="46.34756" lon="6.52125"><ele>648.1</ele></trkpt>
      <trkpt lat="46.34616" lon="6.52371"><ele>651.5</ele></trkpt>
      <trkpt lat="46.34107" lon="6.52318"><ele>650.7</ele></trkpt>
      <trkpt lat="46.33931" lon="6.52215"><ele>650.2</ele></trkpt>
      <trkpt lat="46.33892" lon="6.52149"><ele>649.5</ele></trkpt>
      <trkpt lat="46.33814" lon="6.5209"><ele>648.6</ele></trkpt>
      <trkpt lat="46.33788" lon="6.51967"><ele>647.6</ele></trkpt>
      <trkpt lat="46.33736" lon="6.51879"><ele>646.7</ele></trkpt>
      <trkpt lat="46.3345" lon="6.51521"><ele>640.8</ele></trkpt>
      <trkpt lat="46.33358" lon="6.51316"><ele>636.1</ele></trkpt>
      <trkpt lat="46.33351" lon="6.51204"><ele>632.4</ele></trkpt>
      <trkpt lat="46.33302" lon="6.51121"><ele>628.7</ele></trkpt>
      <trkpt lat="46.33129" lon="6.51023"><ele>632.7</ele></trkpt>
      <trkpt lat="46.32939" lon="6.50874"><ele>633.8</ele></trkpt>
      <trkpt lat="46.32857" lon="6.50862"><ele>632.7</ele></trkpt>
      <trkpt lat="46.32746" lon="6.50806"><ele>631.0</ele></trkpt>
      <trkpt lat="46.32597" lon="6.50604"><ele>626.4</ele></trkpt>
      <trkpt lat="46.32393" lon="6.50405"><ele>619.1</ele></trkpt>
      <trkpt lat="46.32094" lon="6.49908"><ele>621.9</ele></trkpt>
      <trkpt lat="46.32022" lon="6.49859"><ele>624.2</ele></trkpt>
      <trkpt lat="46.31965" lon="6.49858"><ele>626.6</ele></trkpt>
      <trkpt lat="46.31798" lon="6.49938"><ele>637.0</ele></trkpt>
      <trkpt lat="46.31608" lon="6.49816"><ele>645.8</ele></trkpt>
      <trkpt lat="46.31444" lon="6.49558"><ele>647.3</ele></trkpt>
      <trkpt lat="46.31345" lon="6.49203"><ele>649.2</ele></trkpt>
      <trkpt lat="46.31312" lon="6.49125"><ele>650.7</ele></trkpt>
      <trkpt lat="46.31269" lon="6.49089"><ele>651.9</ele></trkpt>
      <trkpt lat="46.31066" lon="6.49349"><ele>668.0</ele></trkpt>
      <trkpt lat="46.31056" lon="6.49407"><ele>672.9</ele></trkpt>
      <trkpt lat="46.31135" lon="6.49577"><ele>686.5</ele></trkpt>
      <trkpt lat="46.31273" lon="6.49688"><ele>696.4</ele></trkpt>
      <trkpt lat="46.31324" lon="6.4977"><ele>700.5</ele></trkpt>
      <trkpt lat="46.31486" lon="6.49917"><ele>711.4</ele></trkpt>
      <trkpt lat="46.31581" lon="6.50064"><ele>721.5</ele></trkpt>
      <trkpt lat="46.31629" lon="6.50176"><ele>728.9</ele></trkpt>
      <trkpt lat="46.31663" lon="6.50363"><ele>743.2</ele></trkpt>
      <trkpt lat="46.31653" lon="6.50506"><ele>753.4</ele></trkpt>
      <trkpt lat="46.31613" lon="6.50575"><ele>759.2</ele></trkpt>
      <trkpt lat="46.31569" lon="6.50588"><ele>763.6</ele></trkpt>
      <trkpt lat="46.314" lon="6.50476"><ele>783.5</ele></trkpt>
      <trkpt lat="46.31319" lon="6.50393"><ele>793.7</ele></trkpt>
      <trkpt lat="46.31162" lon="6.50323"><ele>810.0</ele></trkpt>
      <trkpt lat="46.31033" lon="6.50154"><ele>825.7</ele></trkpt>
      <trkpt lat="46.30911" lon="6.50152"><ele>835.8</ele></trkpt>
      <trkpt lat="46.30872" lon="6.50189"><ele>839.7</ele></trkpt>
      <trkpt lat="46.30845" lon="6.50161"><ele>842.4</ele></trkpt>
      <trkpt lat="46.30828" lon="6.50075"><ele>847.3</ele></trkpt>
      <trkpt lat="46.30811" lon="6.50068"><ele>848.7</ele></trkpt>
      <trkpt lat="46.30753" lon="6.50192"><ele>857.5</ele></trkpt>
      <trkpt lat="46.30736" lon="6.50196"><ele>859.0</ele></trkpt>
      <trkpt lat="46.3072" lon="6.50127"><ele>863.3</ele></trkpt>
      <trkpt lat="46.30646" lon="6.50097"><ele>870.3</ele></trkpt>
      <trkpt lat="46.3054" lon="6.49979"><ele>882.5</ele></trkpt>
      <trkpt lat="46.30427" lon="6.49782"><ele>899.2</ele></trkpt>
      <trkpt lat="46.30283" lon="6.49766"><ele>913.1</ele></trkpt>
      <trkpt lat="46.30281" lon="6.49946"><ele>923.1</ele></trkpt>
      <trkpt lat="46.30226" lon="6.50012"><ele>928.9</ele></trkpt>
      <trkpt lat="46.30214" lon="6.50189"><ele>939.4</ele></trkpt>
      <trkpt lat="46.30164" lon="6.50329"><ele>949.3</ele></trkpt>
      <trkpt lat="46.30053" lon="6.50264"><ele>961.6</ele></trkpt>
      <trkpt lat="46.30028" lon="6.50215"><ele>966.5</ele></trkpt>
      <trkpt lat="46.29954" lon="6.50164"><ele>976.9</ele></trkpt>
      <trkpt lat="46.2992" lon="6.5028"><ele>984.4</ele></trkpt>
      <trkpt lat="46.29938" lon="6.50375"><ele>988.3</ele></trkpt>
      <trkpt lat="46.29926" lon="6.50442"><ele>991.1</ele></trkpt>
      <trkpt lat="46.29966" lon="6.50529"><ele>996.3</ele></trkpt>
      <trkpt lat="46.30019" lon="6.50566"><ele>1001.1</ele></trkpt>
      <trkpt lat="46.29867" lon="6.50594"><ele>1014.6</ele></trkpt>
      <trkpt lat="46.29879" lon="6.50622"><ele>1017.0</ele></trkpt>
      <trkpt lat="46.30078" lon="6.50674"><ele>1031.9</ele></trkpt>
      <trkpt lat="46.3021" lon="6.50752"><ele>1043.1</ele></trkpt>
      <trkpt lat="46.30214" lon="6.50781"><ele>1044.9</ele></trkpt>
      <trkpt lat="46.30147" lon="6.50746"><ele>1050.7</ele></trkpt>
      <trkpt lat="46.30015" lon="6.50734"><ele>1060.5</ele></trkpt>
      <trkpt lat="46.29754" lon="6.50954"><ele>1093.2</ele></trkpt>
      <trkpt lat="46.29597" lon="6.50974"><ele>1108.2</ele></trkpt>
      <trkpt lat="46.29519" lon="6.50966"><ele>1114.6</ele></trkpt>
      <trkpt lat="46.29384" lon="6.50899"><ele>1112.0</ele></trkpt>
      <trkpt lat="46.29261" lon="6.50937"><ele>1102.8</ele></trkpt>
      <trkpt lat="46.29196" lon="6.50851"><ele>1093.7</ele></trkpt>
      <trkpt lat="46.29091" lon="6.5083"><ele>1085.6</ele></trkpt>
      <trkpt lat="46.29024" lon="6.50857"><ele>1080.6</ele></trkpt>
      <trkpt lat="46.28999" lon="6.50918"><ele>1076.2</ele></trkpt>
      <trkpt lat="46.29021" lon="6.51009"><ele>1070.1</ele></trkpt>
      <trkpt lat="46.29018" lon="6.51095"><ele>1064.6</ele></trkpt>
      <trkpt lat="46.29039" lon="6.51102"><ele>1062.1</ele></trkpt>
      <trkpt lat="46.29086" lon="6.5105"><ele>1053.4</ele></trkpt>
      <trkpt lat="46.29108" lon="6.51064"><ele>1049.8</ele></trkpt>
      <trkpt lat="46.29165" lon="6.51201"><ele>1033.6</ele></trkpt>
      <trkpt lat="46.29165" lon="6.51306"><ele>1023.1</ele></trkpt>
      <trkpt lat="46.29203" lon="6.51385"><ele>1013.5</ele></trkpt>
      <trkpt lat="46.29207" lon="6.5144"><ele>1009.6</ele></trkpt>
      <trkpt lat="46.29184" lon="6.51442"><ele>1008.0</ele></trkpt>
      <trkpt lat="46.2911" lon="6.51348"><ele>1001.4</ele></trkpt>
      <trkpt lat="46.29046" lon="6.51341"><ele>997.7</ele></trkpt>
      <trkpt lat="46.28962" lon="6.51437"><ele>992.4</ele></trkpt>
      <trkpt lat="46.28843" lon="6.51428"><ele>984.0</ele></trkpt>
      <trkpt lat="46.28737" lon="6.51537"><ele>972.7</ele></trkpt>
      <trkpt lat="46.28653" lon="6.51543"><ele>964.3</ele></trkpt>
      <trkpt lat="46.28655" lon="6.5156"><ele>963.0</ele></trkpt>
      <trkpt lat="46.28717" lon="6.51567"><ele>956.9</ele></trkpt>
      <trkpt lat="46.2883" lon="6.51536"><ele>945.7</ele></trkpt>
      <trkpt lat="46.28843" lon="6.51552"><ele>943.9</ele></trkpt>
      <trkpt lat="46.28659" lon="6.5168"><ele>913.1</ele></trkpt>
      <trkpt lat="46.28562" lon="6.5178"><ele>896.4</ele></trkpt>
      <trkpt lat="46.28544" lon="6.51853"><ele>888.6</ele></trkpt>
      <trkpt lat="46.28574" lon="6.52019"><ele>872.8</ele></trkpt>
      <trkpt lat="46.28514" lon="6.52095"><ele>862.9</ele></trkpt>
      <trkpt lat="46.28427" lon="6.52138"><ele>856.2</ele></trkpt>
      <trkpt lat="46.28376" lon="6.52269"><ele>849.7</ele></trkpt>
      <trkpt lat="46.28386" lon="6.52308"><ele>848.7</ele></trkpt>
      <trkpt lat="46.28532" lon="6.52441"><ele>842.3</ele></trkpt>
      <trkpt lat="46.28661" lon="6.52482"><ele>836.3</ele></trkpt>
      <trkpt lat="46.29044" lon="6.52882"><ele>825.7</ele></trkpt>
      <trkpt lat="46.29171" lon="6.52816"><ele>824.7</ele></trkpt>
      <trkpt lat="46.29276" lon="6.52823"><ele>824.0</ele></trkpt>
      <trkpt lat="46.29546" lon="6.53045"><ele>822.2</ele></trkpt>
      <trkpt lat="46.29625" lon="6.53063"><ele>822.0</ele></trkpt>
      <trkpt lat="46.297" lon="6.53"><ele>821.5</ele></trkpt>
      <trkpt lat="46.2987" lon="6.5309"><ele>818.2</ele></trkpt>
      <trkpt lat="46.29913" lon="6.53354"><ele>811.9</ele></trkpt>
      <trkpt lat="46.29966" lon="6.53557"><ele>806.3</ele></trkpt>
      <trkpt lat="46.29985" lon="6.53578"><ele>805.4</ele></trkpt>
      <trkpt lat="46.30133" lon="6.53574"><ele>799.2</ele></trkpt>
      <trkpt lat="46.30174" lon="6.53599"><ele>797.2</ele></trkpt>
      <trkpt lat="46.30223" lon="6.53698"><ele>793.4</ele></trkpt>
      <trkpt lat="46.30224" lon="6.54086"><ele>784.3</ele></trkpt>
      <trkpt lat="46.30238" lon="6.54141"><ele>783.7</ele></trkpt>
      <trkpt lat="46.3027" lon="6.5419"><ele>784.4</ele></trkpt>
      <trkpt lat="46.30351" lon="6.54233"><ele>785.6</ele></trkpt>
      <trkpt lat="46.304" lon="6.5436"><ele>785.2</ele></trkpt>
      <trkpt lat="46.30578" lon="6.54586"><ele>778.3</ele></trkpt>
      <trkpt lat="46.30572" lon="6.5461"><ele>777.5</ele></trkpt>
      <trkpt lat="46.3061" lon="6.54736"><ele>772.3</ele></trkpt>
      <trkpt lat="46.3078" lon="6.54946"><ele>759.6</ele></trkpt>
      <trkpt lat="46.30899" lon="6.55037"><ele>751.5</ele></trkpt>
      <trkpt lat="46.30973" lon="6.55199"><ele>741.8</ele></trkpt>
      <trkpt lat="46.31095" lon="6.55382"><ele>726.3</ele></trkpt>
      <trkpt lat="46.31124" lon="6.55639"><ele>709.5</ele></trkpt>
      <trkpt lat="46.31188" lon="6.5571"><ele>701.3</ele></trkpt>
      <trkpt lat="46.31168" lon="6.55744"><ele>697.5</ele></trkpt>
      <trkpt lat="46.3103" lon="6.55698"><ele>686.7</ele></trkpt>
      <trkpt lat="46.30928" lon="6.55533"><ele>680.0</ele></trkpt>
      <trkpt lat="46.30767" lon="6.55505"><ele>680.2</ele></trkpt>
      <trkpt lat="46.30737" lon="6.55538"><ele>681.6</ele></trkpt>
      <trkpt lat="46.30785" lon="6.55769"><ele>689.4</ele></trkpt>
      <trkpt lat="46.30852" lon="6.55825"><ele>693.8</ele></trkpt>
      <trkpt lat="46.309" lon="6.55905"><ele>699.1</ele></trkpt>
      <trkpt lat="46.30924" lon="6.5604"><ele>706.8</ele></trkpt>
      <trkpt lat="46.31032" lon="6.56324"><ele>723.7</ele></trkpt>
      <trkpt lat="46.31082" lon="6.56435"><ele>730.2</ele></trkpt>
      <trkpt lat="46.31143" lon="6.56491"><ele>735.3</ele></trkpt>
      <trkpt lat="46.31232" lon="6.56658"><ele>750.2</ele></trkpt>
      <trkpt lat="46.3126" lon="6.56778"><ele>756.8</ele></trkpt>
      <trkpt lat="46.31253" lon="6.56881"><ele>761.0</ele></trkpt>
      <trkpt lat="46.31291" lon="6.56989"><ele>764.4</ele></trkpt>
      <trkpt lat="46.31372" lon="6.57098"><ele>765.3</ele></trkpt>
      <trkpt lat="46.31537" lon="6.57245"><ele>775.2</ele></trkpt>
      <trkpt lat="46.31533" lon="6.57372"><ele>779.9</ele></trkpt>
      <trkpt lat="46.31572" lon="6.57444"><ele>783.0</ele></trkpt>
      <trkpt lat="46.31618" lon="6.57613"><ele>790.3</ele></trkpt>
      <trkpt lat="46.31615" lon="6.57674"><ele>793.1</ele></trkpt>
      <trkpt lat="46.31576" lon="6.5774"><ele>797.0</ele></trkpt>
      <trkpt lat="46.31546" lon="6.57861"><ele>796.7</ele></trkpt>
      <trkpt lat="46.31586" lon="6.57899"><ele>796.6</ele></trkpt>
      <trkpt lat="46.3162" lon="6.57973"><ele>796.8</ele></trkpt>
      <trkpt lat="46.31619" lon="6.58101"><ele>797.8</ele></trkpt>
      <trkpt lat="46.31671" lon="6.58194"><ele>798.3</ele></trkpt>
      <trkpt lat="46.31628" lon="6.58257"><ele>797.4</ele></trkpt>
      <trkpt lat="46.31675" lon="6.58407"><ele>795.5</ele></trkpt>
      <trkpt lat="46.31656" lon="6.58502"><ele>793.6</ele></trkpt>
      <trkpt lat="46.31679" lon="6.58566"><ele>792.1</ele></trkpt>
      <trkpt lat="46.31593" lon="6.58685"><ele>792.9</ele></trkpt>
      <trkpt lat="46.31476" lon="6.59073"><ele>798.6</ele></trkpt>
      <trkpt lat="46.31516" lon="6.59251"><ele>802.0</ele></trkpt>
      <trkpt lat="46.31505" lon="6.59331"><ele>802.9</ele></trkpt>
      <trkpt lat="46.3152" lon="6.59468"><ele>803.5</ele></trkpt>
      <trkpt lat="46.31498" lon="6.5949"><ele>803.7</ele></trkpt>
      <trkpt lat="46.31333" lon="6.59477"><ele>804.5</ele></trkpt>
      <trkpt lat="46.31274" lon="6.596"><ele>802.1</ele></trkpt>
      <trkpt lat="46.31249" lon="6.5984"><ele>794.2</ele></trkpt>
      <trkpt lat="46.31291" lon="6.60134"><ele>787.6</ele></trkpt>
      <trkpt lat="46.31196" lon="6.6046"><ele>780.4</ele></trkpt>
      <trkpt lat="46.31218" lon="6.60554"><ele>772.7</ele></trkpt>
      <trkpt lat="46.31192" lon="6.60614"><ele>765.0</ele></trkpt>
      <trkpt lat="46.31183" lon="6.60756"><ele>750.5</ele></trkpt>
      <trkpt lat="46.31074" lon="6.60845"><ele>743.7</ele></trkpt>
      <trkpt lat="46.30967" lon="6.60855"><ele>737.8</ele></trkpt>
      <trkpt lat="46.30944" lon="6.60908"><ele>735.6</ele></trkpt>
      <trkpt lat="46.30938" lon="6.61013"><ele>731.6</ele></trkpt>
      <trkpt lat="46.30836" lon="6.61091"><ele>724.1</ele></trkpt>
      <trkpt lat="46.30756" lon="6.61195"><ele>717.3</ele></trkpt>
      <trkpt lat="46.30691" lon="6.61337"><ele>710.2</ele></trkpt>
      <trkpt lat="46.3065" lon="6.6134"><ele>707.9</ele></trkpt>
      <trkpt lat="46.30583" lon="6.61442"><ele>702.7</ele></trkpt>
      <trkpt lat="46.3041" lon="6.61581"><ele>691.8</ele></trkpt>
      <trkpt lat="46.3037" lon="6.61575"><ele>689.9</ele></trkpt>
      <trkpt lat="46.30202" lon="6.61438"><ele>688.5</ele></trkpt>
      <trkpt lat="46.30088" lon="6.61458"><ele>689.0</ele></trkpt>
      <trkpt lat="46.30018" lon="6.61564"><ele>686.7</ele></trkpt>
      <trkpt lat="46.29959" lon="6.61589"><ele>684.2</ele></trkpt>
      <trkpt lat="46.29894" lon="6.61545"><ele>681.5</ele></trkpt>
      <trkpt lat="46.29835" lon="6.61545"><ele>680.5</ele></trkpt>
      <trkpt lat="46.2977" lon="6.6151"><ele>679.1</ele></trkpt>
      <trkpt lat="46.29637" lon="6.61511"><ele>675.5</ele></trkpt>
      <trkpt lat="46.29547" lon="6.61442"><ele>673.3</ele></trkpt>
      <trkpt lat="46.29429" lon="6.61406"><ele>674.1</ele></trkpt>
      <trkpt lat="46.29353" lon="6.61484"><ele>673.0</ele></trkpt>
      <trkpt lat="46.29234" lon="6.61529"><ele>670.1</ele></trkpt>
      <trkpt lat="46.29083" lon="6.61532"><ele>666.8</ele></trkpt>
      <trkpt lat="46.28977" lon="6.6145"><ele>668.0</ele></trkpt>
      <trkpt lat="46.28925" lon="6.61442"><ele>669.0</ele></trkpt>
      <trkpt lat="46.28741" lon="6.61516"><ele>668.4</ele></trkpt>
      <trkpt lat="46.28573" lon="6.61511"><ele>671.0</ele></trkpt>
      <trkpt lat="46.2843" lon="6.61594"><ele>670.3</ele></trkpt>
      <trkpt lat="46.28358" lon="6.61609"><ele>669.3</ele></trkpt>
      <trkpt lat="46.28276" lon="6.61687"><ele>666.6</ele></trkpt>
      <trkpt lat="46.27902" lon="6.61775"><ele>669.4</ele></trkpt>
      <trkpt lat="46.26817" lon="6.62215"><ele>686.3</ele></trkpt>
      <trkpt lat="46.26692" lon="6.62204"><ele>693.4</ele></trkpt>
      <trkpt lat="46.26537" lon="6.62069"><ele>704.4</ele></trkpt>
      <trkpt lat="46.26424" lon="6.62054"><ele>706.7</ele></trkpt>
      <trkpt lat="46.26334" lon="6.62246"><ele>704.1</ele></trkpt>
      <trkpt lat="46.26222" lon="6.62344"><ele>701.6</ele></trkpt>
      <trkpt lat="46.26125" lon="6.62366"><ele>704.9</ele></trkpt>
      <trkpt lat="46.26047" lon="6.62275"><ele>708.4</ele></trkpt>
      <trkpt lat="46.26017" lon="6.6227"><ele>709.6</ele></trkpt>
      <trkpt lat="46.25857" lon="6.62454"><ele>717.1</ele></trkpt>
      <trkpt lat="46.25795" lon="6.62558"><ele>720.4</ele></trkpt>
      <trkpt lat="46.2576" lon="6.62569"><ele>722.1</ele></trkpt>
      <trkpt lat="46.25682" lon="6.62538"><ele>726.1</ele></trkpt>
      <trkpt lat="46.25628" lon="6.62556"><ele>728.9</ele></trkpt>
      <trkpt lat="46.256" lon="6.62597"><ele>728.3</ele></trkpt>
      <trkpt lat="46.25615" lon="6.62744"><ele>723.9</ele></trkpt>
      <trkpt lat="46.25518" lon="6.6291"><ele>723.7</ele></trkpt>
      <trkpt lat="46.2535" lon="6.62952"><ele>731.1</ele></trkpt>
      <trkpt lat="46.25195" lon="6.63056"><ele>744.2</ele></trkpt>
      <trkpt lat="46.25116" lon="6.63138"><ele>752.8</ele></trkpt>
      <trkpt lat="46.24979" lon="6.63209"><ele>764.0</ele></trkpt>
      <trkpt lat="46.24795" lon="6.63605"><ele>776.0</ele></trkpt>
      <trkpt lat="46.24697" lon="6.63685"><ele>769.7</ele></trkpt>
      <trkpt lat="46.24652" lon="6.63908"><ele>758.2</ele></trkpt>
      <trkpt lat="46.24592" lon="6.64028"><ele>755.7</ele></trkpt>
      <trkpt lat="46.24572" lon="6.64164"><ele>757.4</ele></trkpt>
      <trkpt lat="46.24536" lon="6.64204"><ele>759.3</ele></trkpt>
      <trkpt lat="46.24439" lon="6.64207"><ele>763.0</ele></trkpt>
      <trkpt lat="46.24367" lon="6.64257"><ele>765.5</ele></trkpt>
      <trkpt lat="46.24107" lon="6.64737"><ele>779.1</ele></trkpt>
      <trkpt lat="46.24002" lon="6.64981"><ele>779.0</ele></trkpt>
      <trkpt lat="46.23765" lon="6.65152"><ele>784.9</ele></trkpt>
      <trkpt lat="46.23742" lon="6.65204"><ele>787.1</ele></trkpt>
      <trkpt lat="46.23727" lon="6.65324"><ele>790.6</ele></trkpt>
      <trkpt lat="46.23575" lon="6.65439"><ele>795.3</ele></trkpt>
      <trkpt lat="46.2345" lon="6.65581"><ele>797.2</ele></trkpt>
      <trkpt lat="46.23124" lon="6.6566"><ele>803.2</ele></trkpt>
      <trkpt lat="46.22968" lon="6.65861"><ele>806.6</ele></trkpt>
      <trkpt lat="46.22864" lon="6.65912"><ele>807.6</ele></trkpt>
      <trkpt lat="46.22741" lon="6.65923"><ele>809.1</ele></trkpt>
      <trkpt lat="46.22579" lon="6.66016"><ele>813.5</ele></trkpt>
      <trkpt lat="46.22496" lon="6.66096"><ele>817.8</ele></trkpt>
      <trkpt lat="46.22352" lon="6.66319"><ele>829.8</ele></trkpt>
      <trkpt lat="46.2223" lon="6.66369"><ele>836.1</ele></trkpt>
      <trkpt lat="46.22096" lon="6.6654"><ele>841.0</ele></trkpt>
      <trkpt lat="46.21953" lon="6.6657"><ele>846.4</ele></trkpt>
      <trkpt lat="46.21813" lon="6.66649"><ele>852.2</ele></trkpt>
      <trkpt lat="46.21511" lon="6.66965"><ele>854.7</ele></trkpt>
      <trkpt lat="46.21354" lon="6.67037"><ele>855.5</ele></trkpt>
      <trkpt lat="46.20413" lon="6.67656"><ele>877.5</ele></trkpt>
      <trkpt lat="46.20386" lon="6.67692"><ele>878.3</ele></trkpt>
      <trkpt lat="46.20371" lon="6.67791"><ele>879.8</ele></trkpt>
      <trkpt lat="46.20298" lon="6.67901"><ele>882.1</ele></trkpt>
      <trkpt lat="46.20245" lon="6.68282"><ele>886.9</ele></trkpt>
      <trkpt lat="46.20192" lon="6.68316"><ele>887.4</ele></trkpt>
      <trkpt lat="46.20179" lon="6.68368"><ele>887.6</ele></trkpt>
      <trkpt lat="46.20134" lon="6.68424"><ele>887.9</ele></trkpt>
      <trkpt lat="46.20024" lon="6.68942"><ele>896.0</ele></trkpt>
      <trkpt lat="46.20005" lon="6.68956"><ele>896.9</ele></trkpt>
      <trkpt lat="46.19955" lon="6.68937"><ele>899.1</ele></trkpt>
      <trkpt lat="46.199" lon="6.69002"><ele>902.3</ele></trkpt>
      <trkpt lat="46.19697" lon="6.69426"><ele>932.7</ele></trkpt>
      <trkpt lat="46.19522" lon="6.69558"><ele>941.8</ele></trkpt>
      <trkpt lat="46.19056" lon="6.70057"><ele>960.4</ele></trkpt>
      <trkpt lat="46.18904" lon="6.70121"><ele>964.8</ele></trkpt>
      <trkpt lat="46.18669" lon="6.70375"><ele>960.9</ele></trkpt>
      <trkpt lat="46.18396" lon="6.70612"><ele>960.5</ele></trkpt>
      <trkpt lat="46.18293" lon="6.70662"><ele>958.6</ele></trkpt>
      <trkpt lat="46.18038" lon="6.70851"><ele>959.5</ele></trkpt>
      <trkpt lat="46.17895" lon="6.70873"><ele>962.7</ele></trkpt>
      <trkpt lat="46.17814" lon="6.70912"><ele>964.9</ele></trkpt>
      <trkpt lat="46.17717" lon="6.70894"><ele>968.9</ele></trkpt>
      <trkpt lat="46.17633" lon="6.71013"><ele>974.6</ele></trkpt>
      <trkpt lat="46.17588" lon="6.71027"><ele>978.0</ele></trkpt>
      <trkpt lat="46.17571" lon="6.70923"><ele>983.5</ele></trkpt>
      <trkpt lat="46.17696" lon="6.7077"><ele>993.6</ele></trkpt>
      <trkpt lat="46.17527" lon="6.70825"><ele>1009.8</ele></trkpt>
      <trkpt lat="46.17381" lon="6.70843"><ele>1027.0</ele></trkpt>
      <trkpt lat="46.17365" lon="6.70796"><ele>1032.0</ele></trkpt>
      <trkpt lat="46.17391" lon="6.70708"><ele>1040.4</ele></trkpt>
      <trkpt lat="46.1737" lon="6.70681"><ele>1044.1</ele></trkpt>
      <trkpt lat="46.17293" lon="6.70721"><ele>1054.5</ele></trkpt>
      <trkpt lat="46.1706" lon="6.70755"><ele>1084.7</ele></trkpt>
      <trkpt lat="46.16911" lon="6.70721"><ele>1107.5</ele></trkpt>
      <trkpt lat="46.16784" lon="6.70731"><ele>1122.2</ele></trkpt>
      <trkpt lat="46.16703" lon="6.70815"><ele>1131.5</ele></trkpt>
      <trkpt lat="46.16678" lon="6.70895"><ele>1135.0</ele></trkpt>
      <trkpt lat="46.1653" lon="6.70937"><ele>1146.5</ele></trkpt>
      <trkpt lat="46.16497" lon="6.70868"><ele>1153.0</ele></trkpt>
      <trkpt lat="46.16505" lon="6.70785"><ele>1159.4</ele></trkpt>
      <trkpt lat="46.16525" lon="6.70744"><ele>1164.5</ele></trkpt>
      <trkpt lat="46.16632" lon="6.70655"><ele>1182.7</ele></trkpt>
      <trkpt lat="46.16633" lon="6.70603"><ele>1187.8</ele></trkpt>
      <trkpt lat="46.16515" lon="6.706"><ele>1201.1</ele></trkpt>
      <trkpt lat="46.164" lon="6.70432"><ele>1215.1</ele></trkpt>
      <trkpt lat="46.16325" lon="6.70376"><ele>1220.5</ele></trkpt>
      <trkpt lat="46.16286" lon="6.70297"><ele>1223.2</ele></trkpt>
      <trkpt lat="46.16212" lon="6.70286"><ele>1226.0</ele></trkpt>
      <trkpt lat="46.15895" lon="6.70122"><ele>1243.5</ele></trkpt>
      <trkpt lat="46.15879" lon="6.70157"><ele>1245.1</ele></trkpt>
      <trkpt lat="46.15946" lon="6.70266"><ele>1249.9</ele></trkpt>
      <trkpt lat="46.15935" lon="6.70314"><ele>1251.7</ele></trkpt>
      <trkpt lat="46.15826" lon="6.7025"><ele>1262.2</ele></trkpt>
      <trkpt lat="46.15641" lon="6.70237"><ele>1278.9</ele></trkpt>
      <trkpt lat="46.15634" lon="6.70261"><ele>1280.7</ele></trkpt>
      <trkpt lat="46.15703" lon="6.70345"><ele>1286.2</ele></trkpt>
      <trkpt lat="46.15539" lon="6.70299"><ele>1292.3</ele></trkpt>
      <trkpt lat="46.15426" lon="6.70368"><ele>1304.3</ele></trkpt>
      <trkpt lat="46.15357" lon="6.7036"><ele>1310.7</ele></trkpt>
      <trkpt lat="46.15216" lon="6.70479"><ele>1324.4</ele></trkpt>
      <trkpt lat="46.15319" lon="6.70481"><ele>1329.5</ele></trkpt>
      <trkpt lat="46.15152" lon="6.7056"><ele>1339.7</ele></trkpt>
      <trkpt lat="46.14998" lon="6.7053"><ele>1350.7</ele></trkpt>
      <trkpt lat="46.14937" lon="6.7049"><ele>1355.7</ele></trkpt>
      <trkpt lat="46.14757" lon="6.70525"><ele>1375.0</ele></trkpt>
      <trkpt lat="46.14715" lon="6.70456"><ele>1380.6</ele></trkpt>
      <trkpt lat="46.14685" lon="6.70521"><ele>1385.3</ele></trkpt>
      <trkpt lat="46.14653" lon="6.70446"><ele>1390.8</ele></trkpt>
      <trkpt lat="46.14366" lon="6.70515"><ele>1418.7</ele></trkpt>
      <trkpt lat="46.14287" lon="6.70609"><ele>1428.1</ele></trkpt>
      <trkpt lat="46.14164" lon="6.70668"><ele>1439.4</ele></trkpt>
      <trkpt lat="46.14019" lon="6.70826"><ele>1461.3</ele></trkpt>
      <trkpt lat="46.13964" lon="6.70918"><ele>1470.1</ele></trkpt>
      <trkpt lat="46.13878" lon="6.7096"><ele>1479.7</ele></trkpt>
      <trkpt lat="46.13816" lon="6.70911"><ele>1487.7</ele></trkpt>
      <trkpt lat="46.13744" lon="6.70923"><ele>1495.9</ele></trkpt>
      <trkpt lat="46.13696" lon="6.70897"><ele>1501.8</ele></trkpt>
      <trkpt lat="46.13623" lon="6.70748"><ele>1517.4</ele></trkpt>
      <trkpt lat="46.13594" lon="6.70646"><ele>1526.9</ele></trkpt>
      <trkpt lat="46.136" lon="6.70467"><ele>1542.8</ele></trkpt>
      <trkpt lat="46.13656" lon="6.70362"><ele>1550.5</ele></trkpt>
      <trkpt lat="46.13767" lon="6.70257"><ele>1561.7</ele></trkpt>
      <trkpt lat="46.13861" lon="6.70058"><ele>1579.8</ele></trkpt>
      <trkpt lat="46.13852" lon="6.69938"><ele>1589.4</ele></trkpt>
      <trkpt lat="46.1377" lon="6.70073"><ele>1603.7</ele></trkpt>
      <trkpt lat="46.1375" lon="6.70078"><ele>1606.4</ele></trkpt>
      <trkpt lat="46.13809" lon="6.69779"><ele>1630.0</ele></trkpt>
      <trkpt lat="46.13846" lon="6.69701"><ele>1636.6</ele></trkpt>
      <trkpt lat="46.13997" lon="6.6956"><ele>1645.0</ele></trkpt>
      <trkpt lat="46.13893" lon="6.69584"><ele>1644.0</ele></trkpt>
      <trkpt lat="46.13793" lon="6.69543"><ele>1640.6</ele></trkpt>
      <trkpt lat="46.13677" lon="6.69695"><ele>1630.5</ele></trkpt>
      <trkpt lat="46.13636" lon="6.69718"><ele>1627.7</ele></trkpt>
      <trkpt lat="46.13549" lon="6.69639"><ele>1620.9</ele></trkpt>
      <trkpt lat="46.1341" lon="6.69572"><ele>1614.6</ele></trkpt>
      <trkpt lat="46.13108" lon="6.69605"><ele>1618.8</ele></trkpt>
      <trkpt lat="46.13003" lon="6.697"><ele>1626.3</ele></trkpt>
      <trkpt lat="46.12927" lon="6.69824"><ele>1636.3</ele></trkpt>
      <trkpt lat="46.12857" lon="6.69842"><ele>1640.2</ele></trkpt>
      <trkpt lat="46.12769" lon="6.69808"><ele>1642.0</ele></trkpt>
      <trkpt lat="46.12739" lon="6.69819"><ele>1642.6</ele></trkpt>
      <trkpt lat="46.12707" lon="6.6993"><ele>1643.0</ele></trkpt>
      <trkpt lat="46.12707" lon="6.69997"><ele>1643.0</ele></trkpt>
      <trkpt lat="46.12759" lon="6.70121"><ele>1643.6</ele></trkpt>
      <trkpt lat="46.12745" lon="6.70282"><ele>1645.7</ele></trkpt>
      <trkpt lat="46.12882" lon="6.70498"><ele>1656.7</ele></trkpt>
      <trkpt lat="46.12986" lon="6.70613"><ele>1665.7</ele></trkpt>
      <trkpt lat="46.13041" lon="6.70741"><ele>1671.3</ele></trkpt>
      <trkpt lat="46.13036" lon="6.70783"><ele>1672.4</ele></trkpt>
      <trkpt lat="46.12975" lon="6.70877"><ele>1675.7</ele></trkpt>
      <trkpt lat="46.12955" lon="6.71044"><ele>1680.3</ele></trkpt>
      <trkpt lat="46.12962" lon="6.71291"><ele>1682.7</ele></trkpt>
      <trkpt lat="46.12934" lon="6.71338"><ele>1682.6</ele></trkpt>
      <trkpt lat="46.12884" lon="6.71336"><ele>1680.3</ele></trkpt>
      <trkpt lat="46.12837" lon="6.71198"><ele>1667.9</ele></trkpt>
      <trkpt lat="46.12733" lon="6.71106"><ele>1651.0</ele></trkpt>
      <trkpt lat="46.12568" lon="6.71111"><ele>1629.4</ele></trkpt>
      <trkpt lat="46.12523" lon="6.7109"><ele>1625.5</ele></trkpt>
      <trkpt lat="46.12419" lon="6.71114"><ele>1616.9</ele></trkpt>
      <trkpt lat="46.12129" lon="6.71078"><ele>1591.8</ele></trkpt>
      <trkpt lat="46.11865" lon="6.71169"><ele>1563.7</ele></trkpt>
      <trkpt lat="46.11779" lon="6.7122"><ele>1555.9</ele></trkpt>
      <trkpt lat="46.11705" lon="6.71199"><ele>1549.1</ele></trkpt>
      <trkpt lat="46.11577" lon="6.71221"><ele>1537.0</ele></trkpt>
      <trkpt lat="46.11459" lon="6.71111"><ele>1525.8</ele></trkpt>
      <trkpt lat="46.1137" lon="6.71077"><ele>1516.8</ele></trkpt>
      <trkpt lat="46.1132" lon="6.7098"><ele>1507.3</ele></trkpt>
      <trkpt lat="46.1126" lon="6.70738"><ele>1475.9</ele></trkpt>
      <trkpt lat="46.11129" lon="6.70673"><ele>1457.2</ele></trkpt>
      <trkpt lat="46.11271" lon="6.70632"><ele>1448.2</ele></trkpt>
      <trkpt lat="46.11378" lon="6.70701"><ele>1445.9</ele></trkpt>
      <trkpt lat="46.11398" lon="6.70699"><ele>1443.8</ele></trkpt>
      <trkpt lat="46.11393" lon="6.70677"><ele>1441.9</ele></trkpt>
      <trkpt lat="46.11322" lon="6.70569"><ele>1430.5</ele></trkpt>
      <trkpt lat="46.11237" lon="6.70504"><ele>1417.4</ele></trkpt>
      <trkpt lat="46.11183" lon="6.70386"><ele>1402.0</ele></trkpt>
      <trkpt lat="46.11006" lon="6.70306"><ele>1377.7</ele></trkpt>
      <trkpt lat="46.11002" lon="6.70267"><ele>1374.3</ele></trkpt>
      <trkpt lat="46.11048" lon="6.70265"><ele>1368.8</ele></trkpt>
      <trkpt lat="46.11047" lon="6.70235"><ele>1366.2</ele></trkpt>
      <trkpt lat="46.1092" lon="6.7015"><ele>1351.4</ele></trkpt>
      <trkpt lat="46.10969" lon="6.7034"><ele>1337.5</ele></trkpt>
      <trkpt lat="46.10983" lon="6.7063"><ele>1319.1</ele></trkpt>
      <trkpt lat="46.10962" lon="6.70744"><ele>1309.5</ele></trkpt>
      <trkpt lat="46.10892" lon="6.70945"><ele>1293.7</ele></trkpt>
      <trkpt lat="46.10895" lon="6.71184"><ele>1279.0</ele></trkpt>
      <trkpt lat="46.10854" lon="6.71305"><ele>1271.1</ele></trkpt>
      <trkpt lat="46.1084" lon="6.71289"><ele>1268.7</ele></trkpt>
      <trkpt lat="46.10852" lon="6.7109"><ele>1255.7</ele></trkpt>
      <trkpt lat="46.10803" lon="6.70979"><ele>1247.6</ele></trkpt>
      <trkpt lat="46.10663" lon="6.71382"><ele>1216.2</ele></trkpt>
      <trkpt lat="46.10651" lon="6.71373"><ele>1214.2</ele></trkpt>
      <trkpt lat="46.10656" lon="6.71277"><ele>1205.7</ele></trkpt>
      <trkpt lat="46.10619" lon="6.71187"><ele>1196.5</ele></trkpt>
      <trkpt lat="46.10621" lon="6.71104"><ele>1189.3</ele></trkpt>
      <trkpt lat="46.10594" lon="6.71079"><ele>1184.7</ele></trkpt>
      <trkpt lat="46.10553" lon="6.7114"><ele>1177.0</ele></trkpt>
      <trkpt lat="46.10495" lon="6.71422"><ele>1155.0</ele></trkpt>
      <trkpt lat="46.10484" lon="6.71426"><ele>1154.1</ele></trkpt>
      <trkpt lat="46.1047" lon="6.71335"><ele>1148.6</ele></trkpt>
      <trkpt lat="46.1044" lon="6.71481"><ele>1139.6</ele></trkpt>
      <trkpt lat="46.10354" lon="6.71463"><ele>1132.0</ele></trkpt>
      <trkpt lat="46.10285" lon="6.71415"><ele>1125.4</ele></trkpt>
      <trkpt lat="46.10241" lon="6.71333"><ele>1119.1</ele></trkpt>
      <trkpt lat="46.10332" lon="6.71119"><ele>1105.4</ele></trkpt>
      <trkpt lat="46.10357" lon="6.71024"><ele>1100.7</ele></trkpt>
      <trkpt lat="46.10356" lon="6.70932"><ele>1096.1</ele></trkpt>
      <trkpt lat="46.10428" lon="6.70762"><ele>1085.8</ele></trkpt>
      <trkpt lat="46.10413" lon="6.70709"><ele>1081.6</ele></trkpt>
      <trkpt lat="46.10351" lon="6.70635"><ele>1073.2</ele></trkpt>
      <trkpt lat="46.10433" lon="6.70561"><ele>1063.9</ele></trkpt>
      <trkpt lat="46.10434" lon="6.70539"><ele>1062.6</ele></trkpt>
      <trkpt lat="46.10366" lon="6.70559"><ele>1057.2</ele></trkpt>
      <trkpt lat="46.10272" lon="6.70667"><ele>1049.0</ele></trkpt>
      <trkpt lat="46.10257" lon="6.70659"><ele>1047.9</ele></trkpt>
      <trkpt lat="46.10312" lon="6.70589"><ele>1043.3</ele></trkpt>
      <trkpt lat="46.10362" lon="6.70463"><ele>1037.5</ele></trkpt>
      <trkpt lat="46.10386" lon="6.70238"><ele>1026.7</ele></trkpt>
      <trkpt lat="46.10358" lon="6.7021"><ele>1023.6</ele></trkpt>
      <trkpt lat="46.10316" lon="6.70242"><ele>1019.7</ele></trkpt>
      <trkpt lat="46.10178" lon="6.70262"><ele>1007.2</ele></trkpt>
      <trkpt lat="46.10133" lon="6.70292"><ele>1002.6</ele></trkpt>
      <trkpt lat="46.1007" lon="6.7038"><ele>995.3</ele></trkpt>
      <trkpt lat="46.09997" lon="6.70574"><ele>984.3</ele></trkpt>
      <trkpt lat="46.09876" lon="6.70744"><ele>974.0</ele></trkpt>
      <trkpt lat="46.09798" lon="6.70657"><ele>963.9</ele></trkpt>
      <trkpt lat="46.09737" lon="6.70638"><ele>957.7</ele></trkpt>
      <trkpt lat="46.09709" lon="6.70655"><ele>954.6</ele></trkpt>
      <trkpt lat="46.09683" lon="6.70703"><ele>950.1</ele></trkpt>
      <trkpt lat="46.09666" lon="6.70998"><ele>931.3</ele></trkpt>
      <trkpt lat="46.09649" lon="6.71022"><ele>929.3</ele></trkpt>
      <trkpt lat="46.09618" lon="6.70999"><ele>926.0</ele></trkpt>
      <trkpt lat="46.096" lon="6.70878"><ele>917.5</ele></trkpt>
      <trkpt lat="46.09555" lon="6.70753"><ele>908.0</ele></trkpt>
      <trkpt lat="46.09548" lon="6.7066"><ele>901.9</ele></trkpt>
      <trkpt lat="46.09528" lon="6.70677"><ele>899.4</ele></trkpt>
      <trkpt lat="46.09507" lon="6.70847"><ele>888.7</ele></trkpt>
      <trkpt lat="46.09464" lon="6.71004"><ele>878.4</ele></trkpt>
      <trkpt lat="46.09364" lon="6.7114"><ele>865.4</ele></trkpt>
      <trkpt lat="46.0927" lon="6.71117"><ele>856.3</ele></trkpt>
      <trkpt lat="46.09235" lon="6.71083"><ele>852.1</ele></trkpt>
      <trkpt lat="46.09216" lon="6.71028"><ele>847.8</ele></trkpt>
      <trkpt lat="46.09223" lon="6.70902"><ele>839.4</ele></trkpt>
      <trkpt lat="46.0921" lon="6.70877"><ele>837.6</ele></trkpt>
      <trkpt lat="46.09186" lon="6.7088"><ele>835.6</ele></trkpt>
      <trkpt lat="46.09135" lon="6.70955"><ele>829.5</ele></trkpt>
      <trkpt lat="46.09117" lon="6.71065"><ele>824.5</ele></trkpt>
      <trkpt lat="46.09108" lon="6.71148"><ele>821.3</ele></trkpt>
      <trkpt lat="46.09139" lon="6.71277"><ele>814.9</ele></trkpt>
      <trkpt lat="46.09134" lon="6.71318"><ele>812.2</ele></trkpt>
      <trkpt lat="46.09018" lon="6.71419"><ele>798.9</ele></trkpt>
      <trkpt lat="46.0898" lon="6.71548"><ele>784.8</ele></trkpt>
      <trkpt lat="46.08871" lon="6.71707"><ele>762.7</ele></trkpt>
      <trkpt lat="46.08805" lon="6.71981"><ele>738.8</ele></trkpt>
      <trkpt lat="46.08731" lon="6.72127"><ele>726.6</ele></trkpt>
      <trkpt lat="46.08624" lon="6.72242"><ele>714.5</ele></trkpt>
      <trkpt lat="46.08526" lon="6.72273"><ele>707.9</ele></trkpt>
      <trkpt lat="46.0841" lon="6.72459"><ele>701.0</ele></trkpt>
      <trkpt lat="46.08443" lon="6.72392"><ele>699.7</ele></trkpt>
      <trkpt lat="46.08429" lon="6.72387"><ele>699.4</ele></trkpt>
      <trkpt lat="46.08435" lon="6.72189"><ele>696.4</ele></trkpt>
      <trkpt lat="46.0854" lon="6.71733"><ele>695.1</ele></trkpt>
      <trkpt lat="46.08535" lon="6.7168"><ele>695.3</ele></trkpt>
      <trkpt lat="46.08461" lon="6.71505"><ele>693.8</ele></trkpt>
      <trkpt lat="46.08444" lon="6.7129"><ele>690.9</ele></trkpt>
      <trkpt lat="46.08453" lon="6.70972"><ele>685.6</ele></trkpt>
      <trkpt lat="46.08771" lon="6.6913"><ele>672.9</ele></trkpt>
      <trkpt lat="46.0884" lon="6.68866"><ele>673.3</ele></trkpt>
      <trkpt lat="46.08939" lon="6.67894"><ele>666.4</ele></trkpt>
      <trkpt lat="46.09159" lon="6.67203"><ele>658.9</ele></trkpt>
      <trkpt lat="46.09345" lon="6.66729"><ele>657.7</ele></trkpt>
      <trkpt lat="46.09505" lon="6.66435"><ele>657.1</ele></trkpt>
      <trkpt lat="46.09782" lon="6.65477"><ele>648.1</ele></trkpt>
      <trkpt lat="46.09869" lon="6.65156"><ele>646.5</ele></trkpt>
      <trkpt lat="46.10126" lon="6.63681"><ele>640.1</ele></trkpt>
      <trkpt lat="46.10158" lon="6.63306"><ele>639.2</ele></trkpt>
      <trkpt lat="46.10425" lon="6.62589"><ele>636.2</ele></trkpt>
      <trkpt lat="46.10517" lon="6.62287"><ele>636.3</ele></trkpt>
      <trkpt lat="46.1056" lon="6.62033"><ele>635.1</ele></trkpt>
      <trkpt lat="46.10558" lon="6.61639"><ele>633.2</ele></trkpt>
      <trkpt lat="46.10599" lon="6.61349"><ele>630.1</ele></trkpt>
      <trkpt lat="46.10614" lon="6.60667"><ele>627.5</ele></trkpt>
      <trkpt lat="46.10654" lon="6.604"><ele>627.5</ele></trkpt>
      <trkpt lat="46.10666" lon="6.60024"><ele>629.4</ele></trkpt>
      <trkpt lat="46.10722" lon="6.59374"><ele>640.2</ele></trkpt>
      <trkpt lat="46.10794" lon="6.59114"><ele>642.2</ele></trkpt>
      <trkpt lat="46.09754" lon="6.58992"><ele>622.7</ele></trkpt>
    </trkseg>
  </trk>
</gpx>
