<?xml version="1.0" encoding="UTF-8"?>
<gpx version="1.1" creator="tools/extract_original.py"
     xmlns="http://www.topografix.com/GPX/1/1">
  <metadata><name>Tag 10: Camping 2 Glaciers → Camping de l'Izoard</name></metadata>
  <wpt lat="44.968132" lon="6.527235"><name>Nice stretch of road with bike path on either side</name></wpt>
  <wpt lat="44.925706" lon="6.60759"><name>Saint-Chaffrey</name></wpt>
  <wpt lat="44.894763" lon="6.637114"><name>Ascent to Col d'Izoard</name></wpt>
  <wpt lat="44.892993" lon="6.642752"><name>Briancon Ascent to the Col d'Izoard</name></wpt>
  <wpt lat="44.855267" lon="6.727155"><name>Auberge L'Arpelin</name></wpt>
  <wpt lat="44.81964" lon="6.735306"><name>Col d'Izoard Monument</name></wpt>
  <wpt lat="44.807695" lon="6.736376"><name>Col de L'Izoard</name></wpt>
  <wpt lat="44.799458" lon="6.716651"><name>Camping de l'Izoard Le Planet</name></wpt>
  <trk>
    <name>Tag 10: Camping 2 Glaciers → Camping de l'Izoard</name>
    <trkseg>
      <trkpt lat="44.9806" lon="6.49537"><ele>1486.8</ele></trkpt>
      <trkpt lat="44.98055" lon="6.49521"><ele>1486.8</ele></trkpt>
      <trkpt lat="44.98199" lon="6.49402"><ele>1488.4</ele></trkpt>
      <trkpt lat="44.98232" lon="6.49345"><ele>1489.3</ele></trkpt>
      <trkpt lat="44.98265" lon="6.49353"><ele>1489.9</ele></trkpt>
      <trkpt lat="44.98132" lon="6.49864"><ele>1504.7</ele></trkpt>
      <trkpt lat="44.98088" lon="6.49922"><ele>1505.1</ele></trkpt>
      <trkpt lat="44.98045" lon="6.4991"><ele>1505.3</ele></trkpt>
      <trkpt lat="44.97991" lon="6.49931"><ele>1505.5</ele></trkpt>
      <trkpt lat="44.97905" lon="6.50035"><ele>1502.9</ele></trkpt>
      <trkpt lat="44.97802" lon="6.50351"><ele>1495.9</ele></trkpt>
      <trkpt lat="44.97599" lon="6.50804"><ele>1487.8</ele></trkpt>
      <trkpt lat="44.97574" lon="6.51175"><ele>1479.4</ele></trkpt>
      <trkpt lat="44.97623" lon="6.51379"><ele>1471.8</ele></trkpt>
      <trkpt lat="44.97553" lon="6.51607"><ele>1463.3</ele></trkpt>
      <trkpt lat="44.97505" lon="6.51672"><ele>1460.7</ele></trkpt>
      <trkpt lat="44.97391" lon="6.51732"><ele>1456.2</ele></trkpt>
      <trkpt lat="44.97292" lon="6.5186"><ele>1451.5</ele></trkpt>
      <trkpt lat="44.97252" lon="6.51873"><ele>1450.3</ele></trkpt>
      <trkpt lat="44.97091" lon="6.52273"><ele>1442.8</ele></trkpt>
      <trkpt lat="44.96928" lon="6.52366"><ele>1441.1</ele></trkpt>
      <trkpt lat="44.96883" lon="6.52424"><ele>1440.6</ele></trkpt>
      <trkpt lat="44.9678" lon="6.52818"><ele>1434.4</ele></trkpt>
      <trkpt lat="44.96781" lon="6.53022"><ele>1431.1</ele></trkpt>
      <trkpt lat="44.9676" lon="6.53115"><ele>1429.7</ele></trkpt>
      <trkpt lat="44.96629" lon="6.53283"><ele>1425.6</ele></trkpt>
      <trkpt lat="44.96448" lon="6.53586"><ele>1419.5</ele></trkpt>
      <trkpt lat="44.96141" lon="6.53842"><ele>1411.6</ele></trkpt>
      <trkpt lat="44.95859" lon="6.54162"><ele>1405.6</ele></trkpt>
      <trkpt lat="44.95811" lon="6.5426"><ele>1404.4</ele></trkpt>
      <trkpt lat="44.95757" lon="6.54551"><ele>1401.8</ele></trkpt>
      <trkpt lat="44.95595" lon="6.54826"><ele>1398.2</ele></trkpt>
      <trkpt lat="44.95419" lon="6.54987"><ele>1396.1</ele></trkpt>
      <trkpt lat="44.94823" lon="6.55831"><ele>1386.4</ele></trkpt>
      <trkpt lat="44.94672" lon="6.5594"><ele>1384.3</ele></trkpt>
      <trkpt lat="44.94541" lon="6.56069"><ele>1383.6</ele></trkpt>
      <trkpt lat="44.94471" lon="6.56312"><ele>1384.4</ele></trkpt>
      <trkpt lat="44.94286" lon="6.56769"><ele>1378.4</ele></trkpt>
      <trkpt lat="44.94228" lon="6.56863"><ele>1376.5</ele></trkpt>
      <trkpt lat="44.94044" lon="6.57067"><ele>1375.2</ele></trkpt>
      <trkpt lat="44.93963" lon="6.57235"><ele>1374.8</ele></trkpt>
      <trkpt lat="44.93688" lon="6.58237"><ele>1356.6</ele></trkpt>
      <trkpt lat="44.9362" lon="6.58406"><ele>1357.3</ele></trkpt>
      <trkpt lat="44.93429" lon="6.58748"><ele>1363.8</ele></trkpt>
      <trkpt lat="44.93045" lon="6.59337"><ele>1355.6</ele></trkpt>
      <trkpt lat="44.93066" lon="6.59374"><ele>1355.1</ele></trkpt>
      <trkpt lat="44.93024" lon="6.59657"><ele>1360.6</ele></trkpt>
      <trkpt lat="44.92893" lon="6.59929"><ele>1361.4</ele></trkpt>
      <trkpt lat="44.92794" lon="6.60297"><ele>1353.7</ele></trkpt>
      <trkpt lat="44.92769" lon="6.6059"><ele>1351.7</ele></trkpt>
      <trkpt lat="44.92732" lon="6.60648"><ele>1351.4</ele></trkpt>
      <trkpt lat="44.9252" lon="6.60793"><ele>1347.3</ele></trkpt>
      <trkpt lat="44.92336" lon="6.61063"><ele>1335.7</ele></trkpt>
      <trkpt lat="44.92274" lon="6.61203"><ele>1330.8</ele></trkpt>
      <trkpt lat="44.92231" lon="6.61208"><ele>1328.8</ele></trkpt>
      <trkpt lat="44.92236" lon="6.614"><ele>1326.9</ele></trkpt>
      <trkpt lat="44.92188" lon="6.61536"><ele>1326.6</ele></trkpt>
      <trkpt lat="44.91894" lon="6.61934"><ele>1331.9</ele></trkpt>
      <trkpt lat="44.91739" lon="6.6219"><ele>1325.8</ele></trkpt>
      <trkpt lat="44.91661" lon="6.62238"><ele>1323.7</ele></trkpt>
      <trkpt lat="44.91357" lon="6.62336"><ele>1311.2</ele></trkpt>
      <trkpt lat="44.91285" lon="6.62398"><ele>1304.4</ele></trkpt>
      <trkpt lat="44.91119" lon="6.62424"><ele>1288.3</ele></trkpt>
      <trkpt lat="44.90986" lon="6.626"><ele>1277.9</ele></trkpt>
      <trkpt lat="44.90772" lon="6.62754"><ele>1271.8</ele></trkpt>
      <trkpt lat="44.90658" lon="6.6277"><ele>1263.3</ele></trkpt>
      <trkpt lat="44.90555" lon="6.62821"><ele>1255.4</ele></trkpt>
      <trkpt lat="44.9047" lon="6.62798"><ele>1253.3</ele></trkpt>
      <trkpt lat="44.90405" lon="6.62811"><ele>1251.8</ele></trkpt>
      <trkpt lat="44.90352" lon="6.62878"><ele>1249.9</ele></trkpt>
      <trkpt lat="44.90335" lon="6.63023"><ele>1247.1</ele></trkpt>
      <trkpt lat="44.90277" lon="6.63126"><ele>1240.5</ele></trkpt>
      <trkpt lat="44.90183" lon="6.63162"><ele>1233.7</ele></trkpt>
      <trkpt lat="44.89882" lon="6.63387"><ele>1220.4</ele></trkpt>
      <trkpt lat="44.89656" lon="6.63448"><ele>1216.0</ele></trkpt>
      <trkpt lat="44.89609" lon="6.63631"><ele>1214.6</ele></trkpt>
      <trkpt lat="44.89515" lon="6.63683"><ele>1215.8</ele></trkpt>
      <trkpt lat="44.89497" lon="6.63672"><ele>1216.1</ele></trkpt>
      <trkpt lat="44.89489" lon="6.63701"><ele>1216.5</ele></trkpt>
      <trkpt lat="44.89409" lon="6.6376"><ele>1220.6</ele></trkpt>
      <trkpt lat="44.89156" lon="6.63805"><ele>1237.3</ele></trkpt>
      <trkpt lat="44.89045" lon="6.63885"><ele>1246.0</ele></trkpt>
      <trkpt lat="44.88878" lon="6.63934"><ele>1256.8</ele></trkpt>
      <trkpt lat="44.88885" lon="6.63992"><ele>1259.4</ele></trkpt>
      <trkpt lat="44.88945" lon="6.6404"><ele>1263.7</ele></trkpt>
      <trkpt lat="44.89017" lon="6.63982"><ele>1270.1</ele></trkpt>
      <trkpt lat="44.89168" lon="6.64069"><ele>1281.5</ele></trkpt>
      <trkpt lat="44.89303" lon="6.64025"><ele>1291.8</ele></trkpt>
      <trkpt lat="44.89325" lon="6.64189"><ele>1302.0</ele></trkpt>
      <trkpt lat="44.89297" lon="6.643"><ele>1308.8</ele></trkpt>
      <trkpt lat="44.89296" lon="6.64438"><ele>1316.7</ele></trkpt>
      <trkpt lat="44.89246" lon="6.64586"><ele>1325.6</ele></trkpt>
      <trkpt lat="44.89203" lon="6.64614"><ele>1329.1</ele></trkpt>
      <trkpt lat="44.89177" lon="6.64668"><ele>1332.3</ele></trkpt>
      <trkpt lat="44.89065" lon="6.64698"><ele>1339.5</ele></trkpt>
      <trkpt lat="44.89011" lon="6.64769"><ele>1343.4</ele></trkpt>
      <trkpt lat="44.88792" lon="6.64777"><ele>1352.6</ele></trkpt>
      <trkpt lat="44.88666" lon="6.64824"><ele>1359.1</ele></trkpt>
      <trkpt lat="44.88654" lon="6.64938"><ele>1365.6</ele></trkpt>
      <trkpt lat="44.88541" lon="6.65128"><ele>1378.5</ele></trkpt>
      <trkpt lat="44.88517" lon="6.6524"><ele>1383.8</ele></trkpt>
      <trkpt lat="44.88525" lon="6.65325"><ele>1386.8</ele></trkpt>
      <trkpt lat="44.88463" lon="6.65436"><ele>1391.6</ele></trkpt>
      <trkpt lat="44.88407" lon="6.65738"><ele>1399.8</ele></trkpt>
      <trkpt lat="44.88427" lon="6.6593"><ele>1406.0</ele></trkpt>
      <trkpt lat="44.88349" lon="6.65944"><ele>1406.2</ele></trkpt>
      <trkpt lat="44.8828" lon="6.66028"><ele>1406.5</ele></trkpt>
      <trkpt lat="44.88269" lon="6.66148"><ele>1408.2</ele></trkpt>
      <trkpt lat="44.88221" lon="6.66263"><ele>1410.3</ele></trkpt>
      <trkpt lat="44.88235" lon="6.66354"><ele>1413.5</ele></trkpt>
      <trkpt lat="44.88141" lon="6.66634"><ele>1421.0</ele></trkpt>
      <trkpt lat="44.8814" lon="6.66718"><ele>1422.3</ele></trkpt>
      <trkpt lat="44.88198" lon="6.66939"><ele>1423.4</ele></trkpt>
      <trkpt lat="44.88037" lon="6.66998"><ele>1412.4</ele></trkpt>
      <trkpt lat="44.88027" lon="6.67117"><ele>1410.2</ele></trkpt>
      <trkpt lat="44.87994" lon="6.67161"><ele>1409.8</ele></trkpt>
      <trkpt lat="44.88002" lon="6.67312"><ele>1409.7</ele></trkpt>
      <trkpt lat="44.87986" lon="6.6744"><ele>1411.3</ele></trkpt>
      <trkpt lat="44.87954" lon="6.67514"><ele>1412.6</ele></trkpt>
      <trkpt lat="44.87886" lon="6.67916"><ele>1424.6</ele></trkpt>
      <trkpt lat="44.87719" lon="6.68297"><ele>1438.8</ele></trkpt>
      <trkpt lat="44.87712" lon="6.6871"><ele>1457.9</ele></trkpt>
      <trkpt lat="44.87688" lon="6.68863"><ele>1466.3</ele></trkpt>
      <trkpt lat="44.87644" lon="6.68975"><ele>1473.3</ele></trkpt>
      <trkpt lat="44.87452" lon="6.69281"><ele>1494.5</ele></trkpt>
      <trkpt lat="44.87297" lon="6.69447"><ele>1503.2</ele></trkpt>
      <trkpt lat="44.87272" lon="6.69751"><ele>1514.8</ele></trkpt>
      <trkpt lat="44.87209" lon="6.7008"><ele>1525.7</ele></trkpt>
      <trkpt lat="44.87162" lon="6.70155"><ele>1527.9</ele></trkpt>
      <trkpt lat="44.87024" lon="6.70206"><ele>1528.8</ele></trkpt>
      <trkpt lat="44.86943" lon="6.70281"><ele>1531.6</ele></trkpt>
      <trkpt lat="44.86789" lon="6.70904"><ele>1557.1</ele></trkpt>
      <trkpt lat="44.8674" lon="6.70994"><ele>1561.0</ele></trkpt>
      <trkpt lat="44.86805" lon="6.71348"><ele>1575.1</ele></trkpt>
      <trkpt lat="44.86765" lon="6.71548"><ele>1581.7</ele></trkpt>
      <trkpt lat="44.86775" lon="6.7168"><ele>1586.2</ele></trkpt>
      <trkpt lat="44.86863" lon="6.71967"><ele>1600.0</ele></trkpt>
      <trkpt lat="44.86823" lon="6.72045"><ele>1604.4</ele></trkpt>
      <trkpt lat="44.8683" lon="6.72192"><ele>1611.7</ele></trkpt>
      <trkpt lat="44.8687" lon="6.72308"><ele>1618.4</ele></trkpt>
      <trkpt lat="44.87005" lon="6.72546"><ele>1632.3</ele></trkpt>
      <trkpt lat="44.87014" lon="6.72575"><ele>1633.9</ele></trkpt>
      <trkpt lat="44.86998" lon="6.72614"><ele>1636.1</ele></trkpt>
      <trkpt lat="44.86972" lon="6.7262"><ele>1638.0</ele></trkpt>
      <trkpt lat="44.86832" lon="6.72486"><ele>1649.4</ele></trkpt>
      <trkpt lat="44.86735" lon="6.72467"><ele>1655.7</ele></trkpt>
      <trkpt lat="44.86669" lon="6.7248"><ele>1660.5</ele></trkpt>
      <trkpt lat="44.86613" lon="6.72449"><ele>1664.8</ele></trkpt>
      <trkpt lat="44.86403" lon="6.72427"><ele>1682.2</ele></trkpt>
      <trkpt lat="44.86269" lon="6.7249"><ele>1694.4</ele></trkpt>
      <trkpt lat="44.85894" lon="6.72501"><ele>1724.2</ele></trkpt>
      <trkpt lat="44.85523" lon="6.72716"><ele>1747.2</ele></trkpt>
      <trkpt lat="44.85458" lon="6.72695"><ele>1749.8</ele></trkpt>
      <trkpt lat="44.85396" lon="6.72574"><ele>1753.8</ele></trkpt>
      <trkpt lat="44.85278" lon="6.7245"><ele>1766.8</ele></trkpt>
      <trkpt lat="44.85133" lon="6.72464"><ele>1781.4</ele></trkpt>
      <trkpt lat="44.85028" lon="6.72506"><ele>1792.2</ele></trkpt>
      <trkpt lat="44.84958" lon="6.7247"><ele>1799.1</ele></trkpt>
      <trkpt lat="44.84782" lon="6.72472"><ele>1816.5</ele></trkpt>
      <trkpt lat="44.84671" lon="6.72555"><ele>1827.8</ele></trkpt>
      <trkpt lat="44.84615" lon="6.72571"><ele>1832.2</ele></trkpt>
      <trkpt lat="44.84421" lon="6.72441"><ele>1848.8</ele></trkpt>
      <trkpt lat="44.84424" lon="6.72414"><ele>1850.7</ele></trkpt>
      <trkpt lat="44.8453" lon="6.72449"><ele>1857.4</ele></trkpt>
      <trkpt lat="44.84542" lon="6.72431"><ele>1858.6</ele></trkpt>
      <trkpt lat="44.84419" lon="6.72357"><ele>1869.5</ele></trkpt>
      <trkpt lat="44.8422" lon="6.7237"><ele>1889.9</ele></trkpt>
      <trkpt lat="44.83916" lon="6.72338"><ele>1926.1</ele></trkpt>
      <trkpt lat="44.83842" lon="6.72353"><ele>1933.6</ele></trkpt>
      <trkpt lat="44.83646" lon="6.72283"><ele>1952.5</ele></trkpt>
      <trkpt lat="44.83648" lon="6.72261"><ele>1954.3</ele></trkpt>
      <trkpt lat="44.83763" lon="6.72243"><ele>1963.4</ele></trkpt>
      <trkpt lat="44.83605" lon="6.72178"><ele>1981.6</ele></trkpt>
      <trkpt lat="44.83539" lon="6.72209"><ele>1991.1</ele></trkpt>
      <trkpt lat="44.8351" lon="6.7232"><ele>2002.1</ele></trkpt>
      <trkpt lat="44.83496" lon="6.72324"><ele>2004.1</ele></trkpt>
      <trkpt lat="44.8351" lon="6.72154"><ele>2017.5</ele></trkpt>
      <trkpt lat="44.83499" lon="6.72141"><ele>2018.4</ele></trkpt>
      <trkpt lat="44.83459" lon="6.723"><ele>2025.3</ele></trkpt>
      <trkpt lat="44.83409" lon="6.72361"><ele>2031.5</ele></trkpt>
      <trkpt lat="44.83394" lon="6.72347"><ele>2033.5</ele></trkpt>
      <trkpt lat="44.83426" lon="6.7226"><ele>2040.3</ele></trkpt>
      <trkpt lat="44.83418" lon="6.72241"><ele>2042.0</ele></trkpt>
      <trkpt lat="44.8329" lon="6.7235"><ele>2058.3</ele></trkpt>
      <trkpt lat="44.83302" lon="6.72298"><ele>2062.2</ele></trkpt>
      <trkpt lat="44.83375" lon="6.72215"><ele>2070.2</ele></trkpt>
      <trkpt lat="44.83366" lon="6.72196"><ele>2071.9</ele></trkpt>
      <trkpt lat="44.83332" lon="6.72237"><ele>2075.8</ele></trkpt>
      <trkpt lat="44.832" lon="6.72302"><ele>2088.1</ele></trkpt>
      <trkpt lat="44.83219" lon="6.72423"><ele>2095.6</ele></trkpt>
      <trkpt lat="44.8318" lon="6.72346"><ele>2100.9</ele></trkpt>
      <trkpt lat="44.8319" lon="6.72404"><ele>2104.2</ele></trkpt>
      <trkpt lat="44.83174" lon="6.72431"><ele>2106.3</ele></trkpt>
      <trkpt lat="44.83078" lon="6.72416"><ele>2115.0</ele></trkpt>
      <trkpt lat="44.83022" lon="6.72458"><ele>2120.7</ele></trkpt>
      <trkpt lat="44.83015" lon="6.72439"><ele>2122.2</ele></trkpt>
      <trkpt lat="44.83053" lon="6.72361"><ele>2128.0</ele></trkpt>
      <trkpt lat="44.83016" lon="6.72328"><ele>2132.1</ele></trkpt>
      <trkpt lat="44.82729" lon="6.72542"><ele>2162.2</ele></trkpt>
      <trkpt lat="44.8271" lon="6.72578"><ele>2164.7</ele></trkpt>
      <trkpt lat="44.82721" lon="6.72617"><ele>2166.9</ele></trkpt>
      <trkpt lat="44.82817" lon="6.72654"><ele>2172.8</ele></trkpt>
      <trkpt lat="44.82855" lon="6.72724"><ele>2176.4</ele></trkpt>
      <trkpt lat="44.82851" lon="6.72772"><ele>2178.4</ele></trkpt>
      <trkpt lat="44.82839" lon="6.72785"><ele>2179.3</ele></trkpt>
      <trkpt lat="44.82808" lon="6.7275"><ele>2181.7</ele></trkpt>
      <trkpt lat="44.82721" lon="6.72738"><ele>2186.8</ele></trkpt>
      <trkpt lat="44.82623" lon="6.72818"><ele>2196.2</ele></trkpt>
      <trkpt lat="44.82625" lon="6.72837"><ele>2197.7</ele></trkpt>
      <trkpt lat="44.82661" lon="6.72837"><ele>2201.0</ele></trkpt>
      <trkpt lat="44.82716" lon="6.72895"><ele>2207.6</ele></trkpt>
      <trkpt lat="44.82722" lon="6.72939"><ele>2211.1</ele></trkpt>
      <trkpt lat="44.82503" lon="6.73128"><ele>2238.1</ele></trkpt>
      <trkpt lat="44.82484" lon="6.73165"><ele>2241.5</ele></trkpt>
      <trkpt lat="44.8237" lon="6.73239"><ele>2253.8</ele></trkpt>
      <trkpt lat="44.82346" lon="6.73223"><ele>2256.6</ele></trkpt>
      <trkpt lat="44.82344" lon="6.73177"><ele>2259.9</ele></trkpt>
      <trkpt lat="44.8228" lon="6.73203"><ele>2266.4</ele></trkpt>
      <trkpt lat="44.82249" lon="6.73121"><ele>2272.8</ele></trkpt>
      <trkpt lat="44.82223" lon="6.73256"><ele>2281.1</ele></trkpt>
      <trkpt lat="44.82235" lon="6.73298"><ele>2283.6</ele></trkpt>
      <trkpt lat="44.82283" lon="6.7333"><ele>2287.8</ele></trkpt>
      <trkpt lat="44.82289" lon="6.7336"><ele>2289.7</ele></trkpt>
      <trkpt lat="44.82267" lon="6.73383"><ele>2292.8</ele></trkpt>
      <trkpt lat="44.82225" lon="6.73379"><ele>2297.6</ele></trkpt>
      <trkpt lat="44.82199" lon="6.73299"><ele>2305.1</ele></trkpt>
      <trkpt lat="44.82182" lon="6.73299"><ele>2307.3</ele></trkpt>
      <trkpt lat="44.8218" lon="6.73461"><ele>2315.2</ele></trkpt>
      <trkpt lat="44.82259" lon="6.7358"><ele>2322.6</ele></trkpt>
      <trkpt lat="44.82252" lon="6.73613"><ele>2325.0</ele></trkpt>
      <trkpt lat="44.82097" lon="6.73547"><ele>2338.9</ele></trkpt>
      <trkpt lat="44.82086" lon="6.73509"><ele>2341.2</ele></trkpt>
      <trkpt lat="44.82106" lon="6.7344"><ele>2345.6</ele></trkpt>
      <trkpt lat="44.82098" lon="6.7342"><ele>2347.1</ele></trkpt>
      <trkpt lat="44.82047" lon="6.73502"><ele>2349.3</ele></trkpt>
      <trkpt lat="44.81966" lon="6.73498"><ele>2347.7</ele></trkpt>
      <trkpt lat="44.81967" lon="6.73531"><ele>2347.2</ele></trkpt>
      <trkpt lat="44.81966" lon="6.73498"><ele>2346.8</ele></trkpt>
      <trkpt lat="44.81885" lon="6.73475"><ele>2339.9</ele></trkpt>
      <trkpt lat="44.81957" lon="6.73234"><ele>2323.5</ele></trkpt>
      <trkpt lat="44.81947" lon="6.73209"><ele>2321.7</ele></trkpt>
      <trkpt lat="44.81869" lon="6.73341"><ele>2310.6</ele></trkpt>
      <trkpt lat="44.8178" lon="6.73444"><ele>2298.3</ele></trkpt>
      <trkpt lat="44.81765" lon="6.73434"><ele>2296.7</ele></trkpt>
      <trkpt lat="44.81833" lon="6.73271"><ele>2289.3</ele></trkpt>
      <trkpt lat="44.81681" lon="6.73457"><ele>2269.2</ele></trkpt>
      <trkpt lat="44.81621" lon="6.73452"><ele>2262.3</ele></trkpt>
      <trkpt lat="44.81561" lon="6.73507"><ele>2254.4</ele></trkpt>
      <trkpt lat="44.81569" lon="6.73608"><ele>2248.3</ele></trkpt>
      <trkpt lat="44.81548" lon="6.73634"><ele>2247.1</ele></trkpt>
      <trkpt lat="44.81393" lon="6.73615"><ele>2236.3</ele></trkpt>
      <trkpt lat="44.81317" lon="6.73446"><ele>2211.0</ele></trkpt>
      <trkpt lat="44.81201" lon="6.73505"><ele>2192.6</ele></trkpt>
      <trkpt lat="44.81154" lon="6.73542"><ele>2184.7</ele></trkpt>
      <trkpt lat="44.8117" lon="6.73657"><ele>2183.2</ele></trkpt>
      <trkpt lat="44.81134" lon="6.73697"><ele>2182.4</ele></trkpt>
      <trkpt lat="44.81119" lon="6.73768"><ele>2181.8</ele></trkpt>
      <trkpt lat="44.81052" lon="6.73822"><ele>2183.9</ele></trkpt>
      <trkpt lat="44.80964" lon="6.73846"><ele>2186.4</ele></trkpt>
      <trkpt lat="44.80913" lon="6.73807"><ele>2190.7</ele></trkpt>
      <trkpt lat="44.80864" lon="6.73718"><ele>2196.9</ele></trkpt>
      <trkpt lat="44.80795" lon="6.73714"><ele>2199.6</ele></trkpt>
      <trkpt lat="44.80737" lon="6.73605"><ele>2196.4</ele></trkpt>
      <trkpt lat="44.80576" lon="6.73666"><ele>2182.0</ele></trkpt>
      <trkpt lat="44.8049" lon="6.73672"><ele>2173.4</ele></trkpt>
      <trkpt lat="44.80355" lon="6.73757"><ele>2160.7</ele></trkpt>
      <trkpt lat="44.80428" lon="6.73649"><ele>2152.5</ele></trkpt>
      <trkpt lat="44.80558" lon="6.73526"><ele>2141.7</ele></trkpt>
      <trkpt lat="44.80566" lon="6.73475"><ele>2139.1</ele></trkpt>
      <trkpt lat="44.80512" lon="6.73436"><ele>2134.5</ele></trkpt>
      <trkpt lat="44.80403" lon="6.73445"><ele>2120.7</ele></trkpt>
      <trkpt lat="44.80259" lon="6.73349"><ele>2099.5</ele></trkpt>
      <trkpt lat="44.80099" lon="6.73117"><ele>2072.5</ele></trkpt>
      <trkpt lat="44.80084" lon="6.73146"><ele>2069.3</ele></trkpt>
      <trkpt lat="44.80208" lon="6.73404"><ele>2054.8</ele></trkpt>
      <trkpt lat="44.80204" lon="6.73425"><ele>2053.2</ele></trkpt>
      <trkpt lat="44.80042" lon="6.73239"><ele>2025.8</ele></trkpt>
      <trkpt lat="44.79944" lon="6.73214"><ele>2010.4</ele></trkpt>
      <trkpt lat="44.79959" lon="6.73062"><ele>1998.3</ele></trkpt>
      <trkpt lat="44.80024" lon="6.72948"><ele>1987.0</ele></trkpt>
      <trkpt lat="44.79926" lon="6.73058"><ele>1974.2</ele></trkpt>
      <trkpt lat="44.79878" lon="6.73166"><ele>1962.7</ele></trkpt>
      <trkpt lat="44.79864" lon="6.73245"><ele>1955.2</ele></trkpt>
      <trkpt lat="44.79861" lon="6.73153"><ele>1949.3</ele></trkpt>
      <trkpt lat="44.79917" lon="6.72928"><ele>1936.2</ele></trkpt>
      <trkpt lat="44.79901" lon="6.72896"><ele>1933.5</ele></trkpt>
      <trkpt lat="44.79895" lon="6.7295"><ele>1930.4</ele></trkpt>
      <trkpt lat="44.79807" lon="6.73107"><ele>1916.2</ele></trkpt>
      <trkpt lat="44.79787" lon="6.73209"><ele>1907.6</ele></trkpt>
      <trkpt lat="44.79716" lon="6.73238"><ele>1903.0</ele></trkpt>
      <trkpt lat="44.79729" lon="6.73289"><ele>1901.3</ele></trkpt>
      <trkpt lat="44.79852" lon="6.73432"><ele>1891.7</ele></trkpt>
      <trkpt lat="44.79848" lon="6.73459"><ele>1889.9</ele></trkpt>
      <trkpt lat="44.79783" lon="6.73383"><ele>1882.9</ele></trkpt>
      <trkpt lat="44.79693" lon="6.73335"><ele>1868.0</ele></trkpt>
      <trkpt lat="44.79605" lon="6.73228"><ele>1853.0</ele></trkpt>
      <trkpt lat="44.79618" lon="6.73167"><ele>1849.0</ele></trkpt>
      <trkpt lat="44.79665" lon="6.73113"><ele>1843.7</ele></trkpt>
      <trkpt lat="44.79646" lon="6.73049"><ele>1839.5</ele></trkpt>
      <trkpt lat="44.79691" lon="6.72917"><ele>1831.7</ele></trkpt>
      <trkpt lat="44.7968" lon="6.72822"><ele>1826.2</ele></trkpt>
      <trkpt lat="44.79635" lon="6.72805"><ele>1821.6</ele></trkpt>
      <trkpt lat="44.79612" lon="6.72839"><ele>1818.3</ele></trkpt>
      <trkpt lat="44.79586" lon="6.72794"><ele>1814.1</ele></trkpt>
      <trkpt lat="44.79424" lon="6.72888"><ele>1799.3</ele></trkpt>
      <trkpt lat="44.79368" lon="6.72667"><ele>1795.5</ele></trkpt>
      <trkpt lat="44.79407" lon="6.72634"><ele>1795.3</ele></trkpt>
      <trkpt lat="44.79538" lon="6.72363"><ele>1803.4</ele></trkpt>
      <trkpt lat="44.79674" lon="6.72245"><ele>1808.8</ele></trkpt>
      <trkpt lat="44.79708" lon="6.7217"><ele>1811.7</ele></trkpt>
      <trkpt lat="44.7983" lon="6.72021"><ele>1820.0</ele></trkpt>
      <trkpt lat="44.79853" lon="6.7188"><ele>1825.8</ele></trkpt>
      <trkpt lat="44.79943" lon="6.71709"><ele>1825.9</ele></trkpt>
      <trkpt lat="44.79946" lon="6.71665"><ele>1825.9</ele></trkpt>
    </trkseg>
  </trk>
</gpx>
