<?xml version="1.0" encoding="UTF-8"?>
<gpx version="1.1" creator="tools/extract_original.py"
     xmlns="http://www.topografix.com/GPX/1/1">
  <metadata><name>Tag 6: Cluses → Beaufort</name></metadata>
  <wpt lat="46.021102" lon="6.396973"><name>Route de termine</name></wpt>
  <wpt lat="45.986654" lon="6.390813"><name>Glières-Val-de-Borne</name></wpt>
  <wpt lat="45.923863" lon="6.409853"><name>Col de St-Jean-de-Sixt</name></wpt>
  <wpt lat="45.905926" lon="6.427377"><name>Chalet-Style Bar</name></wpt>
  <wpt lat="45.898298" lon="6.428158"><name>Beginning of the ascent to the Aravis pass</name></wpt>
  <wpt lat="45.879025" lon="6.450892"><name>2 km to the Aravis</name></wpt>
  <wpt lat="45.874649" lon="6.454424"><name>View of Mont Blanc</name></wpt>
  <wpt lat="45.871995" lon="6.465449"><name>Col des Aravis</name></wpt>
  <wpt lat="45.868588" lon="6.487048"><name>Valley view</name></wpt>
  <wpt lat="45.832674" lon="6.508676"><name>Canyon</name></wpt>
  <wpt lat="45.761813" lon="6.533303"><name>Col des Saisies</name></wpt>
  <wpt lat="45.717252" lon="6.574375"><name>Hôtel du Grand-Mont</name></wpt>
  <trk>
    <name>Tag 6: Cluses → Beaufort</name>
    <trkseg>
      <trkpt lat="46.09936" lon="6.58791"><ele>622.1</ele></trkpt>
      <trkpt lat="46.09895" lon="6.5882"><ele>622.1</ele></trkpt>
      <trkpt lat="46.09877" lon="6.59005"><ele>623.2</ele></trkpt>
      <trkpt lat="46.097" lon="6.58986"><ele>630.2</ele></trkpt>
      <trkpt lat="46.09667" lon="6.59013"><ele>633.0</ele></trkpt>
      <trkpt lat="46.09626" lon="6.59611"><ele>659.2</ele></trkpt>
      <trkpt lat="46.09647" lon="6.59755"><ele>664.8</ele></trkpt>
      <trkpt lat="46.09628" lon="6.59873"><ele>669.4</ele></trkpt>
      <trkpt lat="46.09597" lon="6.59896"><ele>671.4</ele></trkpt>
      <trkpt lat="46.09583" lon="6.59696"><ele>678.8</ele></trkpt>
      <trkpt lat="46.09485" lon="6.59291"><ele>693.3</ele></trkpt>
      <trkpt lat="46.09391" lon="6.59088"><ele>703.8</ele></trkpt>
      <trkpt lat="46.09286" lon="6.58986"><ele>714.2</ele></trkpt>
      <trkpt lat="46.09251" lon="6.58918"><ele>719.9</ele></trkpt>
      <trkpt lat="46.09234" lon="6.5884"><ele>724.9</ele></trkpt>
      <trkpt lat="46.09251" lon="6.58618"><ele>731.0</ele></trkpt>
      <trkpt lat="46.0923" lon="6.58554"><ele>732.0</ele></trkpt>
      <trkpt lat="46.09198" lon="6.58523"><ele>732.5</ele></trkpt>
      <trkpt lat="46.0909" lon="6.58508"><ele>733.8</ele></trkpt>
      <trkpt lat="46.08655" lon="6.58223"><ele>730.2</ele></trkpt>
      <trkpt lat="46.08625" lon="6.58114"><ele>725.0</ele></trkpt>
      <trkpt lat="46.0861" lon="6.5792"><ele>715.5</ele></trkpt>
      <trkpt lat="46.08523" lon="6.57726"><ele>703.4</ele></trkpt>
      <trkpt lat="46.08516" lon="6.57594"><ele>695.0</ele></trkpt>
      <trkpt lat="46.08486" lon="6.57547"><ele>690.5</ele></trkpt>
      <trkpt lat="46.08386" lon="6.57493"><ele>680.8</ele></trkpt>
      <trkpt lat="46.08409" lon="6.57381"><ele>675.0</ele></trkpt>
      <trkpt lat="46.08447" lon="6.57311"><ele>670.9</ele></trkpt>
      <trkpt lat="46.08472" lon="6.57151"><ele>670.3</ele></trkpt>
      <trkpt lat="46.08575" lon="6.56998"><ele>667.8</ele></trkpt>
      <trkpt lat="46.08588" lon="6.56862"><ele>665.2</ele></trkpt>
      <trkpt lat="46.08618" lon="6.56802"><ele>662.4</ele></trkpt>
      <trkpt lat="46.08588" lon="6.56565"><ele>653.2</ele></trkpt>
      <trkpt lat="46.08588" lon="6.56257"><ele>641.1</ele></trkpt>
      <trkpt lat="46.08681" lon="6.56026"><ele>629.1</ele></trkpt>
      <trkpt lat="46.08673" lon="6.55893"><ele>622.5</ele></trkpt>
      <trkpt lat="46.08845" lon="6.5518"><ele>603.6</ele></trkpt>
      <trkpt lat="46.0882" lon="6.54869"><ele>590.5</ele></trkpt>
      <trkpt lat="46.08837" lon="6.54723"><ele>585.8</ele></trkpt>
      <trkpt lat="46.08829" lon="6.54556"><ele>582.0</ele></trkpt>
      <trkpt lat="46.08898" lon="6.54321"><ele>576.7</ele></trkpt>
      <trkpt lat="46.08903" lon="6.5423"><ele>574.1</ele></trkpt>
      <trkpt lat="46.08845" lon="6.54021"><ele>565.2</ele></trkpt>
      <trkpt lat="46.08842" lon="6.53947"><ele>561.8</ele></trkpt>
      <trkpt lat="46.08884" lon="6.53801"><ele>557.2</ele></trkpt>
      <trkpt lat="46.08892" lon="6.53408"><ele>547.7</ele></trkpt>
      <trkpt lat="46.08962" lon="6.53017"><ele>537.2</ele></trkpt>
      <trkpt lat="46.08972" lon="6.52466"><ele>518.5</ele></trkpt>
      <trkpt lat="46.09085" lon="6.51878"><ele>504.4</ele></trkpt>
      <trkpt lat="46.09103" lon="6.51001"><ele>481.0</ele></trkpt>
      <trkpt lat="46.09134" lon="6.50777"><ele>476.4</ele></trkpt>
      <trkpt lat="46.09161" lon="6.50705"><ele>475.5</ele></trkpt>
      <trkpt lat="46.0896" lon="6.50643"><ele>473.9</ele></trkpt>
      <trkpt lat="46.08941" lon="6.50609"><ele>473.8</ele></trkpt>
      <trkpt lat="46.08917" lon="6.50136"><ele>473.2</ele></trkpt>
      <trkpt lat="46.08933" lon="6.50096"><ele>473.2</ele></trkpt>
      <trkpt lat="46.09014" lon="6.50031"><ele>473.3</ele></trkpt>
      <trkpt lat="46.08773" lon="6.49448"><ele>470.9</ele></trkpt>
      <trkpt lat="46.08588" lon="6.49267"><ele>471.3</ele></trkpt>
      <trkpt lat="46.08404" lon="6.49131"><ele>470.0</ele></trkpt>
      <trkpt lat="46.08039" lon="6.48668"><ele>465.4</ele></trkpt>
      <trkpt lat="46.07961" lon="6.48618"><ele>464.7</ele></trkpt>
      <trkpt lat="46.07671" lon="6.48527"><ele>463.3</ele></trkpt>
      <trkpt lat="46.07659" lon="6.48484"><ele>463.2</ele></trkpt>
      <trkpt lat="46.0767" lon="6.48406"><ele>463.0</ele></trkpt>
      <trkpt lat="46.07572" lon="6.48228"><ele>462.2</ele></trkpt>
      <trkpt lat="46.07522" lon="6.48175"><ele>461.5</ele></trkpt>
      <trkpt lat="46.07496" lon="6.48184"><ele>461.1</ele></trkpt>
      <trkpt lat="46.07525" lon="6.48143"><ele>460.5</ele></trkpt>
      <trkpt lat="46.07545" lon="6.48037"><ele>459.5</ele></trkpt>
      <trkpt lat="46.07578" lon="6.47996"><ele>458.9</ele></trkpt>
      <trkpt lat="46.0748" lon="6.47686"><ele>456.4</ele></trkpt>
      <trkpt lat="46.07433" lon="6.47462"><ele>455.6</ele></trkpt>
      <trkpt lat="46.07398" lon="6.47048"><ele>455.8</ele></trkpt>
      <trkpt lat="46.07437" lon="6.46594"><ele>455.6</ele></trkpt>
      <trkpt lat="46.07391" lon="6.46522"><ele>455.3</ele></trkpt>
      <trkpt lat="46.07432" lon="6.46401"><ele>454.7</ele></trkpt>
      <trkpt lat="46.07672" lon="6.44061"><ele>450.5</ele></trkpt>
      <trkpt lat="46.07693" lon="6.4398"><ele>450.3</ele></trkpt>
      <trkpt lat="46.078" lon="6.42976"><ele>448.1</ele></trkpt>
      <trkpt lat="46.07798" lon="6.42893"><ele>448.2</ele></trkpt>
      <trkpt lat="46.07661" lon="6.42831"><ele>448.2</ele></trkpt>
      <trkpt lat="46.07652" lon="6.42779"><ele>448.1</ele></trkpt>
      <trkpt lat="46.07454" lon="6.42744"><ele>447.7</ele></trkpt>
      <trkpt lat="46.07361" lon="6.42689"><ele>447.6</ele></trkpt>
      <trkpt lat="46.07346" lon="6.42638"><ele>447.6</ele></trkpt>
      <trkpt lat="46.07368" lon="6.42515"><ele>447.6</ele></trkpt>
      <trkpt lat="46.07277" lon="6.42448"><ele>447.7</ele></trkpt>
      <trkpt lat="46.07268" lon="6.42408"><ele>447.7</ele></trkpt>
      <trkpt lat="46.07288" lon="6.42268"><ele>447.4</ele></trkpt>
      <trkpt lat="46.07344" lon="6.42232"><ele>447.0</ele></trkpt>
      <trkpt lat="46.07361" lon="6.42096"><ele>446.6</ele></trkpt>
      <trkpt lat="46.07386" lon="6.42075"><ele>446.6</ele></trkpt>
      <trkpt lat="46.07363" lon="6.42032"><ele>446.6</ele></trkpt>
      <trkpt lat="46.0736" lon="6.41965"><ele>446.7</ele></trkpt>
      <trkpt lat="46.07379" lon="6.41963"><ele>446.7</ele></trkpt>
      <trkpt lat="46.07377" lon="6.41883"><ele>446.6</ele></trkpt>
      <trkpt lat="46.07399" lon="6.41877"><ele>446.6</ele></trkpt>
      <trkpt lat="46.07377" lon="6.41883"><ele>446.5</ele></trkpt>
      <trkpt lat="46.07379" lon="6.41963"><ele>446.4</ele></trkpt>
      <trkpt lat="46.0736" lon="6.41965"><ele>446.4</ele></trkpt>
      <trkpt lat="46.07363" lon="6.42032"><ele>446.3</ele></trkpt>
      <trkpt lat="46.07343" lon="6.42061"><ele>446.2</ele></trkpt>
      <trkpt lat="46.07048" lon="6.42015"><ele>446.2</ele></trkpt>
      <trkpt lat="46.06983" lon="6.41997"><ele>446.2</ele></trkpt>
      <trkpt lat="46.06958" lon="6.41966"><ele>446.2</ele></trkpt>
      <trkpt lat="46.06953" lon="6.41874"><ele>446.2</ele></trkpt>
      <trkpt lat="46.0701" lon="6.41244"><ele>446.5</ele></trkpt>
      <trkpt lat="46.0684" lon="6.41225"><ele>446.4</ele></trkpt>
      <trkpt lat="46.06809" lon="6.41173"><ele>446.4</ele></trkpt>
      <trkpt lat="46.06829" lon="6.4063"><ele>449.4</ele></trkpt>
      <trkpt lat="46.06732" lon="6.40502"><ele>450.4</ele></trkpt>
      <trkpt lat="46.0658" lon="6.40116"><ele>453.2</ele></trkpt>
      <trkpt lat="46.06484" lon="6.40012"><ele>454.3</ele></trkpt>
      <trkpt lat="46.06467" lon="6.3984"><ele>455.8</ele></trkpt>
      <trkpt lat="46.06358" lon="6.39659"><ele>458.0</ele></trkpt>
      <trkpt lat="46.06145" lon="6.3916"><ele>462.6</ele></trkpt>
      <trkpt lat="46.0604" lon="6.39046"><ele>464.7</ele></trkpt>
      <trkpt lat="46.05888" lon="6.38785"><ele>468.3</ele></trkpt>
      <trkpt lat="46.05829" lon="6.38567"><ele>470.0</ele></trkpt>
      <trkpt lat="46.05822" lon="6.38413"><ele>470.9</ele></trkpt>
      <trkpt lat="46.05845" lon="6.3832"><ele>471.3</ele></trkpt>
      <trkpt lat="46.05944" lon="6.3813"><ele>472.6</ele></trkpt>
      <trkpt lat="46.05805" lon="6.37868"><ele>476.2</ele></trkpt>
      <trkpt lat="46.05792" lon="6.37743"><ele>478.0</ele></trkpt>
      <trkpt lat="46.05735" lon="6.37578"><ele>480.6</ele></trkpt>
      <trkpt lat="46.05732" lon="6.3751"><ele>481.3</ele></trkpt>
      <trkpt lat="46.05673" lon="6.37376"><ele>483.0</ele></trkpt>
      <trkpt lat="46.05492" lon="6.37186"><ele>497.9</ele></trkpt>
      <trkpt lat="46.05361" lon="6.37285"><ele>509.3</ele></trkpt>
      <trkpt lat="46.05356" lon="6.37319"><ele>511.0</ele></trkpt>
      <trkpt lat="46.05388" lon="6.37358"><ele>513.8</ele></trkpt>
      <trkpt lat="46.0538" lon="6.37402"><ele>515.9</ele></trkpt>
      <trkpt lat="46.05255" lon="6.37412"><ele>523.0</ele></trkpt>
      <trkpt lat="46.05179" lon="6.37579"><ele>528.4</ele></trkpt>
      <trkpt lat="46.05099" lon="6.37672"><ele>529.0</ele></trkpt>
      <trkpt lat="46.05062" lon="6.37666"><ele>529.2</ele></trkpt>
      <trkpt lat="46.05014" lon="6.37619"><ele>530.3</ele></trkpt>
      <trkpt lat="46.04975" lon="6.37639"><ele>531.5</ele></trkpt>
      <trkpt lat="46.04857" lon="6.37575"><ele>535.2</ele></trkpt>
      <trkpt lat="46.04815" lon="6.37617"><ele>536.8</ele></trkpt>
      <trkpt lat="46.04744" lon="6.37566"><ele>539.1</ele></trkpt>
      <trkpt lat="46.04661" lon="6.37574"><ele>542.8</ele></trkpt>
      <trkpt lat="46.04635" lon="6.3765"><ele>545.8</ele></trkpt>
      <trkpt lat="46.04559" lon="6.37682"><ele>550.4</ele></trkpt>
      <trkpt lat="46.0455" lon="6.3779"><ele>556.4</ele></trkpt>
      <trkpt lat="46.04532" lon="6.37815"><ele>558.3</ele></trkpt>
      <trkpt lat="46.04429" lon="6.3784"><ele>564.7</ele></trkpt>
      <trkpt lat="46.04338" lon="6.37946"><ele>569.8</ele></trkpt>
      <trkpt lat="46.04246" lon="6.3794"><ele>569.3</ele></trkpt>
      <trkpt lat="46.04148" lon="6.38014"><ele>568.1</ele></trkpt>
      <trkpt lat="46.04069" lon="6.38023"><ele>567.1</ele></trkpt>
      <trkpt lat="46.0396" lon="6.38097"><ele>568.3</ele></trkpt>
      <trkpt lat="46.03898" lon="6.38212"><ele>574.3</ele></trkpt>
      <trkpt lat="46.03805" lon="6.3828"><ele>585.1</ele></trkpt>
      <trkpt lat="46.03722" lon="6.38299"><ele>596.1</ele></trkpt>
      <trkpt lat="46.0358" lon="6.38384"><ele>610.5</ele></trkpt>
      <trkpt lat="46.03526" lon="6.38381"><ele>615.1</ele></trkpt>
      <trkpt lat="46.03431" lon="6.38507"><ele>617.3</ele></trkpt>
      <trkpt lat="46.03417" lon="6.38624"><ele>620.3</ele></trkpt>
      <trkpt lat="46.03259" lon="6.38888"><ele>635.1</ele></trkpt>
      <trkpt lat="46.03016" lon="6.39096"><ele>640.7</ele></trkpt>
      <trkpt lat="46.02887" lon="6.39101"><ele>643.3</ele></trkpt>
      <trkpt lat="46.02858" lon="6.3931"><ele>655.1</ele></trkpt>
      <trkpt lat="46.02796" lon="6.39289"><ele>659.7</ele></trkpt>
      <trkpt lat="46.02738" lon="6.39172"><ele>658.7</ele></trkpt>
      <trkpt lat="46.0266" lon="6.39198"><ele>658.2</ele></trkpt>
      <trkpt lat="46.02471" lon="6.39402"><ele>665.4</ele></trkpt>
      <trkpt lat="46.02442" lon="6.39488"><ele>671.1</ele></trkpt>
      <trkpt lat="46.02269" lon="6.39541"><ele>686.7</ele></trkpt>
      <trkpt lat="46.02176" lon="6.39682"><ele>697.9</ele></trkpt>
      <trkpt lat="46.02134" lon="6.39711"><ele>701.8</ele></trkpt>
      <trkpt lat="46.01975" lon="6.39619"><ele>706.3</ele></trkpt>
      <trkpt lat="46.01892" lon="6.39703"><ele>709.4</ele></trkpt>
      <trkpt lat="46.01618" lon="6.39597"><ele>715.2</ele></trkpt>
      <trkpt lat="46.01337" lon="6.3965"><ele>714.5</ele></trkpt>
      <trkpt lat="46.01172" lon="6.39582"><ele>716.3</ele></trkpt>
      <trkpt lat="46.01017" lon="6.39687"><ele>717.9</ele></trkpt>
      <trkpt lat="46.0079" lon="6.39673"><ele>716.9</ele></trkpt>
      <trkpt lat="46.00561" lon="6.397"><ele>716.8</ele></trkpt>
      <trkpt lat="46.00464" lon="6.39755"><ele>719.6</ele></trkpt>
      <trkpt lat="46.00201" lon="6.39622"><ele>726.8</ele></trkpt>
      <trkpt lat="46.0006" lon="6.396"><ele>731.9</ele></trkpt>
      <trkpt lat="45.99975" lon="6.39486"><ele>735.4</ele></trkpt>
      <trkpt lat="45.99922" lon="6.39449"><ele>737.1</ele></trkpt>
      <trkpt lat="45.99617" lon="6.39432"><ele>745.0</ele></trkpt>
      <trkpt lat="45.99464" lon="6.39447"><ele>747.8</ele></trkpt>
      <trkpt lat="45.99196" lon="6.39319"><ele>745.7</ele></trkpt>
      <trkpt lat="45.99142" lon="6.3938"><ele>743.9</ele></trkpt>
      <trkpt lat="45.99032" lon="6.39382"><ele>741.3</ele></trkpt>
      <trkpt lat="45.9898" lon="6.39336"><ele>740.7</ele></trkpt>
      <trkpt lat="45.98934" lon="6.39349"><ele>740.2</ele></trkpt>
      <trkpt lat="45.98875" lon="6.39316"><ele>739.6</ele></trkpt>
      <trkpt lat="45.98753" lon="6.39154"><ele>738.8</ele></trkpt>
      <trkpt lat="45.98614" lon="6.39032"><ele>738.8</ele></trkpt>
      <trkpt lat="45.98416" lon="6.38771"><ele>736.4</ele></trkpt>
      <trkpt lat="45.98242" lon="6.38727"><ele>735.1</ele></trkpt>
      <trkpt lat="45.98087" lon="6.38742"><ele>736.3</ele></trkpt>
      <trkpt lat="45.97828" lon="6.38707"><ele>740.3</ele></trkpt>
      <trkpt lat="45.97751" lon="6.38729"><ele>741.6</ele></trkpt>
      <trkpt lat="45.97501" lon="6.38664"><ele>749.9</ele></trkpt>
      <trkpt lat="45.97458" lon="6.38638"><ele>751.8</ele></trkpt>
      <trkpt lat="45.97305" lon="6.38429"><ele>756.2</ele></trkpt>
      <trkpt lat="45.97084" lon="6.38493"><ele>754.8</ele></trkpt>
      <trkpt lat="45.96957" lon="6.38441"><ele>754.1</ele></trkpt>
      <trkpt lat="45.96748" lon="6.38535"><ele>758.6</ele></trkpt>
      <trkpt lat="45.96564" lon="6.38546"><ele>761.7</ele></trkpt>
      <trkpt lat="45.96419" lon="6.38621"><ele>763.8</ele></trkpt>
      <trkpt lat="45.96233" lon="6.38587"><ele>766.9</ele></trkpt>
      <trkpt lat="45.95972" lon="6.38745"><ele>772.0</ele></trkpt>
      <trkpt lat="45.95711" lon="6.38811"><ele>778.0</ele></trkpt>
      <trkpt lat="45.95591" lon="6.38867"><ele>781.4</ele></trkpt>
      <trkpt lat="45.95458" lon="6.39005"><ele>785.9</ele></trkpt>
      <trkpt lat="45.95303" lon="6.39041"><ele>789.9</ele></trkpt>
      <trkpt lat="45.95075" lon="6.39458"><ele>799.6</ele></trkpt>
      <trkpt lat="45.94998" lon="6.39659"><ele>803.0</ele></trkpt>
      <trkpt lat="45.94879" lon="6.39769"><ele>804.5</ele></trkpt>
      <trkpt lat="45.94636" lon="6.40082"><ele>815.2</ele></trkpt>
      <trkpt lat="45.94398" lon="6.40279"><ele>830.0</ele></trkpt>
      <trkpt lat="45.94285" lon="6.40308"><ele>839.7</ele></trkpt>
      <trkpt lat="45.9413" lon="6.40278"><ele>849.4</ele></trkpt>
      <trkpt lat="45.94056" lon="6.40214"><ele>851.2</ele></trkpt>
      <trkpt lat="45.93847" lon="6.40193"><ele>857.4</ele></trkpt>
      <trkpt lat="45.93776" lon="6.40099"><ele>856.2</ele></trkpt>
      <trkpt lat="45.93654" lon="6.40042"><ele>854.0</ele></trkpt>
      <trkpt lat="45.93469" lon="6.40031"><ele>856.0</ele></trkpt>
      <trkpt lat="45.93356" lon="6.40106"><ele>867.9</ele></trkpt>
      <trkpt lat="45.93201" lon="6.40315"><ele>878.7</ele></trkpt>
      <trkpt lat="45.9313" lon="6.40493"><ele>873.3</ele></trkpt>
      <trkpt lat="45.92891" lon="6.40546"><ele>883.7</ele></trkpt>
      <trkpt lat="45.92782" lon="6.40769"><ele>899.5</ele></trkpt>
      <trkpt lat="45.92725" lon="6.40958"><ele>907.7</ele></trkpt>
      <trkpt lat="45.92732" lon="6.41015"><ele>908.7</ele></trkpt>
      <trkpt lat="45.928" lon="6.41132"><ele>911.4</ele></trkpt>
      <trkpt lat="45.92847" lon="6.41161"><ele>913.7</ele></trkpt>
      <trkpt lat="45.92923" lon="6.41148"><ele>917.3</ele></trkpt>
      <trkpt lat="45.92938" lon="6.41158"><ele>918.0</ele></trkpt>
      <trkpt lat="45.9294" lon="6.4121"><ele>919.9</ele></trkpt>
      <trkpt lat="45.92752" lon="6.4121"><ele>932.3</ele></trkpt>
      <trkpt lat="45.92625" lon="6.41157"><ele>942.4</ele></trkpt>
      <trkpt lat="45.92513" lon="6.4096"><ele>952.7</ele></trkpt>
      <trkpt lat="45.92447" lon="6.4094"><ele>955.6</ele></trkpt>
      <trkpt lat="45.9236" lon="6.41003"><ele>958.4</ele></trkpt>
      <trkpt lat="45.92249" lon="6.41039"><ele>961.8</ele></trkpt>
      <trkpt lat="45.92273" lon="6.41134"><ele>964.0</ele></trkpt>
      <trkpt lat="45.92337" lon="6.41261"><ele>968.3</ele></trkpt>
      <trkpt lat="45.9233" lon="6.41314"><ele>970.0</ele></trkpt>
      <trkpt lat="45.92274" lon="6.41424"><ele>974.0</ele></trkpt>
      <trkpt lat="45.92155" lon="6.41545"><ele>980.3</ele></trkpt>
      <trkpt lat="45.92056" lon="6.41474"><ele>980.8</ele></trkpt>
      <trkpt lat="45.91933" lon="6.41555"><ele>982.3</ele></trkpt>
      <trkpt lat="45.91739" lon="6.41881"><ele>993.5</ele></trkpt>
      <trkpt lat="45.91666" lon="6.41969"><ele>1000.5</ele></trkpt>
      <trkpt lat="45.91607" lon="6.41966"><ele>1005.0</ele></trkpt>
      <trkpt lat="45.91503" lon="6.41841"><ele>1010.1</ele></trkpt>
      <trkpt lat="45.91358" lon="6.41817"><ele>1011.7</ele></trkpt>
      <trkpt lat="45.91274" lon="6.41841"><ele>1011.2</ele></trkpt>
      <trkpt lat="45.91224" lon="6.41909"><ele>1013.3</ele></trkpt>
      <trkpt lat="45.9112" lon="6.41963"><ele>1017.4</ele></trkpt>
      <trkpt lat="45.91049" lon="6.41954"><ele>1021.2</ele></trkpt>
      <trkpt lat="45.90933" lon="6.41891"><ele>1028.2</ele></trkpt>
      <trkpt lat="45.90765" lon="6.41929"><ele>1034.9</ele></trkpt>
      <trkpt lat="45.90598" lon="6.42189"><ele>1036.3</ele></trkpt>
      <trkpt lat="45.90593" lon="6.43039"><ele>1072.1</ele></trkpt>
      <trkpt lat="45.90562" lon="6.43042"><ele>1074.5</ele></trkpt>
      <trkpt lat="45.90517" lon="6.42994"><ele>1078.7</ele></trkpt>
      <trkpt lat="45.90404" lon="6.42717"><ele>1092.7</ele></trkpt>
      <trkpt lat="45.90358" lon="6.42652"><ele>1095.8</ele></trkpt>
      <trkpt lat="45.90241" lon="6.42552"><ele>1102.9</ele></trkpt>
      <trkpt lat="45.90157" lon="6.42534"><ele>1107.5</ele></trkpt>
      <trkpt lat="45.9007" lon="6.42551"><ele>1112.4</ele></trkpt>
      <trkpt lat="45.90008" lon="6.42516"><ele>1116.1</ele></trkpt>
      <trkpt lat="45.89985" lon="6.42558"><ele>1119.1</ele></trkpt>
      <trkpt lat="45.8999" lon="6.42674"><ele>1125.2</ele></trkpt>
      <trkpt lat="45.89975" lon="6.42721"><ele>1128.0</ele></trkpt>
      <trkpt lat="45.89682" lon="6.42921"><ele>1151.1</ele></trkpt>
      <trkpt lat="45.89585" lon="6.42923"><ele>1157.5</ele></trkpt>
      <trkpt lat="45.89509" lon="6.42971"><ele>1162.8</ele></trkpt>
      <trkpt lat="45.89337" lon="6.42966"><ele>1175.4</ele></trkpt>
      <trkpt lat="45.89124" lon="6.43042"><ele>1191.5</ele></trkpt>
      <trkpt lat="45.8902" lon="6.43107"><ele>1198.1</ele></trkpt>
      <trkpt lat="45.88901" lon="6.43228"><ele>1206.6</ele></trkpt>
      <trkpt lat="45.8873" lon="6.43323"><ele>1218.1</ele></trkpt>
      <trkpt lat="45.88609" lon="6.43346"><ele>1226.1</ele></trkpt>
      <trkpt lat="45.88512" lon="6.43433"><ele>1231.0</ele></trkpt>
      <trkpt lat="45.884" lon="6.43609"><ele>1239.5</ele></trkpt>
      <trkpt lat="45.88345" lon="6.43824"><ele>1250.6</ele></trkpt>
      <trkpt lat="45.88292" lon="6.43934"><ele>1258.2</ele></trkpt>
      <trkpt lat="45.88264" lon="6.44079"><ele>1266.9</ele></trkpt>
      <trkpt lat="45.88206" lon="6.44219"><ele>1277.0</ele></trkpt>
      <trkpt lat="45.88079" lon="6.44332"><ele>1291.7</ele></trkpt>
      <trkpt lat="45.88027" lon="6.44408"><ele>1296.1</ele></trkpt>
      <trkpt lat="45.88028" lon="6.44451"><ele>1298.0</ele></trkpt>
      <trkpt lat="45.88049" lon="6.4446"><ele>1299.4</ele></trkpt>
      <trkpt lat="45.8816" lon="6.44372"><ele>1307.2</ele></trkpt>
      <trkpt lat="45.88179" lon="6.44383"><ele>1308.6</ele></trkpt>
      <trkpt lat="45.88098" lon="6.44586"><ele>1320.2</ele></trkpt>
      <trkpt lat="45.88004" lon="6.44696"><ele>1329.1</ele></trkpt>
      <trkpt lat="45.87967" lon="6.44809"><ele>1335.6</ele></trkpt>
      <trkpt lat="45.87804" lon="6.4493"><ele>1351.5</ele></trkpt>
      <trkpt lat="45.87684" lon="6.45098"><ele>1366.3</ele></trkpt>
      <trkpt lat="45.87708" lon="6.45118"><ele>1369.1</ele></trkpt>
      <trkpt lat="45.87766" lon="6.45087"><ele>1373.5</ele></trkpt>
      <trkpt lat="45.87833" lon="6.45096"><ele>1377.7</ele></trkpt>
      <trkpt lat="45.87879" lon="6.45074"><ele>1380.7</ele></trkpt>
      <trkpt lat="45.87898" lon="6.45085"><ele>1382.0</ele></trkpt>
      <trkpt lat="45.87898" lon="6.45113"><ele>1383.6</ele></trkpt>
      <trkpt lat="45.87841" lon="6.45182"><ele>1389.6</ele></trkpt>
      <trkpt lat="45.87658" lon="6.45292"><ele>1406.3</ele></trkpt>
      <trkpt lat="45.87541" lon="6.45405"><ele>1417.9</ele></trkpt>
      <trkpt lat="45.87365" lon="6.45501"><ele>1430.1</ele></trkpt>
      <trkpt lat="45.87389" lon="6.45536"><ele>1431.9</ele></trkpt>
      <trkpt lat="45.87593" lon="6.45472"><ele>1442.3</ele></trkpt>
      <trkpt lat="45.87613" lon="6.45495"><ele>1443.7</ele></trkpt>
      <trkpt lat="45.87496" lon="6.45603"><ele>1452.2</ele></trkpt>
      <trkpt lat="45.87428" lon="6.45713"><ele>1458.6</ele></trkpt>
      <trkpt lat="45.87393" lon="6.46121"><ele>1475.8</ele></trkpt>
      <trkpt lat="45.87197" lon="6.46553"><ele>1483.2</ele></trkpt>
      <trkpt lat="45.87161" lon="6.46695"><ele>1475.4</ele></trkpt>
      <trkpt lat="45.8715" lon="6.46852"><ele>1469.0</ele></trkpt>
      <trkpt lat="45.8709" lon="6.46959"><ele>1460.8</ele></trkpt>
      <trkpt lat="45.8712" lon="6.47153"><ele>1448.8</ele></trkpt>
      <trkpt lat="45.87168" lon="6.47294"><ele>1438.9</ele></trkpt>
      <trkpt lat="45.87232" lon="6.47408"><ele>1430.8</ele></trkpt>
      <trkpt lat="45.87227" lon="6.47424"><ele>1429.7</ele></trkpt>
      <trkpt lat="45.87154" lon="6.47408"><ele>1423.3</ele></trkpt>
      <trkpt lat="45.87199" lon="6.47445"><ele>1418.2</ele></trkpt>
      <trkpt lat="45.87194" lon="6.47466"><ele>1416.6</ele></trkpt>
      <trkpt lat="45.87151" lon="6.47467"><ele>1412.7</ele></trkpt>
      <trkpt lat="45.87146" lon="6.47485"><ele>1411.4</ele></trkpt>
      <trkpt lat="45.87189" lon="6.47502"><ele>1407.0</ele></trkpt>
      <trkpt lat="45.87214" lon="6.47599"><ele>1397.7</ele></trkpt>
      <trkpt lat="45.87182" lon="6.47669"><ele>1389.8</ele></trkpt>
      <trkpt lat="45.87167" lon="6.47762"><ele>1383.6</ele></trkpt>
      <trkpt lat="45.87187" lon="6.48008"><ele>1373.4</ele></trkpt>
      <trkpt lat="45.8715" lon="6.48124"><ele>1367.2</ele></trkpt>
      <trkpt lat="45.8714" lon="6.48051"><ele>1363.4</ele></trkpt>
      <trkpt lat="45.87121" lon="6.48048"><ele>1361.4</ele></trkpt>
      <trkpt lat="45.87078" lon="6.48225"><ele>1347.6</ele></trkpt>
      <trkpt lat="45.87146" lon="6.48467"><ele>1336.7</ele></trkpt>
      <trkpt lat="45.87181" lon="6.48521"><ele>1332.8</ele></trkpt>
      <trkpt lat="45.87167" lon="6.48656"><ele>1323.5</ele></trkpt>
      <trkpt lat="45.87103" lon="6.4869"><ele>1317.6</ele></trkpt>
      <trkpt lat="45.8707" lon="6.48753"><ele>1314.3</ele></trkpt>
      <trkpt lat="45.87054" lon="6.4875"><ele>1313.2</ele></trkpt>
      <trkpt lat="45.87061" lon="6.4868"><ele>1310.1</ele></trkpt>
      <trkpt lat="45.87106" lon="6.48652"><ele>1307.2</ele></trkpt>
      <trkpt lat="45.8711" lon="6.48624"><ele>1306.1</ele></trkpt>
      <trkpt lat="45.87053" lon="6.48564"><ele>1302.6</ele></trkpt>
      <trkpt lat="45.87014" lon="6.4838"><ele>1295.2</ele></trkpt>
      <trkpt lat="45.86951" lon="6.48325"><ele>1290.4</ele></trkpt>
      <trkpt lat="45.86913" lon="6.48179"><ele>1282.5</ele></trkpt>
      <trkpt lat="45.86899" lon="6.48321"><ele>1275.1</ele></trkpt>
      <trkpt lat="45.86841" lon="6.48377"><ele>1269.6</ele></trkpt>
      <trkpt lat="45.86888" lon="6.48485"><ele>1262.8</ele></trkpt>
      <trkpt lat="45.86887" lon="6.48616"><ele>1255.7</ele></trkpt>
      <trkpt lat="45.86805" lon="6.48805"><ele>1242.9</ele></trkpt>
      <trkpt lat="45.86819" lon="6.48893"><ele>1237.6</ele></trkpt>
      <trkpt lat="45.86851" lon="6.48945"><ele>1233.4</ele></trkpt>
      <trkpt lat="45.86832" lon="6.48955"><ele>1231.5</ele></trkpt>
      <trkpt lat="45.86776" lon="6.48896"><ele>1226.1</ele></trkpt>
      <trkpt lat="45.86735" lon="6.48812"><ele>1220.7</ele></trkpt>
      <trkpt lat="45.867" lon="6.48666"><ele>1211.7</ele></trkpt>
      <trkpt lat="45.86686" lon="6.48665"><ele>1210.6</ele></trkpt>
      <trkpt lat="45.8669" lon="6.4875"><ele>1205.5</ele></trkpt>
      <trkpt lat="45.86633" lon="6.48854"><ele>1197.9</ele></trkpt>
      <trkpt lat="45.86624" lon="6.48917"><ele>1194.3</ele></trkpt>
      <trkpt lat="45.86649" lon="6.48997"><ele>1189.3</ele></trkpt>
      <trkpt lat="45.86725" lon="6.49071"><ele>1184.9</ele></trkpt>
      <trkpt lat="45.86734" lon="6.49108"><ele>1183.5</ele></trkpt>
      <trkpt lat="45.86673" lon="6.49183"><ele>1179.3</ele></trkpt>
      <trkpt lat="45.86668" lon="6.49294"><ele>1174.0</ele></trkpt>
      <trkpt lat="45.86532" lon="6.49394"><ele>1161.6</ele></trkpt>
      <trkpt lat="45.86459" lon="6.49538"><ele>1149.2</ele></trkpt>
      <trkpt lat="45.86429" lon="6.49538"><ele>1146.5</ele></trkpt>
      <trkpt lat="45.86427" lon="6.49474"><ele>1142.7</ele></trkpt>
      <trkpt lat="45.86398" lon="6.49393"><ele>1137.4</ele></trkpt>
      <trkpt lat="45.86431" lon="6.49274"><ele>1128.6</ele></trkpt>
      <trkpt lat="45.8637" lon="6.49268"><ele>1122.2</ele></trkpt>
      <trkpt lat="45.86285" lon="6.49351"><ele>1113.0</ele></trkpt>
      <trkpt lat="45.86321" lon="6.49555"><ele>1101.8</ele></trkpt>
      <trkpt lat="45.86281" lon="6.49634"><ele>1097.3</ele></trkpt>
      <trkpt lat="45.86264" lon="6.49603"><ele>1095.3</ele></trkpt>
      <trkpt lat="45.86256" lon="6.49467"><ele>1088.8</ele></trkpt>
      <trkpt lat="45.86225" lon="6.49437"><ele>1086.1</ele></trkpt>
      <trkpt lat="45.86166" lon="6.4954"><ele>1079.9</ele></trkpt>
      <trkpt lat="45.86071" lon="6.49558"><ele>1077.9</ele></trkpt>
      <trkpt lat="45.86071" lon="6.4958"><ele>1077.6</ele></trkpt>
      <trkpt lat="45.86131" lon="6.49626"><ele>1075.5</ele></trkpt>
      <trkpt lat="45.86123" lon="6.49676"><ele>1072.7</ele></trkpt>
      <trkpt lat="45.86015" lon="6.49643"><ele>1065.1</ele></trkpt>
      <trkpt lat="45.85944" lon="6.49657"><ele>1057.1</ele></trkpt>
      <trkpt lat="45.85872" lon="6.49747"><ele>1045.4</ele></trkpt>
      <trkpt lat="45.85558" lon="6.49941"><ele>1014.6</ele></trkpt>
      <trkpt lat="45.85456" lon="6.50052"><ele>1006.5</ele></trkpt>
      <trkpt lat="45.85381" lon="6.50003"><ele>1001.9</ele></trkpt>
      <trkpt lat="45.85245" lon="6.50045"><ele>997.7</ele></trkpt>
      <trkpt lat="45.84904" lon="6.50315"><ele>989.7</ele></trkpt>
      <trkpt lat="45.84761" lon="6.50345"><ele>986.9</ele></trkpt>
      <trkpt lat="45.84702" lon="6.50449"><ele>985.0</ele></trkpt>
      <trkpt lat="45.84591" lon="6.50479"><ele>982.6</ele></trkpt>
      <trkpt lat="45.8443" lon="6.50568"><ele>980.6</ele></trkpt>
      <trkpt lat="45.84345" lon="6.50578"><ele>981.6</ele></trkpt>
      <trkpt lat="45.84229" lon="6.50643"><ele>984.2</ele></trkpt>
      <trkpt lat="45.84109" lon="6.5064"><ele>985.0</ele></trkpt>
      <trkpt lat="45.84004" lon="6.50678"><ele>985.2</ele></trkpt>
      <trkpt lat="45.83976" lon="6.50763"><ele>985.0</ele></trkpt>
      <trkpt lat="45.8393" lon="6.50821"><ele>984.8</ele></trkpt>
      <trkpt lat="45.8387" lon="6.50784"><ele>983.2</ele></trkpt>
      <trkpt lat="45.83684" lon="6.5082"><ele>976.6</ele></trkpt>
      <trkpt lat="45.83655" lon="6.50885"><ele>973.7</ele></trkpt>
      <trkpt lat="45.83626" lon="6.50862"><ele>972.0</ele></trkpt>
      <trkpt lat="45.83558" lon="6.50869"><ele>969.5</ele></trkpt>
      <trkpt lat="45.83487" lon="6.50842"><ele>966.8</ele></trkpt>
      <trkpt lat="45.83458" lon="6.50848"><ele>965.7</ele></trkpt>
      <trkpt lat="45.83431" lon="6.50894"><ele>964.8</ele></trkpt>
      <trkpt lat="45.83345" lon="6.50854"><ele>963.1</ele></trkpt>
      <trkpt lat="45.83284" lon="6.50894"><ele>962.6</ele></trkpt>
      <trkpt lat="45.83233" lon="6.50844"><ele>965.1</ele></trkpt>
      <trkpt lat="45.83176" lon="6.50879"><ele>967.5</ele></trkpt>
      <trkpt lat="45.83132" lon="6.50841"><ele>970.0</ele></trkpt>
      <trkpt lat="45.82954" lon="6.50998"><ele>981.2</ele></trkpt>
      <trkpt lat="45.82704" lon="6.51026"><ele>956.7</ele></trkpt>
      <trkpt lat="45.82654" lon="6.50995"><ele>947.5</ele></trkpt>
      <trkpt lat="45.8253" lon="6.51088"><ele>947.8</ele></trkpt>
      <trkpt lat="45.82485" lon="6.51168"><ele>949.2</ele></trkpt>
      <trkpt lat="45.82411" lon="6.5122"><ele>952.7</ele></trkpt>
      <trkpt lat="45.82381" lon="6.51283"><ele>955.0</ele></trkpt>
      <trkpt lat="45.82319" lon="6.51196"><ele>946.3</ele></trkpt>
      <trkpt lat="45.82281" lon="6.51185"><ele>941.3</ele></trkpt>
      <trkpt lat="45.82191" lon="6.51385"><ele>926.9</ele></trkpt>
      <trkpt lat="45.82149" lon="6.51441"><ele>923.0</ele></trkpt>
      <trkpt lat="45.82054" lon="6.51506"><ele>918.1</ele></trkpt>
      <trkpt lat="45.81984" lon="6.51623"><ele>913.9</ele></trkpt>
      <trkpt lat="45.819" lon="6.51611"><ele>912.3</ele></trkpt>
      <trkpt lat="45.8181" lon="6.51646"><ele>912.0</ele></trkpt>
      <trkpt lat="45.81778" lon="6.5159"><ele>914.3</ele></trkpt>
      <trkpt lat="45.8179" lon="6.51641"><ele>916.1</ele></trkpt>
      <trkpt lat="45.81755" lon="6.51612"><ele>918.3</ele></trkpt>
      <trkpt lat="45.81766" lon="6.5167"><ele>922.1</ele></trkpt>
      <trkpt lat="45.81725" lon="6.51612"><ele>926.6</ele></trkpt>
      <trkpt lat="45.81663" lon="6.51615"><ele>931.4</ele></trkpt>
      <trkpt lat="45.81667" lon="6.51634"><ele>932.8</ele></trkpt>
      <trkpt lat="45.81714" lon="6.51644"><ele>937.2</ele></trkpt>
      <trkpt lat="45.81726" lon="6.51715"><ele>941.8</ele></trkpt>
      <trkpt lat="45.81706" lon="6.51735"><ele>944.0</ele></trkpt>
      <trkpt lat="45.81289" lon="6.51333"><ele>982.7</ele></trkpt>
      <trkpt lat="45.81286" lon="6.51356"><ele>984.0</ele></trkpt>
      <trkpt lat="45.81344" lon="6.51409"><ele>989.6</ele></trkpt>
      <trkpt lat="45.81383" lon="6.51494"><ele>996.9</ele></trkpt>
      <trkpt lat="45.81494" lon="6.51813"><ele>1026.8</ele></trkpt>
      <trkpt lat="45.81577" lon="6.5198"><ele>1038.2</ele></trkpt>
      <trkpt lat="45.81664" lon="6.52261"><ele>1052.4</ele></trkpt>
      <trkpt lat="45.81672" lon="6.52328"><ele>1055.6</ele></trkpt>
      <trkpt lat="45.81652" lon="6.52351"><ele>1057.6</ele></trkpt>
      <trkpt lat="45.81587" lon="6.52152"><ele>1067.9</ele></trkpt>
      <trkpt lat="45.81403" lon="6.51825"><ele>1079.3</ele></trkpt>
      <trkpt lat="45.8128" lon="6.51675"><ele>1086.8</ele></trkpt>
      <trkpt lat="45.81137" lon="6.51569"><ele>1096.4</ele></trkpt>
      <trkpt lat="45.81066" lon="6.51542"><ele>1101.2</ele></trkpt>
      <trkpt lat="45.8098" lon="6.516"><ele>1107.7</ele></trkpt>
      <trkpt lat="45.8092" lon="6.51586"><ele>1111.9</ele></trkpt>
      <trkpt lat="45.808" lon="6.51682"><ele>1119.8</ele></trkpt>
      <trkpt lat="45.80798" lon="6.51734"><ele>1122.1</ele></trkpt>
      <trkpt lat="45.80974" lon="6.51985"><ele>1139.9</ele></trkpt>
      <trkpt lat="45.80959" lon="6.5201"><ele>1140.9</ele></trkpt>
      <trkpt lat="45.80886" lon="6.51995"><ele>1143.9</ele></trkpt>
      <trkpt lat="45.8082" lon="6.52046"><ele>1148.8</ele></trkpt>
      <trkpt lat="45.80824" lon="6.52069"><ele>1150.5</ele></trkpt>
      <trkpt lat="45.80883" lon="6.52071"><ele>1156.1</ele></trkpt>
      <trkpt lat="45.80952" lon="6.52156"><ele>1164.7</ele></trkpt>
      <trkpt lat="45.80913" lon="6.5218"><ele>1168.4</ele></trkpt>
      <trkpt lat="45.80888" lon="6.52302"><ele>1176.1</ele></trkpt>
      <trkpt lat="45.80843" lon="6.52396"><ele>1181.5</ele></trkpt>
      <trkpt lat="45.80703" lon="6.52555"><ele>1194.3</ele></trkpt>
      <trkpt lat="45.80649" lon="6.52735"><ele>1206.6</ele></trkpt>
      <trkpt lat="45.8056" lon="6.52931"><ele>1225.6</ele></trkpt>
      <trkpt lat="45.80456" lon="6.53078"><ele>1240.1</ele></trkpt>
      <trkpt lat="45.80463" lon="6.53234"><ele>1246.0</ele></trkpt>
      <trkpt lat="45.80437" lon="6.53513"><ele>1252.0</ele></trkpt>
      <trkpt lat="45.80502" lon="6.53703"><ele>1257.3</ele></trkpt>
      <trkpt lat="45.80505" lon="6.53813"><ele>1261.3</ele></trkpt>
      <trkpt lat="45.8046" lon="6.53916"><ele>1265.4</ele></trkpt>
      <trkpt lat="45.80434" lon="6.5406"><ele>1270.2</ele></trkpt>
      <trkpt lat="45.80536" lon="6.54679"><ele>1292.0</ele></trkpt>
      <trkpt lat="45.80527" lon="6.54726"><ele>1293.5</ele></trkpt>
      <trkpt lat="45.80477" lon="6.54776"><ele>1296.2</ele></trkpt>
      <trkpt lat="45.80467" lon="6.54853"><ele>1299.9</ele></trkpt>
      <trkpt lat="45.80435" lon="6.5492"><ele>1304.3</ele></trkpt>
      <trkpt lat="45.80435" lon="6.55022"><ele>1309.9</ele></trkpt>
      <trkpt lat="45.80411" lon="6.55047"><ele>1311.9</ele></trkpt>
      <trkpt lat="45.80386" lon="6.55035"><ele>1313.5</ele></trkpt>
      <trkpt lat="45.8035" lon="6.54926"><ele>1318.5</ele></trkpt>
      <trkpt lat="45.80112" lon="6.54663"><ele>1341.3</ele></trkpt>
      <trkpt lat="45.80003" lon="6.54488"><ele>1355.7</ele></trkpt>
      <trkpt lat="45.79772" lon="6.54228"><ele>1379.8</ele></trkpt>
      <trkpt lat="45.7974" lon="6.54151"><ele>1382.9</ele></trkpt>
      <trkpt lat="45.79678" lon="6.54101"><ele>1385.9</ele></trkpt>
      <trkpt lat="45.79605" lon="6.54089"><ele>1390.0</ele></trkpt>
      <trkpt lat="45.79175" lon="6.54432"><ele>1431.1</ele></trkpt>
      <trkpt lat="45.79027" lon="6.545"><ele>1439.6</ele></trkpt>
      <trkpt lat="45.78905" lon="6.54675"><ele>1452.1</ele></trkpt>
      <trkpt lat="45.78725" lon="6.547"><ele>1447.6</ele></trkpt>
      <trkpt lat="45.78662" lon="6.54735"><ele>1443.0</ele></trkpt>
      <trkpt lat="45.78583" lon="6.54878"><ele>1434.5</ele></trkpt>
      <trkpt lat="45.7852" lon="6.55054"><ele>1433.1</ele></trkpt>
      <trkpt lat="45.78407" lon="6.55195"><ele>1435.5</ele></trkpt>
      <trkpt lat="45.78258" lon="6.55439"><ele>1435.9</ele></trkpt>
      <trkpt lat="45.78128" lon="6.55749"><ele>1431.0</ele></trkpt>
      <trkpt lat="45.78048" lon="6.55817"><ele>1430.4</ele></trkpt>
      <trkpt lat="45.77949" lon="6.55958"><ele>1431.5</ele></trkpt>
      <trkpt lat="45.77863" lon="6.55992"><ele>1433.8</ele></trkpt>
      <trkpt lat="45.77825" lon="6.55963"><ele>1436.3</ele></trkpt>
      <trkpt lat="45.77815" lon="6.55921"><ele>1439.3</ele></trkpt>
      <trkpt lat="45.77861" lon="6.55767"><ele>1450.0</ele></trkpt>
      <trkpt lat="45.7797" lon="6.55531"><ele>1467.4</ele></trkpt>
      <trkpt lat="45.7799" lon="6.55384"><ele>1476.5</ele></trkpt>
      <trkpt lat="45.77985" lon="6.55287"><ele>1482.2</ele></trkpt>
      <trkpt lat="45.78024" lon="6.55112"><ele>1485.6</ele></trkpt>
      <trkpt lat="45.78011" lon="6.54992"><ele>1489.4</ele></trkpt>
      <trkpt lat="45.78137" lon="6.54809"><ele>1500.7</ele></trkpt>
      <trkpt lat="45.78179" lon="6.54641"><ele>1510.3</ele></trkpt>
      <trkpt lat="45.78168" lon="6.5445"><ele>1520.1</ele></trkpt>
      <trkpt lat="45.7813" lon="6.54381"><ele>1524.5</ele></trkpt>
      <trkpt lat="45.7805" lon="6.5433"><ele>1531.2</ele></trkpt>
      <trkpt lat="45.78057" lon="6.54169"><ele>1539.4</ele></trkpt>
      <trkpt lat="45.77983" lon="6.53936"><ele>1549.8</ele></trkpt>
      <trkpt lat="45.7791" lon="6.53787"><ele>1557.7</ele></trkpt>
      <trkpt lat="45.77796" lon="6.53699"><ele>1567.4</ele></trkpt>
      <trkpt lat="45.77648" lon="6.53649"><ele>1578.7</ele></trkpt>
      <trkpt lat="45.77497" lon="6.53554"><ele>1587.0</ele></trkpt>
      <trkpt lat="45.77402" lon="6.53553"><ele>1588.7</ele></trkpt>
      <trkpt lat="45.77336" lon="6.5362"><ele>1591.6</ele></trkpt>
      <trkpt lat="45.77238" lon="6.53645"><ele>1595.7</ele></trkpt>
      <trkpt lat="45.77097" lon="6.53452"><ele>1604.1</ele></trkpt>
      <trkpt lat="45.77028" lon="6.53312"><ele>1609.2</ele></trkpt>
      <trkpt lat="45.76926" lon="6.53216"><ele>1615.3</ele></trkpt>
      <trkpt lat="45.76857" lon="6.53183"><ele>1619.5</ele></trkpt>
      <trkpt lat="45.76696" lon="6.53224"><ele>1631.2</ele></trkpt>
      <trkpt lat="45.76507" lon="6.53342"><ele>1646.3</ele></trkpt>
      <trkpt lat="45.76385" lon="6.53385"><ele>1652.7</ele></trkpt>
      <trkpt lat="45.76354" lon="6.53392"><ele>1654.0</ele></trkpt>
      <trkpt lat="45.76266" lon="6.53344"><ele>1656.5</ele></trkpt>
      <trkpt lat="45.76114" lon="6.53339"><ele>1656.5</ele></trkpt>
      <trkpt lat="45.76032" lon="6.53359"><ele>1655.8</ele></trkpt>
      <trkpt lat="45.75941" lon="6.53418"><ele>1654.2</ele></trkpt>
      <trkpt lat="45.75895" lon="6.5353"><ele>1650.6</ele></trkpt>
      <trkpt lat="45.75841" lon="6.53601"><ele>1647.5</ele></trkpt>
      <trkpt lat="45.75736" lon="6.53908"><ele>1631.5</ele></trkpt>
      <trkpt lat="45.75643" lon="6.54079"><ele>1618.9</ele></trkpt>
      <trkpt lat="45.75608" lon="6.54248"><ele>1608.7</ele></trkpt>
      <trkpt lat="45.75528" lon="6.54476"><ele>1596.4</ele></trkpt>
      <trkpt lat="45.7548" lon="6.54558"><ele>1591.5</ele></trkpt>
      <trkpt lat="45.75057" lon="6.54728"><ele>1560.6</ele></trkpt>
      <trkpt lat="45.74868" lon="6.5477"><ele>1545.6</ele></trkpt>
      <trkpt lat="45.74778" lon="6.54754"><ele>1538.1</ele></trkpt>
      <trkpt lat="45.747" lon="6.54897"><ele>1527.8</ele></trkpt>
      <trkpt lat="45.74527" lon="6.54956"><ele>1514.4</ele></trkpt>
      <trkpt lat="45.74445" lon="6.54927"><ele>1506.4</ele></trkpt>
      <trkpt lat="45.7431" lon="6.55091"><ele>1489.1</ele></trkpt>
      <trkpt lat="45.74292" lon="6.5518"><ele>1482.8</ele></trkpt>
      <trkpt lat="45.74316" lon="6.55312"><ele>1474.9</ele></trkpt>
      <trkpt lat="45.74297" lon="6.55484"><ele>1464.4</ele></trkpt>
      <trkpt lat="45.74323" lon="6.55639"><ele>1454.3</ele></trkpt>
      <trkpt lat="45.74397" lon="6.55793"><ele>1442.6</ele></trkpt>
      <trkpt lat="45.7442" lon="6.55933"><ele>1433.7</ele></trkpt>
      <trkpt lat="45.74366" lon="6.55822"><ele>1426.3</ele></trkpt>
      <trkpt lat="45.74285" lon="6.558"><ele>1421.0</ele></trkpt>
      <trkpt lat="45.74221" lon="6.55748"><ele>1416.8</ele></trkpt>
      <trkpt lat="45.7417" lon="6.55636"><ele>1410.9</ele></trkpt>
      <trkpt lat="45.74157" lon="6.55648"><ele>1409.3</ele></trkpt>
      <trkpt lat="45.74209" lon="6.55933"><ele>1393.2</ele></trkpt>
      <trkpt lat="45.74292" lon="6.56076"><ele>1382.2</ele></trkpt>
      <trkpt lat="45.74336" lon="6.56281"><ele>1370.2</ele></trkpt>
      <trkpt lat="45.74322" lon="6.56326"><ele>1367.4</ele></trkpt>
      <trkpt lat="45.74267" lon="6.56372"><ele>1362.3</ele></trkpt>
      <trkpt lat="45.74263" lon="6.56413"><ele>1359.9</ele></trkpt>
      <trkpt lat="45.74365" lon="6.56641"><ele>1345.5</ele></trkpt>
      <trkpt lat="45.7446" lon="6.56799"><ele>1330.9</ele></trkpt>
      <trkpt lat="45.7446" lon="6.56942"><ele>1320.6</ele></trkpt>
      <trkpt lat="45.74523" lon="6.5703"><ele>1313.0</ele></trkpt>
      <trkpt lat="45.74751" lon="6.57196"><ele>1294.5</ele></trkpt>
      <trkpt lat="45.74794" lon="6.57279"><ele>1287.5</ele></trkpt>
      <trkpt lat="45.74964" lon="6.5748"><ele>1266.8</ele></trkpt>
      <trkpt lat="45.75004" lon="6.57505"><ele>1262.6</ele></trkpt>
      <trkpt lat="45.75055" lon="6.57583"><ele>1255.8</ele></trkpt>
      <trkpt lat="45.75107" lon="6.57611"><ele>1250.6</ele></trkpt>
      <trkpt lat="45.75153" lon="6.57676"><ele>1244.9</ele></trkpt>
      <trkpt lat="45.75163" lon="6.57752"><ele>1240.3</ele></trkpt>
      <trkpt lat="45.75191" lon="6.57771"><ele>1237.6</ele></trkpt>
      <trkpt lat="45.75147" lon="6.57765"><ele>1233.3</ele></trkpt>
      <trkpt lat="45.75093" lon="6.57673"><ele>1225.7</ele></trkpt>
      <trkpt lat="45.74895" lon="6.57615"><ele>1207.2</ele></trkpt>
      <trkpt lat="45.74838" lon="6.57566"><ele>1201.1</ele></trkpt>
      <trkpt lat="45.74681" lon="6.57492"><ele>1188.6</ele></trkpt>
      <trkpt lat="45.74622" lon="6.57427"><ele>1182.5</ele></trkpt>
      <trkpt lat="45.74755" lon="6.57712"><ele>1163.5</ele></trkpt>
      <trkpt lat="45.74783" lon="6.57833"><ele>1157.4</ele></trkpt>
      <trkpt lat="45.74905" lon="6.5791"><ele>1152.2</ele></trkpt>
      <trkpt lat="45.74853" lon="6.57987"><ele>1147.9</ele></trkpt>
      <trkpt lat="45.74922" lon="6.58333"><ele>1134.1</ele></trkpt>
      <trkpt lat="45.75024" lon="6.58479"><ele>1131.6</ele></trkpt>
      <trkpt lat="45.75332" lon="6.59037"><ele>1111.9</ele></trkpt>
      <trkpt lat="45.75389" lon="6.59099"><ele>1106.8</ele></trkpt>
      <trkpt lat="45.75402" lon="6.59154"><ele>1103.9</ele></trkpt>
      <trkpt lat="45.75457" lon="6.59241"><ele>1103.1</ele></trkpt>
      <trkpt lat="45.75521" lon="6.59443"><ele>1106.0</ele></trkpt>
      <trkpt lat="45.75588" lon="6.5952"><ele>1110.0</ele></trkpt>
      <trkpt lat="45.75557" lon="6.5958"><ele>1112.6</ele></trkpt>
      <trkpt lat="45.75551" lon="6.59671"><ele>1117.0</ele></trkpt>
      <trkpt lat="45.75682" lon="6.60043"><ele>1133.8</ele></trkpt>
      <trkpt lat="45.7577" lon="6.60159"><ele>1140.4</ele></trkpt>
      <trkpt lat="45.75817" lon="6.60327"><ele>1147.6</ele></trkpt>
      <trkpt lat="45.75929" lon="6.60487"><ele>1155.2</ele></trkpt>
      <trkpt lat="45.75965" lon="6.60507"><ele>1156.0</ele></trkpt>
      <trkpt lat="45.76053" lon="6.60738"><ele>1160.4</ele></trkpt>
      <trkpt lat="45.76129" lon="6.60852"><ele>1162.9</ele></trkpt>
      <trkpt lat="45.76096" lon="6.60925"><ele>1162.8</ele></trkpt>
      <trkpt lat="45.76102" lon="6.61075"><ele>1163.1</ele></trkpt>
      <trkpt lat="45.76134" lon="6.61251"><ele>1167.9</ele></trkpt>
      <trkpt lat="45.76285" lon="6.61547"><ele>1175.9</ele></trkpt>
      <trkpt lat="45.76325" lon="6.61672"><ele>1175.0</ele></trkpt>
      <trkpt lat="45.76381" lon="6.6171"><ele>1174.2</ele></trkpt>
      <trkpt lat="45.76436" lon="6.61786"><ele>1172.6</ele></trkpt>
      <trkpt lat="45.76459" lon="6.61854"><ele>1171.4</ele></trkpt>
      <trkpt lat="45.76571" lon="6.61959"><ele>1171.3</ele></trkpt>
      <trkpt lat="45.76766" lon="6.62038"><ele>1171.8</ele></trkpt>
      <trkpt lat="45.76828" lon="6.62112"><ele>1170.3</ele></trkpt>
      <trkpt lat="45.76791" lon="6.62116"><ele>1168.5</ele></trkpt>
      <trkpt lat="45.76755" lon="6.62154"><ele>1166.4</ele></trkpt>
      <trkpt lat="45.76718" lon="6.62215"><ele>1163.7</ele></trkpt>
      <trkpt lat="45.76713" lon="6.62265"><ele>1163.5</ele></trkpt>
      <trkpt lat="45.76636" lon="6.62295"><ele>1164.3</ele></trkpt>
      <trkpt lat="45.76555" lon="6.62256"><ele>1165.3</ele></trkpt>
      <trkpt lat="45.7638" lon="6.61996"><ele>1169.9</ele></trkpt>
      <trkpt lat="45.76152" lon="6.61835"><ele>1170.3</ele></trkpt>
      <trkpt lat="45.76126" lon="6.6178"><ele>1170.1</ele></trkpt>
      <trkpt lat="45.76061" lon="6.61723"><ele>1169.3</ele></trkpt>
      <trkpt lat="45.7591" lon="6.61431"><ele>1162.4</ele></trkpt>
      <trkpt lat="45.75789" lon="6.61331"><ele>1159.6</ele></trkpt>
      <trkpt lat="45.75715" lon="6.61144"><ele>1155.2</ele></trkpt>
      <trkpt lat="45.75725" lon="6.61086"><ele>1153.9</ele></trkpt>
      <trkpt lat="45.75707" lon="6.60938"><ele>1151.1</ele></trkpt>
      <trkpt lat="45.75656" lon="6.60853"><ele>1149.1</ele></trkpt>
      <trkpt lat="45.75595" lon="6.60803"><ele>1147.8</ele></trkpt>
      <trkpt lat="45.75507" lon="6.6055"><ele>1141.9</ele></trkpt>
      <trkpt lat="45.75513" lon="6.60492"><ele>1139.5</ele></trkpt>
      <trkpt lat="45.75467" lon="6.60336"><ele>1131.3</ele></trkpt>
      <trkpt lat="45.75257" lon="6.59845"><ele>1098.0</ele></trkpt>
      <trkpt lat="45.75017" lon="6.59523"><ele>1076.6</ele></trkpt>
      <trkpt lat="45.75039" lon="6.59446"><ele>1071.3</ele></trkpt>
      <trkpt lat="45.74995" lon="6.59382"><ele>1065.6</ele></trkpt>
      <trkpt lat="45.74992" lon="6.59306"><ele>1060.5</ele></trkpt>
      <trkpt lat="45.74933" lon="6.59161"><ele>1049.4</ele></trkpt>
      <trkpt lat="45.74902" lon="6.59126"><ele>1048.2</ele></trkpt>
      <trkpt lat="45.74874" lon="6.59131"><ele>1047.4</ele></trkpt>
      <trkpt lat="45.74801" lon="6.59207"><ele>1044.7</ele></trkpt>
      <trkpt lat="45.74783" lon="6.59123"><ele>1043.1</ele></trkpt>
      <trkpt lat="45.74719" lon="6.59016"><ele>1040.5</ele></trkpt>
      <trkpt lat="45.74687" lon="6.58994"><ele>1039.6</ele></trkpt>
      <trkpt lat="45.74673" lon="6.58878"><ele>1037.6</ele></trkpt>
      <trkpt lat="45.74554" lon="6.58791"><ele>1036.4</ele></trkpt>
      <trkpt lat="45.74498" lon="6.58838"><ele>1037.5</ele></trkpt>
      <trkpt lat="45.74473" lon="6.58826"><ele>1037.9</ele></trkpt>
      <trkpt lat="45.74484" lon="6.58607"><ele>1032.3</ele></trkpt>
      <trkpt lat="45.74425" lon="6.5858"><ele>1028.9</ele></trkpt>
      <trkpt lat="45.74404" lon="6.585"><ele>1029.0</ele></trkpt>
      <trkpt lat="45.74321" lon="6.58488"><ele>1029.2</ele></trkpt>
      <trkpt lat="45.74279" lon="6.5854"><ele>1028.3</ele></trkpt>
      <trkpt lat="45.74256" lon="6.58537"><ele>1027.3</ele></trkpt>
      <trkpt lat="45.74272" lon="6.58424"><ele>1023.9</ele></trkpt>
      <trkpt lat="45.74259" lon="6.58353"><ele>1021.7</ele></trkpt>
      <trkpt lat="45.74177" lon="6.58304"><ele>1017.9</ele></trkpt>
      <trkpt lat="45.74039" lon="6.5828"><ele>1013.4</ele></trkpt>
      <trkpt lat="45.73982" lon="6.58186"><ele>1012.1</ele></trkpt>
      <trkpt lat="45.73975" lon="6.5809"><ele>1009.8</ele></trkpt>
      <trkpt lat="45.73911" lon="6.58041"><ele>1005.5</ele></trkpt>
      <trkpt lat="45.73877" lon="6.57921"><ele>999.6</ele></trkpt>
      <trkpt lat="45.73823" lon="6.57846"><ele>992.2</ele></trkpt>
      <trkpt lat="45.73725" lon="6.57752"><ele>982.5</ele></trkpt>
      <trkpt lat="45.73576" lon="6.577"><ele>976.8</ele></trkpt>
      <trkpt lat="45.73331" lon="6.5736"><ele>955.5</ele></trkpt>
      <trkpt lat="45.73249" lon="6.57305"><ele>949.3</ele></trkpt>
      <trkpt lat="45.73198" lon="6.57298"><ele>945.9</ele></trkpt>
      <trkpt lat="45.72961" lon="6.57386"><ele>942.7</ele></trkpt>
      <trkpt lat="45.72845" lon="6.57363"><ele>936.8</ele></trkpt>
      <trkpt lat="45.72622" lon="6.5742"><ele>928.7</ele></trkpt>
      <trkpt lat="45.72608" lon="6.57505"><ele>928.8</ele></trkpt>
      <trkpt lat="45.72621" lon="6.57637"><ele>929.0</ele></trkpt>
      <trkpt lat="45.72577" lon="6.57824"><ele>923.9</ele></trkpt>
      <trkpt lat="45.72581" lon="6.57885"><ele>922.1</ele></trkpt>
      <trkpt lat="45.72511" lon="6.57945"><ele>915.4</ele></trkpt>
      <trkpt lat="45.72484" lon="6.57939"><ele>912.9</ele></trkpt>
      <trkpt lat="45.72452" lon="6.57879"><ele>908.0</ele></trkpt>
      <trkpt lat="45.72396" lon="6.57854"><ele>902.2</ele></trkpt>
      <trkpt lat="45.72233" lon="6.57906"><ele>883.3</ele></trkpt>
      <trkpt lat="45.72162" lon="6.57951"><ele>875.9</ele></trkpt>
      <trkpt lat="45.72134" lon="6.57993"><ele>872.0</ele></trkpt>
      <trkpt lat="45.72044" lon="6.57998"><ele>863.9</ele></trkpt>
      <trkpt lat="45.71998" lon="6.58024"><ele>859.8</ele></trkpt>
      <trkpt lat="45.71863" lon="6.58006"><ele>848.5</ele></trkpt>
      <trkpt lat="45.7178" lon="6.58023"><ele>841.4</ele></trkpt>
      <trkpt lat="45.7165" lon="6.57849"><ele>821.6</ele></trkpt>
      <trkpt lat="45.71566" lon="6.57917"><ele>811.3</ele></trkpt>
      <trkpt lat="45.71491" lon="6.57889"><ele>804.3</ele></trkpt>
      <trkpt lat="45.71501" lon="6.57866"><ele>802.2</ele></trkpt>
      <trkpt lat="45.71576" lon="6.5785"><ele>796.8</ele></trkpt>
      <trkpt lat="45.71629" lon="6.57774"><ele>791.9</ele></trkpt>
      <trkpt lat="45.71687" lon="6.57794"><ele>787.3</ele></trkpt>
      <trkpt lat="45.71698" lon="6.57775"><ele>784.9</ele></trkpt>
      <trkpt lat="45.71628" lon="6.57701"><ele>774.7</ele></trkpt>
      <trkpt lat="45.71537" lon="6.57723"><ele>767.3</ele></trkpt>
      <trkpt lat="45.71464" lon="6.577"><ele>766.4</ele></trkpt>
      <trkpt lat="45.71426" lon="6.57791"><ele>765.3</ele></trkpt>
      <trkpt lat="45.71455" lon="6.57661"><ele>763.5</ele></trkpt>
      <trkpt lat="45.71504" lon="6.57627"><ele>762.5</ele></trkpt>
      <trkpt lat="45.71673" lon="6.57605"><ele>751.0</ele></trkpt>
      <trkpt lat="45.71775" lon="6.57538"><ele>746.7</ele></trkpt>
      <trkpt lat="45.7179" lon="6.57522"><ele>746.2</ele></trkpt>
      <trkpt lat="45.71756" lon="6.5746"><ele>744.8</ele></trkpt>
      <trkpt lat="45.71716" lon="6.57444"><ele>743.4</ele></trkpt>
      <trkpt lat="45.71749" lon="6.57453"><ele>742.2</ele></trkpt>
      <trkpt lat="45.7179" lon="6.57522"><ele>740.0</ele></trkpt>
      <trkpt lat="45.72006" lon="6.57221"><ele>729.7</ele></trkpt>
      <trkpt lat="45.71954" lon="6.56381"><ele>715.1</ele></trkpt>
      <trkpt lat="45.71969" lon="6.56264"><ele>712.7</ele></trkpt>
      <trkpt lat="45.72031" lon="6.56096"><ele>710.2</ele></trkpt>
      <trkpt lat="45.72084" lon="6.56194"><ele>711.4</ele></trkpt>
      <trkpt lat="45.72116" lon="6.56313"><ele>713.3</ele></trkpt>
      <trkpt lat="45.72222" lon="6.56509"><ele>713.7</ele></trkpt>
    </trkseg>
  </trk>
</gpx>
