<?xml version="1.0" encoding="UTF-8"?>
<gpx version="1.1" creator="tools/extract_original.py"
     xmlns="http://www.topografix.com/GPX/1/1">
  <metadata><name>Tag 14: Ferme St Joseph → Isolabona</name></metadata>
  <wpt lat="43.97703" lon="7.39178"><name>Col de Turini</name></wpt>
  <wpt lat="43.955424" lon="7.411971"><name>The Turini curves</name></wpt>
  <wpt lat="43.877652" lon="7.449355"><name>Sospel Old Bridge</name></wpt>
  <wpt lat="43.841522" lon="7.590295"><name>Verrandi Climb</name></wpt>
  <wpt lat="43.849949" lon="7.605608"><name>La Colla Pass</name></wpt>
  <wpt lat="43.881144" lon="7.639676"><name>Ponte di Isolabona</name></wpt>
  <trk>
    <name>Tag 14: Ferme St Joseph → Isolabona</name>
    <trkseg>
      <trkpt lat="44.05188" lon="7.27069"><ele>851.9</ele></trkpt>
      <trkpt lat="44.05092" lon="7.27216"><ele>849.0</ele></trkpt>
      <trkpt lat="44.04922" lon="7.27362"><ele>839.3</ele></trkpt>
      <trkpt lat="44.04909" lon="7.27407"><ele>838.0</ele></trkpt>
      <trkpt lat="44.04935" lon="7.275"><ele>834.6</ele></trkpt>
      <trkpt lat="44.04899" lon="7.27506"><ele>831.0</ele></trkpt>
      <trkpt lat="44.04765" lon="7.27415"><ele>817.2</ele></trkpt>
      <trkpt lat="44.04536" lon="7.2773"><ele>788.1</ele></trkpt>
      <trkpt lat="44.04494" lon="7.27823"><ele>782.8</ele></trkpt>
      <trkpt lat="44.04485" lon="7.2794"><ele>777.7</ele></trkpt>
      <trkpt lat="44.04405" lon="7.28049"><ele>775.6</ele></trkpt>
      <trkpt lat="44.04377" lon="7.28221"><ele>775.1</ele></trkpt>
      <trkpt lat="44.04391" lon="7.28301"><ele>774.5</ele></trkpt>
      <trkpt lat="44.04328" lon="7.28478"><ele>771.7</ele></trkpt>
      <trkpt lat="44.04337" lon="7.28564"><ele>769.4</ele></trkpt>
      <trkpt lat="44.043" lon="7.28651"><ele>767.0</ele></trkpt>
      <trkpt lat="44.0427" lon="7.28871"><ele>765.0</ele></trkpt>
      <trkpt lat="44.04205" lon="7.28854"><ele>758.9</ele></trkpt>
      <trkpt lat="44.04086" lon="7.28918"><ele>748.0</ele></trkpt>
      <trkpt lat="44.03979" lon="7.29054"><ele>738.8</ele></trkpt>
      <trkpt lat="44.03718" lon="7.29218"><ele>722.3</ele></trkpt>
      <trkpt lat="44.03623" lon="7.29318"><ele>716.2</ele></trkpt>
      <trkpt lat="44.03567" lon="7.2945"><ele>712.6</ele></trkpt>
      <trkpt lat="44.03505" lon="7.29507"><ele>708.8</ele></trkpt>
      <trkpt lat="44.03377" lon="7.29701"><ele>695.5</ele></trkpt>
      <trkpt lat="44.03301" lon="7.30135"><ele>681.2</ele></trkpt>
      <trkpt lat="44.03315" lon="7.30163"><ele>681.7</ele></trkpt>
      <trkpt lat="44.0336" lon="7.3018"><ele>682.5</ele></trkpt>
      <trkpt lat="44.03368" lon="7.30302"><ele>684.1</ele></trkpt>
      <trkpt lat="44.03203" lon="7.3047"><ele>673.8</ele></trkpt>
      <trkpt lat="44.0312" lon="7.3061"><ele>665.8</ele></trkpt>
      <trkpt lat="44.03111" lon="7.30675"><ele>663.4</ele></trkpt>
      <trkpt lat="44.03079" lon="7.3073"><ele>661.2</ele></trkpt>
      <trkpt lat="44.02946" lon="7.30883"><ele>653.7</ele></trkpt>
      <trkpt lat="44.02841" lon="7.30951"><ele>648.7</ele></trkpt>
      <trkpt lat="44.02743" lon="7.30983"><ele>644.0</ele></trkpt>
      <trkpt lat="44.02647" lon="7.30972"><ele>638.7</ele></trkpt>
      <trkpt lat="44.02599" lon="7.31009"><ele>634.5</ele></trkpt>
      <trkpt lat="44.02525" lon="7.30992"><ele>628.7</ele></trkpt>
      <trkpt lat="44.02418" lon="7.31013"><ele>621.5</ele></trkpt>
      <trkpt lat="44.02347" lon="7.3098"><ele>616.6</ele></trkpt>
      <trkpt lat="44.02271" lon="7.3104"><ele>612.0</ele></trkpt>
      <trkpt lat="44.02043" lon="7.31092"><ele>601.1</ele></trkpt>
      <trkpt lat="44.01921" lon="7.31089"><ele>596.6</ele></trkpt>
      <trkpt lat="44.01732" lon="7.31289"><ele>593.2</ele></trkpt>
      <trkpt lat="44.01563" lon="7.31299"><ele>585.5</ele></trkpt>
      <trkpt lat="44.01401" lon="7.31375"><ele>578.1</ele></trkpt>
      <trkpt lat="44.01285" lon="7.3137"><ele>574.3</ele></trkpt>
      <trkpt lat="44.0103" lon="7.31268"><ele>564.4</ele></trkpt>
      <trkpt lat="44.00763" lon="7.3122"><ele>555.2</ele></trkpt>
      <trkpt lat="44.00653" lon="7.31239"><ele>554.7</ele></trkpt>
      <trkpt lat="44.00521" lon="7.3119"><ele>551.8</ele></trkpt>
      <trkpt lat="44.00404" lon="7.31107"><ele>546.8</ele></trkpt>
      <trkpt lat="44.00354" lon="7.3111"><ele>544.3</ele></trkpt>
      <trkpt lat="44.00214" lon="7.31206"><ele>538.6</ele></trkpt>
      <trkpt lat="44.00176" lon="7.31124"><ele>537.0</ele></trkpt>
      <trkpt lat="44.00107" lon="7.31111"><ele>534.6</ele></trkpt>
      <trkpt lat="44.0004" lon="7.31141"><ele>531.9</ele></trkpt>
      <trkpt lat="43.99981" lon="7.31208"><ele>529.3</ele></trkpt>
      <trkpt lat="43.99864" lon="7.31601"><ele>526.0</ele></trkpt>
      <trkpt lat="43.99796" lon="7.31702"><ele>523.7</ele></trkpt>
      <trkpt lat="43.99725" lon="7.31726"><ele>521.1</ele></trkpt>
      <trkpt lat="43.99619" lon="7.31817"><ele>516.9</ele></trkpt>
      <trkpt lat="43.99413" lon="7.31872"><ele>511.3</ele></trkpt>
      <trkpt lat="43.98985" lon="7.32088"><ele>505.6</ele></trkpt>
      <trkpt lat="43.98982" lon="7.32118"><ele>507.3</ele></trkpt>
      <trkpt lat="43.99023" lon="7.32153"><ele>510.8</ele></trkpt>
      <trkpt lat="43.99074" lon="7.323"><ele>519.7</ele></trkpt>
      <trkpt lat="43.99079" lon="7.32368"><ele>523.9</ele></trkpt>
      <trkpt lat="43.99009" lon="7.32222"><ele>535.8</ele></trkpt>
      <trkpt lat="43.99029" lon="7.32336"><ele>542.8</ele></trkpt>
      <trkpt lat="43.99136" lon="7.32584"><ele>559.5</ele></trkpt>
      <trkpt lat="43.99097" lon="7.32518"><ele>564.2</ele></trkpt>
      <trkpt lat="43.99058" lon="7.32493"><ele>567.1</ele></trkpt>
      <trkpt lat="43.99032" lon="7.32429"><ele>570.8</ele></trkpt>
      <trkpt lat="43.98984" lon="7.32409"><ele>573.7</ele></trkpt>
      <trkpt lat="43.98963" lon="7.32327"><ele>576.5</ele></trkpt>
      <trkpt lat="43.9888" lon="7.32239"><ele>581.2</ele></trkpt>
      <trkpt lat="43.98843" lon="7.32254"><ele>583.4</ele></trkpt>
      <trkpt lat="43.98801" lon="7.32343"><ele>587.4</ele></trkpt>
      <trkpt lat="43.98722" lon="7.32392"><ele>592.2</ele></trkpt>
      <trkpt lat="43.98721" lon="7.32434"><ele>594.1</ele></trkpt>
      <trkpt lat="43.98745" lon="7.32441"><ele>595.5</ele></trkpt>
      <trkpt lat="43.98793" lon="7.32422"><ele>598.4</ele></trkpt>
      <trkpt lat="43.98837" lon="7.32366"><ele>602.1</ele></trkpt>
      <trkpt lat="43.98866" lon="7.32367"><ele>604.0</ele></trkpt>
      <trkpt lat="43.98981" lon="7.32569"><ele>614.4</ele></trkpt>
      <trkpt lat="43.98984" lon="7.32612"><ele>615.6</ele></trkpt>
      <trkpt lat="43.98875" lon="7.32847"><ele>624.3</ele></trkpt>
      <trkpt lat="43.98949" lon="7.32824"><ele>628.6</ele></trkpt>
      <trkpt lat="43.99079" lon="7.32919"><ele>640.2</ele></trkpt>
      <trkpt lat="43.9907" lon="7.32937"><ele>641.3</ele></trkpt>
      <trkpt lat="43.9899" lon="7.32889"><ele>644.8</ele></trkpt>
      <trkpt lat="43.98929" lon="7.32908"><ele>647.4</ele></trkpt>
      <trkpt lat="43.9897" lon="7.32904"><ele>651.4</ele></trkpt>
      <trkpt lat="43.99028" lon="7.32948"><ele>658.5</ele></trkpt>
      <trkpt lat="43.99105" lon="7.33072"><ele>670.9</ele></trkpt>
      <trkpt lat="43.99091" lon="7.33083"><ele>673.3</ele></trkpt>
      <trkpt lat="43.99064" lon="7.33052"><ele>676.8</ele></trkpt>
      <trkpt lat="43.99072" lon="7.33101"><ele>680.4</ele></trkpt>
      <trkpt lat="43.99041" lon="7.33193"><ele>687.3</ele></trkpt>
      <trkpt lat="43.99104" lon="7.33217"><ele>693.2</ele></trkpt>
      <trkpt lat="43.99161" lon="7.33361"><ele>702.5</ele></trkpt>
      <trkpt lat="43.99203" lon="7.33396"><ele>706.2</ele></trkpt>
      <trkpt lat="43.99187" lon="7.33403"><ele>707.4</ele></trkpt>
      <trkpt lat="43.99093" lon="7.33329"><ele>716.0</ele></trkpt>
      <trkpt lat="43.99071" lon="7.33364"><ele>719.1</ele></trkpt>
      <trkpt lat="43.99051" lon="7.33478"><ele>727.0</ele></trkpt>
      <trkpt lat="43.98999" lon="7.33496"><ele>732.7</ele></trkpt>
      <trkpt lat="43.98922" lon="7.33482"><ele>741.1</ele></trkpt>
      <trkpt lat="43.98664" lon="7.33509"><ele>749.4</ele></trkpt>
      <trkpt lat="43.98563" lon="7.33445"><ele>743.0</ele></trkpt>
      <trkpt lat="43.98549" lon="7.33501"><ele>740.3</ele></trkpt>
      <trkpt lat="43.98575" lon="7.33653"><ele>752.2</ele></trkpt>
      <trkpt lat="43.98515" lon="7.33734"><ele>763.2</ele></trkpt>
      <trkpt lat="43.98562" lon="7.33873"><ele>782.7</ele></trkpt>
      <trkpt lat="43.98546" lon="7.33937"><ele>791.4</ele></trkpt>
      <trkpt lat="43.98551" lon="7.34022"><ele>800.6</ele></trkpt>
      <trkpt lat="43.98503" lon="7.34037"><ele>808.4</ele></trkpt>
      <trkpt lat="43.98423" lon="7.34112"><ele>816.8</ele></trkpt>
      <trkpt lat="43.98395" lon="7.34165"><ele>814.0</ele></trkpt>
      <trkpt lat="43.98356" lon="7.34157"><ele>811.8</ele></trkpt>
      <trkpt lat="43.98309" lon="7.34106"><ele>808.4</ele></trkpt>
      <trkpt lat="43.98287" lon="7.34113"><ele>809.6</ele></trkpt>
      <trkpt lat="43.98297" lon="7.34196"><ele>812.5</ele></trkpt>
      <trkpt lat="43.98281" lon="7.34279"><ele>815.6</ele></trkpt>
      <trkpt lat="43.98365" lon="7.34335"><ele>825.4</ele></trkpt>
      <trkpt lat="43.98454" lon="7.34595"><ele>851.9</ele></trkpt>
      <trkpt lat="43.98434" lon="7.34645"><ele>857.1</ele></trkpt>
      <trkpt lat="43.9845" lon="7.34696"><ele>862.2</ele></trkpt>
      <trkpt lat="43.98434" lon="7.34771"><ele>869.4</ele></trkpt>
      <trkpt lat="43.98481" lon="7.34878"><ele>880.7</ele></trkpt>
      <trkpt lat="43.98432" lon="7.34931"><ele>888.1</ele></trkpt>
      <trkpt lat="43.98424" lon="7.35011"><ele>894.2</ele></trkpt>
      <trkpt lat="43.98524" lon="7.35238"><ele>911.8</ele></trkpt>
      <trkpt lat="43.98466" lon="7.353"><ele>918.3</ele></trkpt>
      <trkpt lat="43.98501" lon="7.35473"><ele>928.7</ele></trkpt>
      <trkpt lat="43.9848" lon="7.35601"><ele>936.6</ele></trkpt>
      <trkpt lat="43.98413" lon="7.35689"><ele>944.9</ele></trkpt>
      <trkpt lat="43.98506" lon="7.35623"><ele>952.4</ele></trkpt>
      <trkpt lat="43.98503" lon="7.35552"><ele>955.5</ele></trkpt>
      <trkpt lat="43.98548" lon="7.35495"><ele>959.9</ele></trkpt>
      <trkpt lat="43.98553" lon="7.35396"><ele>965.8</ele></trkpt>
      <trkpt lat="43.98571" lon="7.35365"><ele>968.3</ele></trkpt>
      <trkpt lat="43.98573" lon="7.35495"><ele>978.9</ele></trkpt>
      <trkpt lat="43.98551" lon="7.35569"><ele>986.7</ele></trkpt>
      <trkpt lat="43.98577" lon="7.35625"><ele>993.2</ele></trkpt>
      <trkpt lat="43.98562" lon="7.35694"><ele>998.3</ele></trkpt>
      <trkpt lat="43.98582" lon="7.35767"><ele>1002.1</ele></trkpt>
      <trkpt lat="43.98596" lon="7.35766"><ele>1003.2</ele></trkpt>
      <trkpt lat="43.98583" lon="7.357"><ele>1006.5</ele></trkpt>
      <trkpt lat="43.98611" lon="7.35638"><ele>1009.8</ele></trkpt>
      <trkpt lat="43.98587" lon="7.35564"><ele>1013.4</ele></trkpt>
      <trkpt lat="43.986" lon="7.35551"><ele>1014.5</ele></trkpt>
      <trkpt lat="43.98629" lon="7.3564"><ele>1018.6</ele></trkpt>
      <trkpt lat="43.98613" lon="7.35731"><ele>1028.4</ele></trkpt>
      <trkpt lat="43.98758" lon="7.35901"><ele>1057.2</ele></trkpt>
      <trkpt lat="43.98764" lon="7.36073"><ele>1074.6</ele></trkpt>
      <trkpt lat="43.98735" lon="7.36137"><ele>1078.3</ele></trkpt>
      <trkpt lat="43.98698" lon="7.36044"><ele>1083.2</ele></trkpt>
      <trkpt lat="43.98654" lon="7.35996"><ele>1081.4</ele></trkpt>
      <trkpt lat="43.9851" lon="7.35948"><ele>1076.6</ele></trkpt>
      <trkpt lat="43.98448" lon="7.35953"><ele>1083.2</ele></trkpt>
      <trkpt lat="43.98424" lon="7.35996"><ele>1087.3</ele></trkpt>
      <trkpt lat="43.98466" lon="7.36389"><ele>1125.2</ele></trkpt>
      <trkpt lat="43.98455" lon="7.36461"><ele>1129.7</ele></trkpt>
      <trkpt lat="43.98488" lon="7.36379"><ele>1135.4</ele></trkpt>
      <trkpt lat="43.98487" lon="7.36299"><ele>1136.7</ele></trkpt>
      <trkpt lat="43.98541" lon="7.3607"><ele>1142.3</ele></trkpt>
      <trkpt lat="43.98563" lon="7.36076"><ele>1144.1</ele></trkpt>
      <trkpt lat="43.98544" lon="7.36174"><ele>1148.9</ele></trkpt>
      <trkpt lat="43.98552" lon="7.36354"><ele>1163.7</ele></trkpt>
      <trkpt lat="43.98534" lon="7.36463"><ele>1174.4</ele></trkpt>
      <trkpt lat="43.98556" lon="7.36565"><ele>1191.4</ele></trkpt>
      <trkpt lat="43.9854" lon="7.367"><ele>1213.2</ele></trkpt>
      <trkpt lat="43.98509" lon="7.36705"><ele>1214.9</ele></trkpt>
      <trkpt lat="43.98424" lon="7.36589"><ele>1220.3</ele></trkpt>
      <trkpt lat="43.98215" lon="7.36445"><ele>1224.0</ele></trkpt>
      <trkpt lat="43.98069" lon="7.36643"><ele>1233.2</ele></trkpt>
      <trkpt lat="43.98228" lon="7.36515"><ele>1246.0</ele></trkpt>
      <trkpt lat="43.9824" lon="7.36528"><ele>1247.4</ele></trkpt>
      <trkpt lat="43.9815" lon="7.36605"><ele>1257.3</ele></trkpt>
      <trkpt lat="43.98119" lon="7.36665"><ele>1265.0</ele></trkpt>
      <trkpt lat="43.98104" lon="7.36778"><ele>1277.0</ele></trkpt>
      <trkpt lat="43.98046" lon="7.36795"><ele>1287.2</ele></trkpt>
      <trkpt lat="43.98003" lon="7.3688"><ele>1299.5</ele></trkpt>
      <trkpt lat="43.97977" lon="7.36873"><ele>1303.9</ele></trkpt>
      <trkpt lat="43.97917" lon="7.3679"><ele>1309.3</ele></trkpt>
      <trkpt lat="43.97872" lon="7.36803"><ele>1310.2</ele></trkpt>
      <trkpt lat="43.97833" lon="7.36785"><ele>1311.0</ele></trkpt>
      <trkpt lat="43.97783" lon="7.36843"><ele>1313.6</ele></trkpt>
      <trkpt lat="43.97705" lon="7.36875"><ele>1318.3</ele></trkpt>
      <trkpt lat="43.97648" lon="7.37089"><ele>1332.2</ele></trkpt>
      <trkpt lat="43.97588" lon="7.37221"><ele>1344.5</ele></trkpt>
      <trkpt lat="43.97585" lon="7.37308"><ele>1352.8</ele></trkpt>
      <trkpt lat="43.97609" lon="7.37341"><ele>1357.4</ele></trkpt>
      <trkpt lat="43.97712" lon="7.37319"><ele>1368.9</ele></trkpt>
      <trkpt lat="43.97778" lon="7.37165"><ele>1380.5</ele></trkpt>
      <trkpt lat="43.97767" lon="7.37073"><ele>1383.8</ele></trkpt>
      <trkpt lat="43.97792" lon="7.37074"><ele>1385.1</ele></trkpt>
      <trkpt lat="43.97808" lon="7.3717"><ele>1388.5</ele></trkpt>
      <trkpt lat="43.97775" lon="7.37358"><ele>1400.6</ele></trkpt>
      <trkpt lat="43.97844" lon="7.37452"><ele>1407.3</ele></trkpt>
      <trkpt lat="43.97785" lon="7.37627"><ele>1416.1</ele></trkpt>
      <trkpt lat="43.97785" lon="7.37793"><ele>1429.2</ele></trkpt>
      <trkpt lat="43.97821" lon="7.37851"><ele>1436.2</ele></trkpt>
      <trkpt lat="43.9792" lon="7.37815"><ele>1452.4</ele></trkpt>
      <trkpt lat="43.97983" lon="7.37858"><ele>1462.7</ele></trkpt>
      <trkpt lat="43.98004" lon="7.37944"><ele>1469.3</ele></trkpt>
      <trkpt lat="43.98053" lon="7.37942"><ele>1474.2</ele></trkpt>
      <trkpt lat="43.98069" lon="7.37964"><ele>1476.6</ele></trkpt>
      <trkpt lat="43.98022" lon="7.38012"><ele>1481.9</ele></trkpt>
      <trkpt lat="43.98021" lon="7.38039"><ele>1483.6</ele></trkpt>
      <trkpt lat="43.98099" lon="7.38102"><ele>1490.9</ele></trkpt>
      <trkpt lat="43.98105" lon="7.38128"><ele>1492.6</ele></trkpt>
      <trkpt lat="43.98064" lon="7.3817"><ele>1495.8</ele></trkpt>
      <trkpt lat="43.98074" lon="7.3825"><ele>1499.4</ele></trkpt>
      <trkpt lat="43.98024" lon="7.38267"><ele>1502.3</ele></trkpt>
      <trkpt lat="43.97966" lon="7.38345"><ele>1507.9</ele></trkpt>
      <trkpt lat="43.98019" lon="7.38441"><ele>1514.3</ele></trkpt>
      <trkpt lat="43.97969" lon="7.3853"><ele>1523.4</ele></trkpt>
      <trkpt lat="43.97966" lon="7.38574"><ele>1527.3</ele></trkpt>
      <trkpt lat="43.98036" lon="7.38686"><ele>1539.8</ele></trkpt>
      <trkpt lat="43.98038" lon="7.38726"><ele>1542.5</ele></trkpt>
      <trkpt lat="43.98003" lon="7.38774"><ele>1547.3</ele></trkpt>
      <trkpt lat="43.9793" lon="7.38773"><ele>1554.1</ele></trkpt>
      <trkpt lat="43.97869" lon="7.38729"><ele>1559.6</ele></trkpt>
      <trkpt lat="43.9785" lon="7.38742"><ele>1561.4</ele></trkpt>
      <trkpt lat="43.97853" lon="7.38829"><ele>1566.5</ele></trkpt>
      <trkpt lat="43.979" lon="7.38899"><ele>1574.6</ele></trkpt>
      <trkpt lat="43.97877" lon="7.38943"><ele>1579.6</ele></trkpt>
      <trkpt lat="43.97872" lon="7.39033"><ele>1588.1</ele></trkpt>
      <trkpt lat="43.97813" lon="7.39058"><ele>1593.7</ele></trkpt>
      <trkpt lat="43.97757" lon="7.3916"><ele>1599.6</ele></trkpt>
      <trkpt lat="43.97693" lon="7.39182"><ele>1601.8</ele></trkpt>
      <trkpt lat="43.97639" lon="7.39434"><ele>1594.6</ele></trkpt>
      <trkpt lat="43.97562" lon="7.39485"><ele>1587.4</ele></trkpt>
      <trkpt lat="43.97576" lon="7.39629"><ele>1579.7</ele></trkpt>
      <trkpt lat="43.97566" lon="7.39675"><ele>1577.4</ele></trkpt>
      <trkpt lat="43.97487" lon="7.39753"><ele>1571.3</ele></trkpt>
      <trkpt lat="43.97464" lon="7.39842"><ele>1565.9</ele></trkpt>
      <trkpt lat="43.97369" lon="7.3995"><ele>1555.9</ele></trkpt>
      <trkpt lat="43.97374" lon="7.4008"><ele>1547.2</ele></trkpt>
      <trkpt lat="43.97417" lon="7.40293"><ele>1537.7</ele></trkpt>
      <trkpt lat="43.97407" lon="7.40089"><ele>1532.2</ele></trkpt>
      <trkpt lat="43.97429" lon="7.39965"><ele>1528.8</ele></trkpt>
      <trkpt lat="43.97432" lon="7.40094"><ele>1517.2</ele></trkpt>
      <trkpt lat="43.97487" lon="7.40276"><ele>1497.3</ele></trkpt>
      <trkpt lat="43.97493" lon="7.40366"><ele>1486.0</ele></trkpt>
      <trkpt lat="43.97429" lon="7.40586"><ele>1465.3</ele></trkpt>
      <trkpt lat="43.97565" lon="7.40313"><ele>1451.4</ele></trkpt>
      <trkpt lat="43.97539" lon="7.40159"><ele>1441.5</ele></trkpt>
      <trkpt lat="43.97601" lon="7.40286"><ele>1433.5</ele></trkpt>
      <trkpt lat="43.97584" lon="7.40394"><ele>1429.4</ele></trkpt>
      <trkpt lat="43.9751" lon="7.40561"><ele>1412.6</ele></trkpt>
      <trkpt lat="43.97501" lon="7.4067"><ele>1400.5</ele></trkpt>
      <trkpt lat="43.97464" lon="7.40785"><ele>1387.5</ele></trkpt>
      <trkpt lat="43.97439" lon="7.40794"><ele>1383.5</ele></trkpt>
      <trkpt lat="43.97382" lon="7.40685"><ele>1374.0</ele></trkpt>
      <trkpt lat="43.97311" lon="7.40628"><ele>1374.6</ele></trkpt>
      <trkpt lat="43.97256" lon="7.40623"><ele>1375.1</ele></trkpt>
      <trkpt lat="43.97187" lon="7.40691"><ele>1369.1</ele></trkpt>
      <trkpt lat="43.97257" lon="7.4065"><ele>1361.7</ele></trkpt>
      <trkpt lat="43.97305" lon="7.40674"><ele>1354.8</ele></trkpt>
      <trkpt lat="43.97375" lon="7.40785"><ele>1337.0</ele></trkpt>
      <trkpt lat="43.97392" lon="7.40904"><ele>1327.2</ele></trkpt>
      <trkpt lat="43.97459" lon="7.40903"><ele>1322.4</ele></trkpt>
      <trkpt lat="43.97525" lon="7.40961"><ele>1318.7</ele></trkpt>
      <trkpt lat="43.97591" lon="7.40882"><ele>1320.9</ele></trkpt>
      <trkpt lat="43.97629" lon="7.4076"><ele>1322.4</ele></trkpt>
      <trkpt lat="43.97631" lon="7.4068"><ele>1321.9</ele></trkpt>
      <trkpt lat="43.97718" lon="7.40528"><ele>1315.7</ele></trkpt>
      <trkpt lat="43.9766" lon="7.4065"><ele>1303.4</ele></trkpt>
      <trkpt lat="43.97663" lon="7.40891"><ele>1276.8</ele></trkpt>
      <trkpt lat="43.97533" lon="7.4113"><ele>1240.3</ele></trkpt>
      <trkpt lat="43.97483" lon="7.41131"><ele>1233.5</ele></trkpt>
      <trkpt lat="43.97394" lon="7.41079"><ele>1220.9</ele></trkpt>
      <trkpt lat="43.97366" lon="7.41105"><ele>1217.1</ele></trkpt>
      <trkpt lat="43.97316" lon="7.41092"><ele>1211.5</ele></trkpt>
      <trkpt lat="43.97232" lon="7.41129"><ele>1202.1</ele></trkpt>
      <trkpt lat="43.97317" lon="7.41115"><ele>1197.4</ele></trkpt>
      <trkpt lat="43.974" lon="7.41136"><ele>1193.7</ele></trkpt>
      <trkpt lat="43.97503" lon="7.41218"><ele>1189.8</ele></trkpt>
      <trkpt lat="43.97583" lon="7.41197"><ele>1187.1</ele></trkpt>
      <trkpt lat="43.97584" lon="7.41212"><ele>1186.1</ele></trkpt>
      <trkpt lat="43.97501" lon="7.41238"><ele>1180.8</ele></trkpt>
      <trkpt lat="43.97363" lon="7.41173"><ele>1173.1</ele></trkpt>
      <trkpt lat="43.97181" lon="7.41231"><ele>1165.6</ele></trkpt>
      <trkpt lat="43.97131" lon="7.41198"><ele>1163.2</ele></trkpt>
      <trkpt lat="43.97094" lon="7.41277"><ele>1158.1</ele></trkpt>
      <trkpt lat="43.9696" lon="7.41362"><ele>1139.3</ele></trkpt>
      <trkpt lat="43.9691" lon="7.41442"><ele>1130.8</ele></trkpt>
      <trkpt lat="43.96858" lon="7.41409"><ele>1124.1</ele></trkpt>
      <trkpt lat="43.96811" lon="7.41423"><ele>1118.5</ele></trkpt>
      <trkpt lat="43.96699" lon="7.41524"><ele>1099.8</ele></trkpt>
      <trkpt lat="43.9666" lon="7.41473"><ele>1093.0</ele></trkpt>
      <trkpt lat="43.96452" lon="7.41368"><ele>1073.1</ele></trkpt>
      <trkpt lat="43.96238" lon="7.41387"><ele>1054.7</ele></trkpt>
      <trkpt lat="43.96428" lon="7.41426"><ele>1047.0</ele></trkpt>
      <trkpt lat="43.96521" lon="7.41486"><ele>1043.6</ele></trkpt>
      <trkpt lat="43.96428" lon="7.41453"><ele>1039.2</ele></trkpt>
      <trkpt lat="43.96279" lon="7.41455"><ele>1029.6</ele></trkpt>
      <trkpt lat="43.96159" lon="7.41414"><ele>1018.9</ele></trkpt>
      <trkpt lat="43.96014" lon="7.41534"><ele>1003.3</ele></trkpt>
      <trkpt lat="43.96001" lon="7.41493"><ele>1001.1</ele></trkpt>
      <trkpt lat="43.9604" lon="7.41413"><ele>996.9</ele></trkpt>
      <trkpt lat="43.96045" lon="7.41348"><ele>994.8</ele></trkpt>
      <trkpt lat="43.96025" lon="7.41293"><ele>992.7</ele></trkpt>
      <trkpt lat="43.95914" lon="7.41287"><ele>987.5</ele></trkpt>
      <trkpt lat="43.95889" lon="7.41214"><ele>983.5</ele></trkpt>
      <trkpt lat="43.95872" lon="7.41209"><ele>982.3</ele></trkpt>
      <trkpt lat="43.95757" lon="7.41282"><ele>973.8</ele></trkpt>
      <trkpt lat="43.95721" lon="7.41235"><ele>970.7</ele></trkpt>
      <trkpt lat="43.95644" lon="7.41218"><ele>965.8</ele></trkpt>
      <trkpt lat="43.95576" lon="7.41155"><ele>963.7</ele></trkpt>
      <trkpt lat="43.95548" lon="7.41182"><ele>962.8</ele></trkpt>
      <trkpt lat="43.95585" lon="7.41171"><ele>961.9</ele></trkpt>
      <trkpt lat="43.95619" lon="7.4121"><ele>961.1</ele></trkpt>
      <trkpt lat="43.95578" lon="7.41186"><ele>960.5</ele></trkpt>
      <trkpt lat="43.95448" lon="7.41205"><ele>955.0</ele></trkpt>
      <trkpt lat="43.9535" lon="7.41331"><ele>933.6</ele></trkpt>
      <trkpt lat="43.95261" lon="7.4131"><ele>926.5</ele></trkpt>
      <trkpt lat="43.95205" lon="7.4127"><ele>922.7</ele></trkpt>
      <trkpt lat="43.95161" lon="7.41286"><ele>919.9</ele></trkpt>
      <trkpt lat="43.95089" lon="7.41398"><ele>908.8</ele></trkpt>
      <trkpt lat="43.95141" lon="7.41506"><ele>898.4</ele></trkpt>
      <trkpt lat="43.9515" lon="7.41562"><ele>892.6</ele></trkpt>
      <trkpt lat="43.95134" lon="7.41587"><ele>889.3</ele></trkpt>
      <trkpt lat="43.95074" lon="7.41601"><ele>880.9</ele></trkpt>
      <trkpt lat="43.9494" lon="7.41537"><ele>868.2</ele></trkpt>
      <trkpt lat="43.94794" lon="7.4156"><ele>856.6</ele></trkpt>
      <trkpt lat="43.94707" lon="7.41691"><ele>847.4</ele></trkpt>
      <trkpt lat="43.94577" lon="7.41686"><ele>841.6</ele></trkpt>
      <trkpt lat="43.94566" lon="7.41789"><ele>836.4</ele></trkpt>
      <trkpt lat="43.94487" lon="7.41835"><ele>830.4</ele></trkpt>
      <trkpt lat="43.94405" lon="7.4173"><ele>821.9</ele></trkpt>
      <trkpt lat="43.94343" lon="7.41695"><ele>816.7</ele></trkpt>
      <trkpt lat="43.94305" lon="7.41507"><ele>809.7</ele></trkpt>
      <trkpt lat="43.94166" lon="7.41316"><ele>795.0</ele></trkpt>
      <trkpt lat="43.94101" lon="7.41321"><ele>788.9</ele></trkpt>
      <trkpt lat="43.94084" lon="7.41301"><ele>786.8</ele></trkpt>
      <trkpt lat="43.94083" lon="7.41343"><ele>783.9</ele></trkpt>
      <trkpt lat="43.94023" lon="7.41379"><ele>778.3</ele></trkpt>
      <trkpt lat="43.9398" lon="7.41338"><ele>775.1</ele></trkpt>
      <trkpt lat="43.93953" lon="7.41259"><ele>772.9</ele></trkpt>
      <trkpt lat="43.93899" lon="7.4131"><ele>770.6</ele></trkpt>
      <trkpt lat="43.93833" lon="7.41309"><ele>767.9</ele></trkpt>
      <trkpt lat="43.93697" lon="7.41207"><ele>762.3</ele></trkpt>
      <trkpt lat="43.93596" lon="7.41077"><ele>762.5</ele></trkpt>
      <trkpt lat="43.9341" lon="7.40963"><ele>765.2</ele></trkpt>
      <trkpt lat="43.93138" lon="7.40964"><ele>772.4</ele></trkpt>
      <trkpt lat="43.9309" lon="7.40926"><ele>774.9</ele></trkpt>
      <trkpt lat="43.93059" lon="7.40932"><ele>776.0</ele></trkpt>
      <trkpt lat="43.92972" lon="7.41019"><ele>777.2</ele></trkpt>
      <trkpt lat="43.92896" lon="7.41159"><ele>772.3</ele></trkpt>
      <trkpt lat="43.92821" lon="7.41211"><ele>764.6</ele></trkpt>
      <trkpt lat="43.928" lon="7.41264"><ele>760.5</ele></trkpt>
      <trkpt lat="43.92793" lon="7.41388"><ele>751.4</ele></trkpt>
      <trkpt lat="43.92773" lon="7.41405"><ele>748.9</ele></trkpt>
      <trkpt lat="43.92684" lon="7.41209"><ele>751.2</ele></trkpt>
      <trkpt lat="43.92591" lon="7.41132"><ele>754.4</ele></trkpt>
      <trkpt lat="43.9246" lon="7.41212"><ele>752.0</ele></trkpt>
      <trkpt lat="43.92382" lon="7.41146"><ele>746.8</ele></trkpt>
      <trkpt lat="43.92268" lon="7.41138"><ele>737.7</ele></trkpt>
      <trkpt lat="43.9226" lon="7.41102"><ele>734.5</ele></trkpt>
      <trkpt lat="43.92291" lon="7.40971"><ele>722.9</ele></trkpt>
      <trkpt lat="43.92247" lon="7.40861"><ele>717.2</ele></trkpt>
      <trkpt lat="43.92263" lon="7.40773"><ele>713.3</ele></trkpt>
      <trkpt lat="43.92222" lon="7.40732"><ele>711.3</ele></trkpt>
      <trkpt lat="43.92247" lon="7.40775"><ele>710.4</ele></trkpt>
      <trkpt lat="43.92206" lon="7.4074"><ele>709.6</ele></trkpt>
      <trkpt lat="43.92212" lon="7.40652"><ele>707.4</ele></trkpt>
      <trkpt lat="43.92002" lon="7.40609"><ele>690.8</ele></trkpt>
      <trkpt lat="43.92137" lon="7.4067"><ele>682.6</ele></trkpt>
      <trkpt lat="43.91994" lon="7.4064"><ele>679.9</ele></trkpt>
      <trkpt lat="43.91952" lon="7.40544"><ele>689.2</ele></trkpt>
      <trkpt lat="43.91955" lon="7.40492"><ele>693.4</ele></trkpt>
      <trkpt lat="43.91917" lon="7.40421"><ele>699.4</ele></trkpt>
      <trkpt lat="43.91847" lon="7.40604"><ele>691.9</ele></trkpt>
      <trkpt lat="43.91827" lon="7.40829"><ele>676.5</ele></trkpt>
      <trkpt lat="43.9171" lon="7.40766"><ele>671.2</ele></trkpt>
      <trkpt lat="43.91639" lon="7.40824"><ele>667.3</ele></trkpt>
      <trkpt lat="43.91648" lon="7.40879"><ele>653.7</ele></trkpt>
      <trkpt lat="43.91627" lon="7.4095"><ele>635.1</ele></trkpt>
      <trkpt lat="43.91556" lon="7.40961"><ele>611.9</ele></trkpt>
      <trkpt lat="43.91544" lon="7.40887"><ele>608.0</ele></trkpt>
      <trkpt lat="43.91535" lon="7.40955"><ele>604.5</ele></trkpt>
      <trkpt lat="43.91508" lon="7.40705"><ele>613.1</ele></trkpt>
      <trkpt lat="43.91448" lon="7.40639"><ele>617.9</ele></trkpt>
      <trkpt lat="43.91409" lon="7.40667"><ele>614.3</ele></trkpt>
      <trkpt lat="43.91318" lon="7.40678"><ele>606.8</ele></trkpt>
      <trkpt lat="43.91242" lon="7.40741"><ele>597.4</ele></trkpt>
      <trkpt lat="43.91148" lon="7.4075"><ele>586.3</ele></trkpt>
      <trkpt lat="43.91173" lon="7.40768"><ele>583.0</ele></trkpt>
      <trkpt lat="43.91246" lon="7.40761"><ele>578.8</ele></trkpt>
      <trkpt lat="43.91171" lon="7.40786"><ele>574.0</ele></trkpt>
      <trkpt lat="43.90982" lon="7.40705"><ele>564.2</ele></trkpt>
      <trkpt lat="43.91081" lon="7.40758"><ele>559.1</ele></trkpt>
      <trkpt lat="43.91118" lon="7.40804"><ele>556.6</ele></trkpt>
      <trkpt lat="43.91078" lon="7.40768"><ele>555.9</ele></trkpt>
      <trkpt lat="43.90877" lon="7.40692"><ele>567.3</ele></trkpt>
      <trkpt lat="43.90806" lon="7.40746"><ele>579.9</ele></trkpt>
      <trkpt lat="43.90802" lon="7.40797"><ele>588.1</ele></trkpt>
      <trkpt lat="43.90721" lon="7.40904"><ele>616.9</ele></trkpt>
      <trkpt lat="43.90677" lon="7.40926"><ele>626.8</ele></trkpt>
      <trkpt lat="43.90687" lon="7.40977"><ele>619.0</ele></trkpt>
      <trkpt lat="43.90664" lon="7.41014"><ele>612.2</ele></trkpt>
      <trkpt lat="43.90668" lon="7.41146"><ele>593.4</ele></trkpt>
      <trkpt lat="43.90648" lon="7.41283"><ele>553.1</ele></trkpt>
      <trkpt lat="43.906" lon="7.41373"><ele>520.7</ele></trkpt>
      <trkpt lat="43.9054" lon="7.41425"><ele>507.3</ele></trkpt>
      <trkpt lat="43.90483" lon="7.41444"><ele>496.1</ele></trkpt>
      <trkpt lat="43.90403" lon="7.41396"><ele>485.1</ele></trkpt>
      <trkpt lat="43.9029" lon="7.4138"><ele>480.6</ele></trkpt>
      <trkpt lat="43.90104" lon="7.41452"><ele>467.0</ele></trkpt>
      <trkpt lat="43.89942" lon="7.41459"><ele>456.0</ele></trkpt>
      <trkpt lat="43.89844" lon="7.41491"><ele>450.1</ele></trkpt>
      <trkpt lat="43.89805" lon="7.41469"><ele>447.6</ele></trkpt>
      <trkpt lat="43.89746" lon="7.41541"><ele>443.0</ele></trkpt>
      <trkpt lat="43.89732" lon="7.41615"><ele>438.9</ele></trkpt>
      <trkpt lat="43.89552" lon="7.41698"><ele>426.3</ele></trkpt>
      <trkpt lat="43.89452" lon="7.41841"><ele>416.4</ele></trkpt>
      <trkpt lat="43.89333" lon="7.41965"><ele>405.0</ele></trkpt>
      <trkpt lat="43.89308" lon="7.41949"><ele>405.3</ele></trkpt>
      <trkpt lat="43.89305" lon="7.418"><ele>406.5</ele></trkpt>
      <trkpt lat="43.89277" lon="7.41783"><ele>407.2</ele></trkpt>
      <trkpt lat="43.89206" lon="7.41901"><ele>412.5</ele></trkpt>
      <trkpt lat="43.89208" lon="7.42098"><ele>412.9</ele></trkpt>
      <trkpt lat="43.89176" lon="7.42187"><ele>410.6</ele></trkpt>
      <trkpt lat="43.89063" lon="7.42323"><ele>407.5</ele></trkpt>
      <trkpt lat="43.89033" lon="7.4233"><ele>406.9</ele></trkpt>
      <trkpt lat="43.88982" lon="7.42287"><ele>407.3</ele></trkpt>
      <trkpt lat="43.88956" lon="7.423"><ele>408.0</ele></trkpt>
      <trkpt lat="43.88952" lon="7.42391"><ele>409.6</ele></trkpt>
      <trkpt lat="43.88871" lon="7.42491"><ele>410.2</ele></trkpt>
      <trkpt lat="43.88723" lon="7.42789"><ele>406.3</ele></trkpt>
      <trkpt lat="43.88583" lon="7.42873"><ele>403.3</ele></trkpt>
      <trkpt lat="43.885" lon="7.42951"><ele>401.9</ele></trkpt>
      <trkpt lat="43.88423" lon="7.42917"><ele>401.4</ele></trkpt>
      <trkpt lat="43.88358" lon="7.4299"><ele>400.6</ele></trkpt>
      <trkpt lat="43.88272" lon="7.43015"><ele>399.3</ele></trkpt>
      <trkpt lat="43.88223" lon="7.43087"><ele>398.1</ele></trkpt>
      <trkpt lat="43.88167" lon="7.43095"><ele>397.2</ele></trkpt>
      <trkpt lat="43.87985" lon="7.43217"><ele>395.3</ele></trkpt>
      <trkpt lat="43.88006" lon="7.43393"><ele>394.7</ele></trkpt>
      <trkpt lat="43.8782" lon="7.43637"><ele>387.1</ele></trkpt>
      <trkpt lat="43.87793" lon="7.4365"><ele>385.8</ele></trkpt>
      <trkpt lat="43.87871" lon="7.43789"><ele>379.9</ele></trkpt>
      <trkpt lat="43.87882" lon="7.43855"><ele>377.6</ele></trkpt>
      <trkpt lat="43.87855" lon="7.43899"><ele>375.8</ele></trkpt>
      <trkpt lat="43.87839" lon="7.44018"><ele>373.5</ele></trkpt>
      <trkpt lat="43.87873" lon="7.4413"><ele>370.9</ele></trkpt>
      <trkpt lat="43.8784" lon="7.44258"><ele>366.7</ele></trkpt>
      <trkpt lat="43.87801" lon="7.44313"><ele>364.3</ele></trkpt>
      <trkpt lat="43.87809" lon="7.44438"><ele>360.3</ele></trkpt>
      <trkpt lat="43.87753" lon="7.45072"><ele>345.9</ele></trkpt>
      <trkpt lat="43.87807" lon="7.45169"><ele>343.4</ele></trkpt>
      <trkpt lat="43.87939" lon="7.45716"><ele>338.6</ele></trkpt>
      <trkpt lat="43.87991" lon="7.46074"><ele>338.9</ele></trkpt>
      <trkpt lat="43.88031" lon="7.46113"><ele>340.7</ele></trkpt>
      <trkpt lat="43.88045" lon="7.46227"><ele>343.7</ele></trkpt>
      <trkpt lat="43.88196" lon="7.46454"><ele>352.3</ele></trkpt>
      <trkpt lat="43.88203" lon="7.46569"><ele>352.9</ele></trkpt>
      <trkpt lat="43.88238" lon="7.46668"><ele>354.5</ele></trkpt>
      <trkpt lat="43.88322" lon="7.468"><ele>359.3</ele></trkpt>
      <trkpt lat="43.88402" lon="7.4687"><ele>362.6</ele></trkpt>
      <trkpt lat="43.88467" lon="7.47026"><ele>365.1</ele></trkpt>
      <trkpt lat="43.88455" lon="7.47072"><ele>363.9</ele></trkpt>
      <trkpt lat="43.88477" lon="7.47205"><ele>360.6</ele></trkpt>
      <trkpt lat="43.88359" lon="7.47397"><ele>348.1</ele></trkpt>
      <trkpt lat="43.88251" lon="7.47641"><ele>331.7</ele></trkpt>
      <trkpt lat="43.8826" lon="7.47868"><ele>324.7</ele></trkpt>
      <trkpt lat="43.88281" lon="7.47886"><ele>324.4</ele></trkpt>
      <trkpt lat="43.88322" lon="7.47809"><ele>323.8</ele></trkpt>
      <trkpt lat="43.88367" lon="7.47835"><ele>323.4</ele></trkpt>
      <trkpt lat="43.88503" lon="7.48176"><ele>324.6</ele></trkpt>
      <trkpt lat="43.8862" lon="7.48313"><ele>326.5</ele></trkpt>
      <trkpt lat="43.88666" lon="7.48406"><ele>327.9</ele></trkpt>
      <trkpt lat="43.88677" lon="7.48562"><ele>330.7</ele></trkpt>
      <trkpt lat="43.8873" lon="7.48691"><ele>333.7</ele></trkpt>
      <trkpt lat="43.88891" lon="7.48696"><ele>341.1</ele></trkpt>
      <trkpt lat="43.89055" lon="7.48548"><ele>349.6</ele></trkpt>
      <trkpt lat="43.89077" lon="7.48572"><ele>348.5</ele></trkpt>
      <trkpt lat="43.8895" lon="7.48806"><ele>343.6</ele></trkpt>
      <trkpt lat="43.88838" lon="7.48953"><ele>343.5</ele></trkpt>
      <trkpt lat="43.88825" lon="7.49066"><ele>342.8</ele></trkpt>
      <trkpt lat="43.8885" lon="7.49259"><ele>348.1</ele></trkpt>
      <trkpt lat="43.88786" lon="7.49598"><ele>377.2</ele></trkpt>
      <trkpt lat="43.88799" lon="7.49735"><ele>389.0</ele></trkpt>
      <trkpt lat="43.88758" lon="7.49782"><ele>394.9</ele></trkpt>
      <trkpt lat="43.88684" lon="7.4982"><ele>402.5</ele></trkpt>
      <trkpt lat="43.88561" lon="7.50105"><ele>423.2</ele></trkpt>
      <trkpt lat="43.88497" lon="7.50145"><ele>429.6</ele></trkpt>
      <trkpt lat="43.88438" lon="7.50134"><ele>433.8</ele></trkpt>
      <trkpt lat="43.88496" lon="7.50174"><ele>438.3</ele></trkpt>
      <trkpt lat="43.88545" lon="7.50178"><ele>441.4</ele></trkpt>
      <trkpt lat="43.885" lon="7.50196"><ele>440.0</ele></trkpt>
      <trkpt lat="43.88366" lon="7.50174"><ele>437.2</ele></trkpt>
      <trkpt lat="43.88557" lon="7.50293"><ele>453.4</ele></trkpt>
      <trkpt lat="43.88658" lon="7.50305"><ele>455.8</ele></trkpt>
      <trkpt lat="43.88704" lon="7.50286"><ele>455.3</ele></trkpt>
      <trkpt lat="43.88629" lon="7.50337"><ele>449.7</ele></trkpt>
      <trkpt lat="43.88495" lon="7.50325"><ele>443.0</ele></trkpt>
      <trkpt lat="43.88605" lon="7.50375"><ele>438.9</ele></trkpt>
      <trkpt lat="43.88685" lon="7.5037"><ele>433.9</ele></trkpt>
      <trkpt lat="43.88698" lon="7.50399"><ele>432.3</ele></trkpt>
      <trkpt lat="43.88532" lon="7.50444"><ele>411.9</ele></trkpt>
      <trkpt lat="43.88471" lon="7.50506"><ele>400.4</ele></trkpt>
      <trkpt lat="43.88459" lon="7.50562"><ele>395.0</ele></trkpt>
      <trkpt lat="43.88362" lon="7.50615"><ele>381.8</ele></trkpt>
      <trkpt lat="43.8837" lon="7.50671"><ele>376.9</ele></trkpt>
      <trkpt lat="43.88345" lon="7.50618"><ele>373.1</ele></trkpt>
      <trkpt lat="43.88399" lon="7.5056"><ele>367.4</ele></trkpt>
      <trkpt lat="43.88323" lon="7.50608"><ele>361.1</ele></trkpt>
      <trkpt lat="43.88331" lon="7.50687"><ele>356.7</ele></trkpt>
      <trkpt lat="43.88279" lon="7.50729"><ele>352.5</ele></trkpt>
      <trkpt lat="43.88232" lon="7.50812"><ele>350.7</ele></trkpt>
      <trkpt lat="43.88248" lon="7.50866"><ele>350.0</ele></trkpt>
      <trkpt lat="43.88225" lon="7.50905"><ele>349.4</ele></trkpt>
      <trkpt lat="43.88155" lon="7.50844"><ele>352.3</ele></trkpt>
      <trkpt lat="43.88189" lon="7.50899"><ele>355.2</ele></trkpt>
      <trkpt lat="43.88227" lon="7.51024"><ele>360.2</ele></trkpt>
      <trkpt lat="43.88226" lon="7.51072"><ele>361.6</ele></trkpt>
      <trkpt lat="43.88308" lon="7.51076"><ele>364.8</ele></trkpt>
      <trkpt lat="43.88387" lon="7.51217"><ele>365.4</ele></trkpt>
      <trkpt lat="43.88451" lon="7.51181"><ele>365.0</ele></trkpt>
      <trkpt lat="43.88535" lon="7.51179"><ele>360.6</ele></trkpt>
      <trkpt lat="43.88549" lon="7.512"><ele>359.3</ele></trkpt>
      <trkpt lat="43.88451" lon="7.51227"><ele>352.8</ele></trkpt>
      <trkpt lat="43.88296" lon="7.51371"><ele>335.8</ele></trkpt>
      <trkpt lat="43.88196" lon="7.51425"><ele>322.9</ele></trkpt>
      <trkpt lat="43.88149" lon="7.51501"><ele>313.3</ele></trkpt>
      <trkpt lat="43.88003" lon="7.51638"><ele>290.8</ele></trkpt>
      <trkpt lat="43.87977" lon="7.51701"><ele>287.5</ele></trkpt>
      <trkpt lat="43.87968" lon="7.51802"><ele>283.0</ele></trkpt>
      <trkpt lat="43.88009" lon="7.51661"><ele>279.6</ele></trkpt>
      <trkpt lat="43.88172" lon="7.51604"><ele>271.1</ele></trkpt>
      <trkpt lat="43.88238" lon="7.5161"><ele>266.2</ele></trkpt>
      <trkpt lat="43.88252" lon="7.51638"><ele>264.3</ele></trkpt>
      <trkpt lat="43.88179" lon="7.51659"><ele>258.3</ele></trkpt>
      <trkpt lat="43.88143" lon="7.51718"><ele>254.1</ele></trkpt>
      <trkpt lat="43.88103" lon="7.51725"><ele>251.1</ele></trkpt>
      <trkpt lat="43.88069" lon="7.51811"><ele>245.9</ele></trkpt>
      <trkpt lat="43.8806" lon="7.5195"><ele>238.6</ele></trkpt>
      <trkpt lat="43.88031" lon="7.52005"><ele>235.4</ele></trkpt>
      <trkpt lat="43.88031" lon="7.52061"><ele>232.8</ele></trkpt>
      <trkpt lat="43.8796" lon="7.5227"><ele>223.1</ele></trkpt>
      <trkpt lat="43.87953" lon="7.52365"><ele>219.8</ele></trkpt>
      <trkpt lat="43.87969" lon="7.52465"><ele>216.4</ele></trkpt>
      <trkpt lat="43.87944" lon="7.52539"><ele>213.9</ele></trkpt>
      <trkpt lat="43.87948" lon="7.52741"><ele>206.9</ele></trkpt>
      <trkpt lat="43.87989" lon="7.52826"><ele>202.8</ele></trkpt>
      <trkpt lat="43.88001" lon="7.52937"><ele>197.4</ele></trkpt>
      <trkpt lat="43.87982" lon="7.5303"><ele>192.0</ele></trkpt>
      <trkpt lat="43.87997" lon="7.53084"><ele>188.7</ele></trkpt>
      <trkpt lat="43.87958" lon="7.53288"><ele>171.8</ele></trkpt>
      <trkpt lat="43.87971" lon="7.53367"><ele>166.0</ele></trkpt>
      <trkpt lat="43.87996" lon="7.53391"><ele>166.5</ele></trkpt>
      <trkpt lat="43.88154" lon="7.53382"><ele>167.8</ele></trkpt>
      <trkpt lat="43.88216" lon="7.53435"><ele>165.1</ele></trkpt>
      <trkpt lat="43.88134" lon="7.53394"><ele>161.4</ele></trkpt>
      <trkpt lat="43.87904" lon="7.53465"><ele>149.9</ele></trkpt>
      <trkpt lat="43.87743" lon="7.53617"><ele>152.3</ele></trkpt>
      <trkpt lat="43.87703" lon="7.53711"><ele>152.8</ele></trkpt>
      <trkpt lat="43.87588" lon="7.53714"><ele>151.9</ele></trkpt>
      <trkpt lat="43.87473" lon="7.53848"><ele>147.3</ele></trkpt>
      <trkpt lat="43.8736" lon="7.53896"><ele>142.3</ele></trkpt>
      <trkpt lat="43.87251" lon="7.53892"><ele>147.2</ele></trkpt>
      <trkpt lat="43.87107" lon="7.54011"><ele>148.6</ele></trkpt>
      <trkpt lat="43.87089" lon="7.54107"><ele>147.3</ele></trkpt>
      <trkpt lat="43.87106" lon="7.54177"><ele>139.9</ele></trkpt>
      <trkpt lat="43.87292" lon="7.54366"><ele>114.1</ele></trkpt>
      <trkpt lat="43.87327" lon="7.54484"><ele>108.2</ele></trkpt>
      <trkpt lat="43.87249" lon="7.54601"><ele>107.7</ele></trkpt>
      <trkpt lat="43.87145" lon="7.54894"><ele>108.0</ele></trkpt>
      <trkpt lat="43.86981" lon="7.54974"><ele>104.9</ele></trkpt>
      <trkpt lat="43.86897" lon="7.5509"><ele>104.0</ele></trkpt>
      <trkpt lat="43.86436" lon="7.56282"><ele>112.9</ele></trkpt>
      <trkpt lat="43.86397" lon="7.56492"><ele>109.4</ele></trkpt>
      <trkpt lat="43.86403" lon="7.57081"><ele>98.8</ele></trkpt>
      <trkpt lat="43.86364" lon="7.57194"><ele>96.7</ele></trkpt>
      <trkpt lat="43.86304" lon="7.5724"><ele>95.3</ele></trkpt>
      <trkpt lat="43.86116" lon="7.57256"><ele>91.7</ele></trkpt>
      <trkpt lat="43.85525" lon="7.57463"><ele>120.2</ele></trkpt>
      <trkpt lat="43.85376" lon="7.57561"><ele>117.4</ele></trkpt>
      <trkpt lat="43.85027" lon="7.57857"><ele>61.2</ele></trkpt>
      <trkpt lat="43.84967" lon="7.57922"><ele>55.5</ele></trkpt>
      <trkpt lat="43.84901" lon="7.58041"><ele>49.2</ele></trkpt>
      <trkpt lat="43.84851" lon="7.58341"><ele>46.4</ele></trkpt>
      <trkpt lat="43.84722" lon="7.58676"><ele>45.7</ele></trkpt>
      <trkpt lat="43.84421" lon="7.59148"><ele>48.9</ele></trkpt>
      <trkpt lat="43.84359" lon="7.59179"><ele>51.4</ele></trkpt>
      <trkpt lat="43.84281" lon="7.59158"><ele>54.3</ele></trkpt>
      <trkpt lat="43.8416" lon="7.59014"><ele>59.9</ele></trkpt>
      <trkpt lat="43.84147" lon="7.59062"><ele>62.2</ele></trkpt>
      <trkpt lat="43.84159" lon="7.59092"><ele>64.3</ele></trkpt>
      <trkpt lat="43.84121" lon="7.59165"><ele>69.6</ele></trkpt>
      <trkpt lat="43.84138" lon="7.59318"><ele>75.9</ele></trkpt>
      <trkpt lat="43.84186" lon="7.59188"><ele>78.4</ele></trkpt>
      <trkpt lat="43.84189" lon="7.59252"><ele>82.9</ele></trkpt>
      <trkpt lat="43.84202" lon="7.59214"><ele>88.5</ele></trkpt>
      <trkpt lat="43.84226" lon="7.59206"><ele>92.3</ele></trkpt>
      <trkpt lat="43.84242" lon="7.59264"><ele>98.9</ele></trkpt>
      <trkpt lat="43.84289" lon="7.59295"><ele>106.7</ele></trkpt>
      <trkpt lat="43.84299" lon="7.59354"><ele>112.5</ele></trkpt>
      <trkpt lat="43.84346" lon="7.59414"><ele>121.0</ele></trkpt>
      <trkpt lat="43.84445" lon="7.59382"><ele>138.9</ele></trkpt>
      <trkpt lat="43.84478" lon="7.59534"><ele>162.0</ele></trkpt>
      <trkpt lat="43.84455" lon="7.59633"><ele>174.8</ele></trkpt>
      <trkpt lat="43.84507" lon="7.59654"><ele>183.2</ele></trkpt>
      <trkpt lat="43.84556" lon="7.59809"><ele>196.5</ele></trkpt>
      <trkpt lat="43.84532" lon="7.59888"><ele>200.6</ele></trkpt>
      <trkpt lat="43.84599" lon="7.59922"><ele>202.5</ele></trkpt>
      <trkpt lat="43.84623" lon="7.60004"><ele>198.6</ele></trkpt>
      <trkpt lat="43.84674" lon="7.59945"><ele>194.4</ele></trkpt>
      <trkpt lat="43.84766" lon="7.59609"><ele>203.7</ele></trkpt>
      <trkpt lat="43.84747" lon="7.59523"><ele>210.3</ele></trkpt>
      <trkpt lat="43.84757" lon="7.59409"><ele>219.4</ele></trkpt>
      <trkpt lat="43.84879" lon="7.59421"><ele>235.4</ele></trkpt>
      <trkpt lat="43.84921" lon="7.596"><ele>253.8</ele></trkpt>
      <trkpt lat="43.84972" lon="7.59635"><ele>261.5</ele></trkpt>
      <trkpt lat="43.84976" lon="7.59746"><ele>267.0</ele></trkpt>
      <trkpt lat="43.84948" lon="7.59648"><ele>272.4</ele></trkpt>
      <trkpt lat="43.84896" lon="7.59628"><ele>278.1</ele></trkpt>
      <trkpt lat="43.84932" lon="7.5967"><ele>283.3</ele></trkpt>
      <trkpt lat="43.84935" lon="7.59765"><ele>290.8</ele></trkpt>
      <trkpt lat="43.84998" lon="7.59911"><ele>302.6</ele></trkpt>
      <trkpt lat="43.84937" lon="7.5984"><ele>310.1</ele></trkpt>
      <trkpt lat="43.84905" lon="7.59902"><ele>314.2</ele></trkpt>
      <trkpt lat="43.84959" lon="7.60022"><ele>321.5</ele></trkpt>
      <trkpt lat="43.84923" lon="7.60199"><ele>330.8</ele></trkpt>
      <trkpt lat="43.84931" lon="7.6034"><ele>339.1</ele></trkpt>
      <trkpt lat="43.84829" lon="7.6052"><ele>353.8</ele></trkpt>
      <trkpt lat="43.84781" lon="7.60524"><ele>358.0</ele></trkpt>
      <trkpt lat="43.84749" lon="7.60591"><ele>362.9</ele></trkpt>
      <trkpt lat="43.84701" lon="7.60632"><ele>367.4</ele></trkpt>
      <trkpt lat="43.84762" lon="7.6061"><ele>371.9</ele></trkpt>
      <trkpt lat="43.84783" lon="7.60561"><ele>374.8</ele></trkpt>
      <trkpt lat="43.84852" lon="7.60585"><ele>380.3</ele></trkpt>
      <trkpt lat="43.85029" lon="7.60397"><ele>398.8</ele></trkpt>
      <trkpt lat="43.85026" lon="7.60432"><ele>401.2</ele></trkpt>
      <trkpt lat="43.84962" lon="7.60539"><ele>409.3</ele></trkpt>
      <trkpt lat="43.85025" lon="7.60588"><ele>413.6</ele></trkpt>
      <trkpt lat="43.85058" lon="7.60564"><ele>415.9</ele></trkpt>
      <trkpt lat="43.85176" lon="7.60551"><ele>415.2</ele></trkpt>
      <trkpt lat="43.85288" lon="7.60615"><ele>408.7</ele></trkpt>
      <trkpt lat="43.85375" lon="7.60728"><ele>399.3</ele></trkpt>
      <trkpt lat="43.85429" lon="7.60707"><ele>394.4</ele></trkpt>
      <trkpt lat="43.85497" lon="7.6072"><ele>387.6</ele></trkpt>
      <trkpt lat="43.85527" lon="7.60865"><ele>377.1</ele></trkpt>
      <trkpt lat="43.85531" lon="7.61102"><ele>364.4</ele></trkpt>
      <trkpt lat="43.85558" lon="7.61288"><ele>360.9</ele></trkpt>
      <trkpt lat="43.85667" lon="7.61225"><ele>359.3</ele></trkpt>
      <trkpt lat="43.85872" lon="7.61197"><ele>347.3</ele></trkpt>
      <trkpt lat="43.85898" lon="7.61213"><ele>344.4</ele></trkpt>
      <trkpt lat="43.85917" lon="7.61287"><ele>339.3</ele></trkpt>
      <trkpt lat="43.85991" lon="7.61358"><ele>333.6</ele></trkpt>
      <trkpt lat="43.86054" lon="7.61269"><ele>329.0</ele></trkpt>
      <trkpt lat="43.86072" lon="7.61188"><ele>327.4</ele></trkpt>
      <trkpt lat="43.86124" lon="7.61118"><ele>325.7</ele></trkpt>
      <trkpt lat="43.86211" lon="7.61108"><ele>322.4</ele></trkpt>
      <trkpt lat="43.86232" lon="7.60932"><ele>315.8</ele></trkpt>
      <trkpt lat="43.86251" lon="7.60916"><ele>312.8</ele></trkpt>
      <trkpt lat="43.86344" lon="7.60977"><ele>299.0</ele></trkpt>
      <trkpt lat="43.86415" lon="7.60992"><ele>289.2</ele></trkpt>
      <trkpt lat="43.86497" lon="7.61082"><ele>275.3</ele></trkpt>
      <trkpt lat="43.8653" lon="7.61168"><ele>269.6</ele></trkpt>
      <trkpt lat="43.86608" lon="7.61216"><ele>267.3</ele></trkpt>
      <trkpt lat="43.86619" lon="7.61155"><ele>266.0</ele></trkpt>
      <trkpt lat="43.86767" lon="7.60885"><ele>261.5</ele></trkpt>
      <trkpt lat="43.86866" lon="7.60974"><ele>246.2</ele></trkpt>
      <trkpt lat="43.86911" lon="7.60932"><ele>239.4</ele></trkpt>
      <trkpt lat="43.8693" lon="7.60982"><ele>234.6</ele></trkpt>
      <trkpt lat="43.86989" lon="7.61035"><ele>226.8</ele></trkpt>
      <trkpt lat="43.87057" lon="7.61061"><ele>222.5</ele></trkpt>
      <trkpt lat="43.87128" lon="7.61058"><ele>218.1</ele></trkpt>
      <trkpt lat="43.87174" lon="7.61033"><ele>215.8</ele></trkpt>
      <trkpt lat="43.87267" lon="7.60921"><ele>215.0</ele></trkpt>
      <trkpt lat="43.87327" lon="7.60816"><ele>210.5</ele></trkpt>
      <trkpt lat="43.87373" lon="7.60849"><ele>206.2</ele></trkpt>
      <trkpt lat="43.87553" lon="7.60765"><ele>195.1</ele></trkpt>
      <trkpt lat="43.87583" lon="7.60722"><ele>193.1</ele></trkpt>
      <trkpt lat="43.87603" lon="7.60639"><ele>188.3</ele></trkpt>
      <trkpt lat="43.87644" lon="7.60658"><ele>184.7</ele></trkpt>
      <trkpt lat="43.87864" lon="7.60571"><ele>166.3</ele></trkpt>
      <trkpt lat="43.87894" lon="7.60585"><ele>163.7</ele></trkpt>
      <trkpt lat="43.877" lon="7.60687"><ele>157.2</ele></trkpt>
      <trkpt lat="43.87571" lon="7.60878"><ele>149.7</ele></trkpt>
      <trkpt lat="43.87365" lon="7.60986"><ele>143.8</ele></trkpt>
      <trkpt lat="43.87299" lon="7.61094"><ele>141.0</ele></trkpt>
      <trkpt lat="43.87257" lon="7.61209"><ele>136.1</ele></trkpt>
      <trkpt lat="43.87183" lon="7.61275"><ele>131.5</ele></trkpt>
      <trkpt lat="43.87096" lon="7.61279"><ele>128.4</ele></trkpt>
      <trkpt lat="43.86995" lon="7.61427"><ele>121.8</ele></trkpt>
      <trkpt lat="43.86918" lon="7.61414"><ele>117.3</ele></trkpt>
      <trkpt lat="43.86842" lon="7.61433"><ele>114.1</ele></trkpt>
      <trkpt lat="43.86706" lon="7.61571"><ele>109.7</ele></trkpt>
      <trkpt lat="43.8649" lon="7.61622"><ele>106.3</ele></trkpt>
      <trkpt lat="43.86403" lon="7.61691"><ele>103.4</ele></trkpt>
      <trkpt lat="43.86323" lon="7.61887"><ele>90.0</ele></trkpt>
      <trkpt lat="43.86279" lon="7.619"><ele>86.5</ele></trkpt>
      <trkpt lat="43.86214" lon="7.61979"><ele>81.2</ele></trkpt>
      <trkpt lat="43.86206" lon="7.62205"><ele>74.7</ele></trkpt>
      <trkpt lat="43.86225" lon="7.62244"><ele>73.9</ele></trkpt>
      <trkpt lat="43.86282" lon="7.62279"><ele>72.6</ele></trkpt>
      <trkpt lat="43.86437" lon="7.62277"><ele>75.1</ele></trkpt>
      <trkpt lat="43.8659" lon="7.62446"><ele>80.3</ele></trkpt>
      <trkpt lat="43.8675" lon="7.62526"><ele>82.6</ele></trkpt>
      <trkpt lat="43.87096" lon="7.62553"><ele>86.4</ele></trkpt>
      <trkpt lat="43.87136" lon="7.62624"><ele>87.2</ele></trkpt>
      <trkpt lat="43.87154" lon="7.62837"><ele>88.5</ele></trkpt>
      <trkpt lat="43.87189" lon="7.62929"><ele>89.1</ele></trkpt>
      <trkpt lat="43.87258" lon="7.62968"><ele>89.7</ele></trkpt>
      <trkpt lat="43.87348" lon="7.62934"><ele>90.2</ele></trkpt>
      <trkpt lat="43.87393" lon="7.62957"><ele>90.5</ele></trkpt>
      <trkpt lat="43.87447" lon="7.63079"><ele>90.8</ele></trkpt>
      <trkpt lat="43.87473" lon="7.63351"><ele>92.1</ele></trkpt>
      <trkpt lat="43.87514" lon="7.63447"><ele>93.5</ele></trkpt>
      <trkpt lat="43.87904" lon="7.63876"><ele>100.0</ele></trkpt>
      <trkpt lat="43.88075" lon="7.63923"><ele>101.1</ele></trkpt>
      <trkpt lat="43.88112" lon="7.63963"><ele>101.1</ele></trkpt>
    </trkseg>
  </trk>
</gpx>
