<?xml version="1.0" encoding="UTF-8"?>
<gpx version="1.1" creator="tools/extract_original.py"
     xmlns="http://www.topografix.com/GPX/1/1">
  <metadata><name>Tag 7: Beaufort → Séez</name></metadata>
  <wpt lat="45.695481" lon="6.635495"><name>Lac de Roselend</name></wpt>
  <wpt lat="45.691313" lon="6.690459"><name>Cormet de Roselend</name></wpt>
  <wpt lat="45.654869" lon="6.785674"><name>Start of the climb to Versoye</name></wpt>
  <trk>
    <name>Tag 7: Beaufort → Séez</name>
    <trkseg>
      <trkpt lat="45.71744" lon="6.57325"><ele>737.5</ele></trkpt>
      <trkpt lat="45.71766" lon="6.57264"><ele>737.5</ele></trkpt>
      <trkpt lat="45.71811" lon="6.57303"><ele>737.8</ele></trkpt>
      <trkpt lat="45.71795" lon="6.57357"><ele>738.7</ele></trkpt>
      <trkpt lat="45.71805" lon="6.57422"><ele>739.8</ele></trkpt>
      <trkpt lat="45.71764" lon="6.57475"><ele>741.1</ele></trkpt>
      <trkpt lat="45.7179" lon="6.57522"><ele>743.0</ele></trkpt>
      <trkpt lat="45.71673" lon="6.57605"><ele>751.2</ele></trkpt>
      <trkpt lat="45.71504" lon="6.57627"><ele>762.9</ele></trkpt>
      <trkpt lat="45.71455" lon="6.57661"><ele>767.5</ele></trkpt>
      <trkpt lat="45.71419" lon="6.57826"><ele>780.3</ele></trkpt>
      <trkpt lat="45.71324" lon="6.57972"><ele>802.9</ele></trkpt>
      <trkpt lat="45.71301" lon="6.58207"><ele>831.0</ele></trkpt>
      <trkpt lat="45.71197" lon="6.58423"><ele>850.6</ele></trkpt>
      <trkpt lat="45.71181" lon="6.58648"><ele>852.0</ele></trkpt>
      <trkpt lat="45.71143" lon="6.58749"><ele>847.7</ele></trkpt>
      <trkpt lat="45.71108" lon="6.58932"><ele>851.3</ele></trkpt>
      <trkpt lat="45.70991" lon="6.59018"><ele>861.4</ele></trkpt>
      <trkpt lat="45.71029" lon="6.58948"><ele>868.9</ele></trkpt>
      <trkpt lat="45.71013" lon="6.58932"><ele>871.7</ele></trkpt>
      <trkpt lat="45.7086" lon="6.59155"><ele>874.2</ele></trkpt>
      <trkpt lat="45.70788" lon="6.59195"><ele>878.4</ele></trkpt>
      <trkpt lat="45.7072" lon="6.59363"><ele>888.5</ele></trkpt>
      <trkpt lat="45.70706" lon="6.59724"><ele>912.7</ele></trkpt>
      <trkpt lat="45.70657" lon="6.60097"><ele>938.2</ele></trkpt>
      <trkpt lat="45.70754" lon="6.60482"><ele>982.4</ele></trkpt>
      <trkpt lat="45.70698" lon="6.6071"><ele>1007.5</ele></trkpt>
      <trkpt lat="45.70735" lon="6.60874"><ele>1008.4</ele></trkpt>
      <trkpt lat="45.70704" lon="6.60946"><ele>1004.8</ele></trkpt>
      <trkpt lat="45.70675" lon="6.61099"><ele>1005.9</ele></trkpt>
      <trkpt lat="45.70713" lon="6.61193"><ele>1010.2</ele></trkpt>
      <trkpt lat="45.70712" lon="6.61303"><ele>1016.9</ele></trkpt>
      <trkpt lat="45.70643" lon="6.61469"><ele>1030.7</ele></trkpt>
      <trkpt lat="45.70625" lon="6.61821"><ele>1047.8</ele></trkpt>
      <trkpt lat="45.70602" lon="6.6191"><ele>1050.2</ele></trkpt>
      <trkpt lat="45.70549" lon="6.61969"><ele>1051.0</ele></trkpt>
      <trkpt lat="45.70362" lon="6.62058"><ele>1047.1</ele></trkpt>
      <trkpt lat="45.70347" lon="6.62087"><ele>1047.0</ele></trkpt>
      <trkpt lat="45.70375" lon="6.62162"><ele>1046.9</ele></trkpt>
      <trkpt lat="45.70363" lon="6.62269"><ele>1048.1</ele></trkpt>
      <trkpt lat="45.70378" lon="6.62334"><ele>1050.4</ele></trkpt>
      <trkpt lat="45.70425" lon="6.62399"><ele>1053.4</ele></trkpt>
      <trkpt lat="45.70519" lon="6.62437"><ele>1059.7</ele></trkpt>
      <trkpt lat="45.70522" lon="6.62464"><ele>1061.6</ele></trkpt>
      <trkpt lat="45.70368" lon="6.62426"><ele>1076.9</ele></trkpt>
      <trkpt lat="45.70218" lon="6.62323"><ele>1098.9</ele></trkpt>
      <trkpt lat="45.70122" lon="6.62145"><ele>1117.8</ele></trkpt>
      <trkpt lat="45.70078" lon="6.61911"><ele>1129.6</ele></trkpt>
      <trkpt lat="45.69972" lon="6.61841"><ele>1141.2</ele></trkpt>
      <trkpt lat="45.69935" lon="6.6179"><ele>1146.0</ele></trkpt>
      <trkpt lat="45.69847" lon="6.615"><ele>1161.1</ele></trkpt>
      <trkpt lat="45.69815" lon="6.61467"><ele>1164.0</ele></trkpt>
      <trkpt lat="45.6969" lon="6.61427"><ele>1174.9</ele></trkpt>
      <trkpt lat="45.69807" lon="6.61608"><ele>1193.0</ele></trkpt>
      <trkpt lat="45.69795" lon="6.61735"><ele>1203.6</ele></trkpt>
      <trkpt lat="45.69808" lon="6.6188"><ele>1212.2</ele></trkpt>
      <trkpt lat="45.69859" lon="6.6201"><ele>1218.2</ele></trkpt>
      <trkpt lat="45.69772" lon="6.6188"><ele>1230.3</ele></trkpt>
      <trkpt lat="45.69697" lon="6.6167"><ele>1247.2</ele></trkpt>
      <trkpt lat="45.69683" lon="6.6169"><ele>1249.8</ele></trkpt>
      <trkpt lat="45.69729" lon="6.61899"><ele>1258.3</ele></trkpt>
      <trkpt lat="45.69844" lon="6.62104"><ele>1270.2</ele></trkpt>
      <trkpt lat="45.69846" lon="6.622"><ele>1276.5</ele></trkpt>
      <trkpt lat="45.69898" lon="6.62352"><ele>1291.3</ele></trkpt>
      <trkpt lat="45.69954" lon="6.62617"><ele>1303.0</ele></trkpt>
      <trkpt lat="45.70112" lon="6.62827"><ele>1312.0</ele></trkpt>
      <trkpt lat="45.70278" lon="6.62941"><ele>1323.5</ele></trkpt>
      <trkpt lat="45.70497" lon="6.62947"><ele>1336.5</ele></trkpt>
      <trkpt lat="45.70559" lon="6.63002"><ele>1347.2</ele></trkpt>
      <trkpt lat="45.70751" lon="6.63099"><ele>1373.5</ele></trkpt>
      <trkpt lat="45.70729" lon="6.63117"><ele>1376.9</ele></trkpt>
      <trkpt lat="45.70544" lon="6.63095"><ele>1386.7</ele></trkpt>
      <trkpt lat="45.70501" lon="6.63068"><ele>1390.2</ele></trkpt>
      <trkpt lat="45.70192" lon="6.63145"><ele>1421.2</ele></trkpt>
      <trkpt lat="45.70024" lon="6.63067"><ele>1439.4</ele></trkpt>
      <trkpt lat="45.70018" lon="6.63091"><ele>1441.2</ele></trkpt>
      <trkpt lat="45.70164" lon="6.63202"><ele>1451.5</ele></trkpt>
      <trkpt lat="45.70288" lon="6.63225"><ele>1453.6</ele></trkpt>
      <trkpt lat="45.70369" lon="6.63212"><ele>1456.8</ele></trkpt>
      <trkpt lat="45.70528" lon="6.633"><ele>1473.1</ele></trkpt>
      <trkpt lat="45.70621" lon="6.63313"><ele>1479.0</ele></trkpt>
      <trkpt lat="45.7069" lon="6.63289"><ele>1483.5</ele></trkpt>
      <trkpt lat="45.70697" lon="6.63313"><ele>1485.3</ele></trkpt>
      <trkpt lat="45.70525" lon="6.63358"><ele>1500.4</ele></trkpt>
      <trkpt lat="45.70308" lon="6.63345"><ele>1524.0</ele></trkpt>
      <trkpt lat="45.70175" lon="6.63378"><ele>1539.9</ele></trkpt>
      <trkpt lat="45.69962" lon="6.63385"><ele>1562.8</ele></trkpt>
      <trkpt lat="45.6988" lon="6.63421"><ele>1573.2</ele></trkpt>
      <trkpt lat="45.69832" lon="6.63418"><ele>1579.0</ele></trkpt>
      <trkpt lat="45.69789" lon="6.63383"><ele>1584.3</ele></trkpt>
      <trkpt lat="45.69685" lon="6.63377"><ele>1595.8</ele></trkpt>
      <trkpt lat="45.69539" lon="6.633"><ele>1600.2</ele></trkpt>
      <trkpt lat="45.69502" lon="6.63323"><ele>1600.9</ele></trkpt>
      <trkpt lat="45.69495" lon="6.63425"><ele>1596.9</ele></trkpt>
      <trkpt lat="45.69537" lon="6.63542"><ele>1591.7</ele></trkpt>
      <trkpt lat="45.69703" lon="6.63779"><ele>1589.4</ele></trkpt>
      <trkpt lat="45.69801" lon="6.63848"><ele>1593.7</ele></trkpt>
      <trkpt lat="45.69938" lon="6.64034"><ele>1595.6</ele></trkpt>
      <trkpt lat="45.70018" lon="6.64208"><ele>1595.3</ele></trkpt>
      <trkpt lat="45.70069" lon="6.6438"><ele>1594.4</ele></trkpt>
      <trkpt lat="45.70065" lon="6.64471"><ele>1593.7</ele></trkpt>
      <trkpt lat="45.69986" lon="6.64547"><ele>1592.8</ele></trkpt>
      <trkpt lat="45.69977" lon="6.64586"><ele>1592.5</ele></trkpt>
      <trkpt lat="45.70107" lon="6.64885"><ele>1594.3</ele></trkpt>
      <trkpt lat="45.70096" lon="6.64949"><ele>1593.2</ele></trkpt>
      <trkpt lat="45.70021" lon="6.65042"><ele>1588.2</ele></trkpt>
      <trkpt lat="45.70037" lon="6.6529"><ele>1581.6</ele></trkpt>
      <trkpt lat="45.69954" lon="6.65508"><ele>1581.9</ele></trkpt>
      <trkpt lat="45.6988" lon="6.65538"><ele>1584.1</ele></trkpt>
      <trkpt lat="45.69787" lon="6.65632"><ele>1591.2</ele></trkpt>
      <trkpt lat="45.69714" lon="6.65632"><ele>1596.5</ele></trkpt>
      <trkpt lat="45.69494" lon="6.65541"><ele>1616.6</ele></trkpt>
      <trkpt lat="45.69456" lon="6.65558"><ele>1620.3</ele></trkpt>
      <trkpt lat="45.69442" lon="6.6562"><ele>1624.4</ele></trkpt>
      <trkpt lat="45.69461" lon="6.65668"><ele>1627.4</ele></trkpt>
      <trkpt lat="45.69558" lon="6.65674"><ele>1633.9</ele></trkpt>
      <trkpt lat="45.6959" lon="6.65697"><ele>1636.2</ele></trkpt>
      <trkpt lat="45.69587" lon="6.65776"><ele>1641.3</ele></trkpt>
      <trkpt lat="45.69553" lon="6.65798"><ele>1645.1</ele></trkpt>
      <trkpt lat="45.69422" lon="6.65762"><ele>1657.5</ele></trkpt>
      <trkpt lat="45.69393" lon="6.65695"><ele>1662.0</ele></trkpt>
      <trkpt lat="45.69109" lon="6.65366"><ele>1693.9</ele></trkpt>
      <trkpt lat="45.69321" lon="6.65776"><ele>1726.5</ele></trkpt>
      <trkpt lat="45.69433" lon="6.6594"><ele>1739.3</ele></trkpt>
      <trkpt lat="45.69543" lon="6.66053"><ele>1752.5</ele></trkpt>
      <trkpt lat="45.69628" lon="6.66282"><ele>1777.8</ele></trkpt>
      <trkpt lat="45.6963" lon="6.66376"><ele>1785.5</ele></trkpt>
      <trkpt lat="45.69566" lon="6.66503"><ele>1796.8</ele></trkpt>
      <trkpt lat="45.69538" lon="6.66518"><ele>1799.0</ele></trkpt>
      <trkpt lat="45.69456" lon="6.66499"><ele>1805.3</ele></trkpt>
      <trkpt lat="45.69382" lon="6.66556"><ele>1808.7</ele></trkpt>
      <trkpt lat="45.69297" lon="6.67014"><ele>1822.2</ele></trkpt>
      <trkpt lat="45.69182" lon="6.67263"><ele>1839.2</ele></trkpt>
      <trkpt lat="45.69121" lon="6.67324"><ele>1846.0</ele></trkpt>
      <trkpt lat="45.69088" lon="6.67495"><ele>1856.9</ele></trkpt>
      <trkpt lat="45.69119" lon="6.67726"><ele>1868.9</ele></trkpt>
      <trkpt lat="45.69228" lon="6.6792"><ele>1879.6</ele></trkpt>
      <trkpt lat="45.69301" lon="6.67979"><ele>1885.4</ele></trkpt>
      <trkpt lat="45.6934" lon="6.68158"><ele>1893.9</ele></trkpt>
      <trkpt lat="45.69419" lon="6.68237"><ele>1900.2</ele></trkpt>
      <trkpt lat="45.69425" lon="6.68267"><ele>1901.7</ele></trkpt>
      <trkpt lat="45.69403" lon="6.68276"><ele>1903.3</ele></trkpt>
      <trkpt lat="45.69264" lon="6.68184"><ele>1913.3</ele></trkpt>
      <trkpt lat="45.69096" lon="6.67999"><ele>1925.7</ele></trkpt>
      <trkpt lat="45.69033" lon="6.68023"><ele>1929.4</ele></trkpt>
      <trkpt lat="45.69003" lon="6.68109"><ele>1932.9</ele></trkpt>
      <trkpt lat="45.69013" lon="6.68179"><ele>1935.3</ele></trkpt>
      <trkpt lat="45.69087" lon="6.68251"><ele>1939.7</ele></trkpt>
      <trkpt lat="45.69156" lon="6.68404"><ele>1945.0</ele></trkpt>
      <trkpt lat="45.69119" lon="6.68507"><ele>1948.5</ele></trkpt>
      <trkpt lat="45.69105" lon="6.68685"><ele>1953.6</ele></trkpt>
      <trkpt lat="45.69146" lon="6.68768"><ele>1956.8</ele></trkpt>
      <trkpt lat="45.6912" lon="6.68976"><ele>1963.1</ele></trkpt>
      <trkpt lat="45.69159" lon="6.69185"><ele>1964.2</ele></trkpt>
      <trkpt lat="45.69188" lon="6.69234"><ele>1960.4</ele></trkpt>
      <trkpt lat="45.69316" lon="6.69275"><ele>1944.9</ele></trkpt>
      <trkpt lat="45.69386" lon="6.69439"><ele>1930.4</ele></trkpt>
      <trkpt lat="45.69368" lon="6.69679"><ele>1915.0</ele></trkpt>
      <trkpt lat="45.69223" lon="6.7005"><ele>1890.5</ele></trkpt>
      <trkpt lat="45.69212" lon="6.70155"><ele>1884.1</ele></trkpt>
      <trkpt lat="45.69298" lon="6.70479"><ele>1864.0</ele></trkpt>
      <trkpt lat="45.6939" lon="6.71261"><ele>1822.8</ele></trkpt>
      <trkpt lat="45.69445" lon="6.71462"><ele>1809.7</ele></trkpt>
      <trkpt lat="45.69434" lon="6.71618"><ele>1802.2</ele></trkpt>
      <trkpt lat="45.69475" lon="6.71666"><ele>1798.7</ele></trkpt>
      <trkpt lat="45.69551" lon="6.71632"><ele>1793.3</ele></trkpt>
      <trkpt lat="45.69581" lon="6.71649"><ele>1791.1</ele></trkpt>
      <trkpt lat="45.69569" lon="6.71739"><ele>1786.6</ele></trkpt>
      <trkpt lat="45.69584" lon="6.71841"><ele>1782.7</ele></trkpt>
      <trkpt lat="45.69732" lon="6.71951"><ele>1774.4</ele></trkpt>
      <trkpt lat="45.69727" lon="6.72155"><ele>1766.7</ele></trkpt>
      <trkpt lat="45.69771" lon="6.72252"><ele>1763.7</ele></trkpt>
      <trkpt lat="45.6974" lon="6.72373"><ele>1760.2</ele></trkpt>
      <trkpt lat="45.69803" lon="6.72473"><ele>1751.4</ele></trkpt>
      <trkpt lat="45.69805" lon="6.7252"><ele>1748.2</ele></trkpt>
      <trkpt lat="45.69715" lon="6.72508"><ele>1738.1</ele></trkpt>
      <trkpt lat="45.6959" lon="6.72255"><ele>1715.4</ele></trkpt>
      <trkpt lat="45.69635" lon="6.72638"><ele>1691.0</ele></trkpt>
      <trkpt lat="45.69628" lon="6.72675"><ele>1689.3</ele></trkpt>
      <trkpt lat="45.6961" lon="6.72675"><ele>1688.3</ele></trkpt>
      <trkpt lat="45.69578" lon="6.72546"><ele>1682.5</ele></trkpt>
      <trkpt lat="45.69517" lon="6.72414"><ele>1683.2</ele></trkpt>
      <trkpt lat="45.69531" lon="6.72328"><ele>1684.8</ele></trkpt>
      <trkpt lat="45.69519" lon="6.72248"><ele>1684.9</ele></trkpt>
      <trkpt lat="45.69486" lon="6.72203"><ele>1683.7</ele></trkpt>
      <trkpt lat="45.6945" lon="6.72222"><ele>1682.7</ele></trkpt>
      <trkpt lat="45.69389" lon="6.72365"><ele>1676.2</ele></trkpt>
      <trkpt lat="45.69402" lon="6.7265"><ele>1656.9</ele></trkpt>
      <trkpt lat="45.69332" lon="6.73093"><ele>1629.0</ele></trkpt>
      <trkpt lat="45.69329" lon="6.73199"><ele>1620.9</ele></trkpt>
      <trkpt lat="45.69273" lon="6.73232"><ele>1614.6</ele></trkpt>
      <trkpt lat="45.68899" lon="6.73308"><ele>1574.9</ele></trkpt>
      <trkpt lat="45.68796" lon="6.73277"><ele>1569.3</ele></trkpt>
      <trkpt lat="45.6863" lon="6.73327"><ele>1560.3</ele></trkpt>
      <trkpt lat="45.68593" lon="6.73376"><ele>1557.6</ele></trkpt>
      <trkpt lat="45.6858" lon="6.7354"><ele>1550.1</ele></trkpt>
      <trkpt lat="45.68515" lon="6.73671"><ele>1543.3</ele></trkpt>
      <trkpt lat="45.68458" lon="6.73719"><ele>1541.5</ele></trkpt>
      <trkpt lat="45.68302" lon="6.73782"><ele>1537.7</ele></trkpt>
      <trkpt lat="45.68205" lon="6.73944"><ele>1533.6</ele></trkpt>
      <trkpt lat="45.68124" lon="6.73988"><ele>1529.2</ele></trkpt>
      <trkpt lat="45.67828" lon="6.74339"><ele>1504.6</ele></trkpt>
      <trkpt lat="45.67716" lon="6.74623"><ele>1491.4</ele></trkpt>
      <trkpt lat="45.67612" lon="6.74736"><ele>1486.0</ele></trkpt>
      <trkpt lat="45.67571" lon="6.74839"><ele>1482.6</ele></trkpt>
      <trkpt lat="45.67545" lon="6.74988"><ele>1478.3</ele></trkpt>
      <trkpt lat="45.67421" lon="6.7516"><ele>1473.7</ele></trkpt>
      <trkpt lat="45.67414" lon="6.75379"><ele>1471.0</ele></trkpt>
      <trkpt lat="45.67331" lon="6.75524"><ele>1470.0</ele></trkpt>
      <trkpt lat="45.67297" lon="6.75633"><ele>1469.9</ele></trkpt>
      <trkpt lat="45.67221" lon="6.75731"><ele>1467.2</ele></trkpt>
      <trkpt lat="45.67174" lon="6.75754"><ele>1465.8</ele></trkpt>
      <trkpt lat="45.67125" lon="6.75746"><ele>1463.3</ele></trkpt>
      <trkpt lat="45.67045" lon="6.75895"><ele>1449.8</ele></trkpt>
      <trkpt lat="45.67104" lon="6.75992"><ele>1439.7</ele></trkpt>
      <trkpt lat="45.67123" lon="6.7608"><ele>1432.2</ele></trkpt>
      <trkpt lat="45.67122" lon="6.76281"><ele>1417.9</ele></trkpt>
      <trkpt lat="45.67105" lon="6.76351"><ele>1412.9</ele></trkpt>
      <trkpt lat="45.67126" lon="6.7648"><ele>1407.5</ele></trkpt>
      <trkpt lat="45.67108" lon="6.76532"><ele>1406.3</ele></trkpt>
      <trkpt lat="45.67107" lon="6.76779"><ele>1395.5</ele></trkpt>
      <trkpt lat="45.67087" lon="6.76895"><ele>1387.6</ele></trkpt>
      <trkpt lat="45.67017" lon="6.77033"><ele>1375.5</ele></trkpt>
      <trkpt lat="45.67036" lon="6.77092"><ele>1370.5</ele></trkpt>
      <trkpt lat="45.67011" lon="6.77174"><ele>1364.4</ele></trkpt>
      <trkpt lat="45.67007" lon="6.77344"><ele>1353.2</ele></trkpt>
      <trkpt lat="45.66979" lon="6.77442"><ele>1346.6</ele></trkpt>
      <trkpt lat="45.66965" lon="6.7716"><ele>1328.8</ele></trkpt>
      <trkpt lat="45.6693" lon="6.77242"><ele>1322.8</ele></trkpt>
      <trkpt lat="45.66924" lon="6.77417"><ele>1309.9</ele></trkpt>
      <trkpt lat="45.6688" lon="6.77182"><ele>1291.8</ele></trkpt>
      <trkpt lat="45.6686" lon="6.77424"><ele>1280.0</ele></trkpt>
      <trkpt lat="45.66878" lon="6.7747"><ele>1278.0</ele></trkpt>
      <trkpt lat="45.66851" lon="6.77541"><ele>1274.5</ele></trkpt>
      <trkpt lat="45.66859" lon="6.77473"><ele>1269.7</ele></trkpt>
      <trkpt lat="45.66827" lon="6.7742"><ele>1265.0</ele></trkpt>
      <trkpt lat="45.66795" lon="6.77276"><ele>1255.3</ele></trkpt>
      <trkpt lat="45.66814" lon="6.7717"><ele>1248.7</ele></trkpt>
      <trkpt lat="45.66801" lon="6.77217"><ele>1245.0</ele></trkpt>
      <trkpt lat="45.66759" lon="6.77247"><ele>1241.2</ele></trkpt>
      <trkpt lat="45.66784" lon="6.77488"><ele>1229.0</ele></trkpt>
      <trkpt lat="45.6673" lon="6.77366"><ele>1221.9</ele></trkpt>
      <trkpt lat="45.66733" lon="6.77313"><ele>1219.4</ele></trkpt>
      <trkpt lat="45.66708" lon="6.77277"><ele>1216.9</ele></trkpt>
      <trkpt lat="45.66706" lon="6.7721"><ele>1213.6</ele></trkpt>
      <trkpt lat="45.6668" lon="6.77339"><ele>1207.1</ele></trkpt>
      <trkpt lat="45.6671" lon="6.77444"><ele>1202.8</ele></trkpt>
      <trkpt lat="45.66653" lon="6.77604"><ele>1195.3</ele></trkpt>
      <trkpt lat="45.66611" lon="6.77508"><ele>1187.0</ele></trkpt>
      <trkpt lat="45.66621" lon="6.77453"><ele>1183.2</ele></trkpt>
      <trkpt lat="45.66604" lon="6.77433"><ele>1180.8</ele></trkpt>
      <trkpt lat="45.66538" lon="6.77555"><ele>1173.0</ele></trkpt>
      <trkpt lat="45.66499" lon="6.77696"><ele>1166.4</ele></trkpt>
      <trkpt lat="45.66373" lon="6.7782"><ele>1159.7</ele></trkpt>
      <trkpt lat="45.66322" lon="6.77905"><ele>1154.6</ele></trkpt>
      <trkpt lat="45.66245" lon="6.77928"><ele>1149.4</ele></trkpt>
      <trkpt lat="45.66204" lon="6.77989"><ele>1144.7</ele></trkpt>
      <trkpt lat="45.66104" lon="6.78069"><ele>1135.2</ele></trkpt>
      <trkpt lat="45.66038" lon="6.78163"><ele>1127.1</ele></trkpt>
      <trkpt lat="45.65933" lon="6.7818"><ele>1117.7</ele></trkpt>
      <trkpt lat="45.65864" lon="6.78268"><ele>1109.6</ele></trkpt>
      <trkpt lat="45.65646" lon="6.78391"><ele>1093.3</ele></trkpt>
      <trkpt lat="45.65357" lon="6.78684"><ele>1063.6</ele></trkpt>
      <trkpt lat="45.65258" lon="6.78696"><ele>1054.3</ele></trkpt>
      <trkpt lat="45.65133" lon="6.78771"><ele>1041.4</ele></trkpt>
      <trkpt lat="45.65001" lon="6.7878"><ele>1027.4</ele></trkpt>
      <trkpt lat="45.64722" lon="6.78609"><ele>1005.1</ele></trkpt>
      <trkpt lat="45.64562" lon="6.78585"><ele>1000.4</ele></trkpt>
      <trkpt lat="45.64197" lon="6.78615"><ele>979.2</ele></trkpt>
      <trkpt lat="45.64048" lon="6.78509"><ele>971.1</ele></trkpt>
      <trkpt lat="45.63983" lon="6.78504"><ele>969.5</ele></trkpt>
      <trkpt lat="45.63901" lon="6.78437"><ele>970.4</ele></trkpt>
      <trkpt lat="45.6373" lon="6.78466"><ele>971.0</ele></trkpt>
      <trkpt lat="45.6365" lon="6.78526"><ele>966.4</ele></trkpt>
      <trkpt lat="45.63556" lon="6.78556"><ele>960.7</ele></trkpt>
      <trkpt lat="45.63417" lon="6.78547"><ele>952.7</ele></trkpt>
      <trkpt lat="45.63232" lon="6.78416"><ele>948.5</ele></trkpt>
      <trkpt lat="45.63069" lon="6.7841"><ele>946.8</ele></trkpt>
      <trkpt lat="45.62912" lon="6.78298"><ele>935.3</ele></trkpt>
      <trkpt lat="45.62876" lon="6.78331"><ele>930.8</ele></trkpt>
      <trkpt lat="45.6289" lon="6.78461"><ele>921.4</ele></trkpt>
      <trkpt lat="45.63001" lon="6.7856"><ele>912.5</ele></trkpt>
      <trkpt lat="45.62916" lon="6.78534"><ele>906.6</ele></trkpt>
      <trkpt lat="45.62783" lon="6.78374"><ele>895.0</ele></trkpt>
      <trkpt lat="45.62747" lon="6.78189"><ele>886.6</ele></trkpt>
      <trkpt lat="45.6266" lon="6.77979"><ele>872.4</ele></trkpt>
      <trkpt lat="45.62612" lon="6.77912"><ele>867.8</ele></trkpt>
      <trkpt lat="45.62618" lon="6.77794"><ele>862.2</ele></trkpt>
      <trkpt lat="45.62529" lon="6.77774"><ele>853.8</ele></trkpt>
      <trkpt lat="45.62499" lon="6.77689"><ele>846.8</ele></trkpt>
      <trkpt lat="45.62505" lon="6.77551"><ele>838.2</ele></trkpt>
      <trkpt lat="45.62344" lon="6.77167"><ele>824.0</ele></trkpt>
      <trkpt lat="45.62272" lon="6.77104"><ele>821.4</ele></trkpt>
      <trkpt lat="45.62076" lon="6.77094"><ele>815.2</ele></trkpt>
      <trkpt lat="45.6205" lon="6.77136"><ele>814.1</ele></trkpt>
      <trkpt lat="45.62221" lon="6.77587"><ele>807.9</ele></trkpt>
      <trkpt lat="45.62325" lon="6.77793"><ele>809.0</ele></trkpt>
      <trkpt lat="45.62331" lon="6.77852"><ele>809.8</ele></trkpt>
      <trkpt lat="45.62376" lon="6.77857"><ele>810.9</ele></trkpt>
      <trkpt lat="45.62524" lon="6.78056"><ele>816.9</ele></trkpt>
      <trkpt lat="45.62564" lon="6.78178"><ele>820.3</ele></trkpt>
      <trkpt lat="45.62568" lon="6.78334"><ele>824.9</ele></trkpt>
      <trkpt lat="45.62615" lon="6.78497"><ele>829.9</ele></trkpt>
      <trkpt lat="45.62693" lon="6.78611"><ele>834.5</ele></trkpt>
      <trkpt lat="45.62711" lon="6.78691"><ele>836.8</ele></trkpt>
      <trkpt lat="45.62685" lon="6.79056"><ele>849.7</ele></trkpt>
      <trkpt lat="45.62623" lon="6.79331"><ele>862.1</ele></trkpt>
      <trkpt lat="45.62574" lon="6.79409"><ele>865.0</ele></trkpt>
      <trkpt lat="45.62526" lon="6.79441"><ele>866.8</ele></trkpt>
      <trkpt lat="45.62319" lon="6.79886"><ele>877.1</ele></trkpt>
    </trkseg>
  </trk>
</gpx>
