<?xml version="1.0" encoding="UTF-8"?>
<gpx version="1.1" creator="tools/strava_streams_to_gpx.py"
     xmlns="http://www.topografix.com/GPX/1/1">
  <metadata><name>day-13</name></metadata>
  <wpt lat="44.06522" lon="7.195475"><name>Camping at the Ferme Saint-Dalmas</name></wpt>
  <wpt lat="44.064803" lon="7.25705"><name>Camping at Ferme Saint Joseph</name></wpt>
  <trk>
    <name>day-13</name>
    <trkseg>
      <trkpt lat="44.099222" lon="6.987501"><ele>1420</ele></trkpt>
      <trkpt lat="44.099919" lon="6.98746"><ele>1420.8</ele></trkpt>
      <trkpt lat="44.09973" lon="6.98722"><ele>1423.6</ele></trkpt>
      <trkpt lat="44.099023" lon="6.987156"><ele>1427.2</ele></trkpt>
      <trkpt lat="44.098299" lon="6.987161"><ele>1430.8</ele></trkpt>
      <trkpt lat="44.097599" lon="6.986975"><ele>1435.2</ele></trkpt>
      <trkpt lat="44.096907" lon="6.986792"><ele>1439.8</ele></trkpt>
      <trkpt lat="44.096257" lon="6.986374"><ele>1445</ele></trkpt>
      <trkpt lat="44.096089" lon="6.985718"><ele>1444</ele></trkpt>
      <trkpt lat="44.09546" lon="6.986063"><ele>1438.8</ele></trkpt>
      <trkpt lat="44.09488" lon="6.986503"><ele>1434.4</ele></trkpt>
      <trkpt lat="44.094638" lon="6.987408"><ele>1430.4</ele></trkpt>
      <trkpt lat="44.094072" lon="6.988176"><ele>1425</ele></trkpt>
      <trkpt lat="44.09367" lon="6.988968"><ele>1421</ele></trkpt>
      <trkpt lat="44.093454" lon="6.989853"><ele>1415.2</ele></trkpt>
      <trkpt lat="44.093095" lon="6.990736"><ele>1409.2</ele></trkpt>
      <trkpt lat="44.093023" lon="6.991723"><ele>1404.4</ele></trkpt>
      <trkpt lat="44.093043" lon="6.992678"><ele>1400</ele></trkpt>
      <trkpt lat="44.092889" lon="6.992274"><ele>1395.8</ele></trkpt>
      <trkpt lat="44.092723" lon="6.991563"><ele>1391.4</ele></trkpt>
      <trkpt lat="44.092751" lon="6.992568"><ele>1385.4</ele></trkpt>
      <trkpt lat="44.092694" lon="6.992783"><ele>1380.8</ele></trkpt>
      <trkpt lat="44.092535" lon="6.99181"><ele>1376.2</ele></trkpt>
      <trkpt lat="44.092015" lon="6.991799"><ele>1373.2</ele></trkpt>
      <trkpt lat="44.091726" lon="6.9926"><ele>1367.4</ele></trkpt>
      <trkpt lat="44.090948" lon="6.992749"><ele>1361.2</ele></trkpt>
      <trkpt lat="44.090309" lon="6.992714"><ele>1358.8</ele></trkpt>
      <trkpt lat="44.089516" lon="6.992877"><ele>1355.8</ele></trkpt>
      <trkpt lat="44.08892" lon="6.993184"><ele>1355</ele></trkpt>
      <trkpt lat="44.088343" lon="6.993774"><ele>1351.8</ele></trkpt>
      <trkpt lat="44.087668" lon="6.994153"><ele>1348.2</ele></trkpt>
      <trkpt lat="44.086963" lon="6.994121"><ele>1346.6</ele></trkpt>
      <trkpt lat="44.086181" lon="6.994237"><ele>1344</ele></trkpt>
      <trkpt lat="44.085517" lon="6.994396"><ele>1341.8</ele></trkpt>
      <trkpt lat="44.084811" lon="6.99443"><ele>1340</ele></trkpt>
      <trkpt lat="44.084078" lon="6.994576"><ele>1337.6</ele></trkpt>
      <trkpt lat="44.083324" lon="6.994658"><ele>1334</ele></trkpt>
      <trkpt lat="44.082667" lon="6.994473"><ele>1332</ele></trkpt>
      <trkpt lat="44.081971" lon="6.994316"><ele>1329.6</ele></trkpt>
      <trkpt lat="44.081255" lon="6.994063"><ele>1326.4</ele></trkpt>
      <trkpt lat="44.080518" lon="6.99397"><ele>1324.4</ele></trkpt>
      <trkpt lat="44.079864" lon="6.993818"><ele>1323</ele></trkpt>
      <trkpt lat="44.079124" lon="6.993736"><ele>1318.4</ele></trkpt>
      <trkpt lat="44.078507" lon="6.993414"><ele>1313.2</ele></trkpt>
      <trkpt lat="44.077822" lon="6.992756"><ele>1307.6</ele></trkpt>
      <trkpt lat="44.077354" lon="6.992113"><ele>1305</ele></trkpt>
      <trkpt lat="44.076888" lon="6.991344"><ele>1303</ele></trkpt>
      <trkpt lat="44.076277" lon="6.990745"><ele>1301.4</ele></trkpt>
      <trkpt lat="44.075751" lon="6.990231"><ele>1299.4</ele></trkpt>
      <trkpt lat="44.075091" lon="6.989861"><ele>1296</ele></trkpt>
      <trkpt lat="44.074552" lon="6.989126"><ele>1291</ele></trkpt>
      <trkpt lat="44.07405" lon="6.988487"><ele>1287</ele></trkpt>
      <trkpt lat="44.073523" lon="6.987849"><ele>1283.2</ele></trkpt>
      <trkpt lat="44.072903" lon="6.987365"><ele>1279.8</ele></trkpt>
      <trkpt lat="44.072117" lon="6.987073"><ele>1276.4</ele></trkpt>
      <trkpt lat="44.071478" lon="6.9868"><ele>1273.2</ele></trkpt>
      <trkpt lat="44.070793" lon="6.986395"><ele>1270.2</ele></trkpt>
      <trkpt lat="44.070145" lon="6.986002"><ele>1269</ele></trkpt>
      <trkpt lat="44.069454" lon="6.986003"><ele>1266.2</ele></trkpt>
      <trkpt lat="44.06876" lon="6.985889"><ele>1263.2</ele></trkpt>
      <trkpt lat="44.068001" lon="6.985604"><ele>1260</ele></trkpt>
      <trkpt lat="44.06736" lon="6.985199"><ele>1257.4</ele></trkpt>
      <trkpt lat="44.066661" lon="6.985146"><ele>1254.6</ele></trkpt>
      <trkpt lat="44.066057" lon="6.98463"><ele>1252.2</ele></trkpt>
      <trkpt lat="44.065357" lon="6.984268"><ele>1250.2</ele></trkpt>
      <trkpt lat="44.064628" lon="6.984062"><ele>1245.4</ele></trkpt>
      <trkpt lat="44.063884" lon="6.983951"><ele>1242.2</ele></trkpt>
      <trkpt lat="44.063264" lon="6.983781"><ele>1239.8</ele></trkpt>
      <trkpt lat="44.062703" lon="6.983111"><ele>1236.2</ele></trkpt>
      <trkpt lat="44.062123" lon="6.982642"><ele>1232.6</ele></trkpt>
      <trkpt lat="44.061401" lon="6.982336"><ele>1227.4</ele></trkpt>
      <trkpt lat="44.060668" lon="6.982285"><ele>1224.8</ele></trkpt>
      <trkpt lat="44.059887" lon="6.982139"><ele>1220</ele></trkpt>
      <trkpt lat="44.059188" lon="6.982149"><ele>1212.8</ele></trkpt>
      <trkpt lat="44.058499" lon="6.982395"><ele>1205.4</ele></trkpt>
      <trkpt lat="44.057817" lon="6.982409"><ele>1200.6</ele></trkpt>
      <trkpt lat="44.057182" lon="6.981945"><ele>1196</ele></trkpt>
      <trkpt lat="44.056513" lon="6.981535"><ele>1191.6</ele></trkpt>
      <trkpt lat="44.055809" lon="6.981778"><ele>1186.6</ele></trkpt>
      <trkpt lat="44.055115" lon="6.982009"><ele>1180.6</ele></trkpt>
      <trkpt lat="44.054426" lon="6.981707"><ele>1174.8</ele></trkpt>
      <trkpt lat="44.053808" lon="6.981011"><ele>1172</ele></trkpt>
      <trkpt lat="44.053116" lon="6.981319"><ele>1167</ele></trkpt>
      <trkpt lat="44.052422" lon="6.981391"><ele>1160.4</ele></trkpt>
      <trkpt lat="44.051692" lon="6.98147"><ele>1154.2</ele></trkpt>
      <trkpt lat="44.051066" lon="6.981141"><ele>1150.6</ele></trkpt>
      <trkpt lat="44.050405" lon="6.981547"><ele>1148.6</ele></trkpt>
      <trkpt lat="44.04995" lon="6.980963"><ele>1144.8</ele></trkpt>
      <trkpt lat="44.049713" lon="6.980007"><ele>1140.2</ele></trkpt>
      <trkpt lat="44.049512" lon="6.979129"><ele>1135.8</ele></trkpt>
      <trkpt lat="44.049759" lon="6.978182"><ele>1132</ele></trkpt>
      <trkpt lat="44.049479" lon="6.977291"><ele>1128</ele></trkpt>
      <trkpt lat="44.048818" lon="6.976988"><ele>1124.6</ele></trkpt>
      <trkpt lat="44.048102" lon="6.976845"><ele>1120.6</ele></trkpt>
      <trkpt lat="44.047469" lon="6.977191"><ele>1116</ele></trkpt>
      <trkpt lat="44.046785" lon="6.977404"><ele>1111.2</ele></trkpt>
      <trkpt lat="44.046045" lon="6.977251"><ele>1106.8</ele></trkpt>
      <trkpt lat="44.045433" lon="6.97753"><ele>1104.8</ele></trkpt>
      <trkpt lat="44.044683" lon="6.977563"><ele>1103.2</ele></trkpt>
      <trkpt lat="44.043865" lon="6.977064"><ele>1100.4</ele></trkpt>
      <trkpt lat="44.04361" lon="6.97616"><ele>1099</ele></trkpt>
      <trkpt lat="44.042976" lon="6.975664"><ele>1094</ele></trkpt>
      <trkpt lat="44.042312" lon="6.975567"><ele>1088</ele></trkpt>
      <trkpt lat="44.041523" lon="6.975582"><ele>1081.8</ele></trkpt>
      <trkpt lat="44.040904" lon="6.975833"><ele>1077.6</ele></trkpt>
      <trkpt lat="44.040138" lon="6.975922"><ele>1072.4</ele></trkpt>
      <trkpt lat="44.039625" lon="6.976614"><ele>1070</ele></trkpt>
      <trkpt lat="44.039182" lon="6.977404"><ele>1067.2</ele></trkpt>
      <trkpt lat="44.038702" lon="6.978124"><ele>1061</ele></trkpt>
      <trkpt lat="44.038046" lon="6.978083"><ele>1056</ele></trkpt>
      <trkpt lat="44.037357" lon="6.978115"><ele>1051.2</ele></trkpt>
      <trkpt lat="44.036669" lon="6.978229"><ele>1045.8</ele></trkpt>
      <trkpt lat="44.035917" lon="6.978034"><ele>1040.2</ele></trkpt>
      <trkpt lat="44.035461" lon="6.97741"><ele>1035.2</ele></trkpt>
      <trkpt lat="44.035037" lon="6.976589"><ele>1031</ele></trkpt>
      <trkpt lat="44.034621" lon="6.975773"><ele>1026.2</ele></trkpt>
      <trkpt lat="44.033913" lon="6.975564"><ele>1021.8</ele></trkpt>
      <trkpt lat="44.033167" lon="6.975644"><ele>1016.4</ele></trkpt>
      <trkpt lat="44.032548" lon="6.97578"><ele>1011.2</ele></trkpt>
      <trkpt lat="44.031826" lon="6.975946"><ele>1006.2</ele></trkpt>
      <trkpt lat="44.031103" lon="6.976111"><ele>1000.6</ele></trkpt>
      <trkpt lat="44.030381" lon="6.976277"><ele>993.8</ele></trkpt>
      <trkpt lat="44.029568" lon="6.97649"><ele>988.6</ele></trkpt>
      <trkpt lat="44.029024" lon="6.976439"><ele>985.4</ele></trkpt>
      <trkpt lat="44.028273" lon="6.97678"><ele>980.4</ele></trkpt>
      <trkpt lat="44.027643" lon="6.977223"><ele>974</ele></trkpt>
      <trkpt lat="44.026942" lon="6.977356"><ele>966.6</ele></trkpt>
      <trkpt lat="44.026761" lon="6.976319"><ele>959.2</ele></trkpt>
      <trkpt lat="44.026134" lon="6.976078"><ele>954.4</ele></trkpt>
      <trkpt lat="44.025405" lon="6.976162"><ele>948.4</ele></trkpt>
      <trkpt lat="44.024764" lon="6.976508"><ele>942</ele></trkpt>
      <trkpt lat="44.024209" lon="6.977185"><ele>937.4</ele></trkpt>
      <trkpt lat="44.023676" lon="6.977658"><ele>931.6</ele></trkpt>
      <trkpt lat="44.023019" lon="6.978099"><ele>922</ele></trkpt>
      <trkpt lat="44.022358" lon="6.978518"><ele>918.2</ele></trkpt>
      <trkpt lat="44.021831" lon="6.97898"><ele>913.6</ele></trkpt>
      <trkpt lat="44.021142" lon="6.979325"><ele>908.4</ele></trkpt>
      <trkpt lat="44.02052" lon="6.979862"><ele>903</ele></trkpt>
      <trkpt lat="44.020099" lon="6.980606"><ele>897.8</ele></trkpt>
      <trkpt lat="44.019488" lon="6.981168"><ele>892</ele></trkpt>
      <trkpt lat="44.018798" lon="6.981073"><ele>886.8</ele></trkpt>
      <trkpt lat="44.018236" lon="6.981485"><ele>881.2</ele></trkpt>
      <trkpt lat="44.01755" lon="6.981772"><ele>874.8</ele></trkpt>
      <trkpt lat="44.016906" lon="6.981445"><ele>867.8</ele></trkpt>
      <trkpt lat="44.016216" lon="6.981239"><ele>861.8</ele></trkpt>
      <trkpt lat="44.015658" lon="6.981608"><ele>855.4</ele></trkpt>
      <trkpt lat="44.01494" lon="6.98172"><ele>848.8</ele></trkpt>
      <trkpt lat="44.014293" lon="6.981929"><ele>842.6</ele></trkpt>
      <trkpt lat="44.013591" lon="6.982117"><ele>835.4</ele></trkpt>
      <trkpt lat="44.012876" lon="6.982165"><ele>827</ele></trkpt>
      <trkpt lat="44.012153" lon="6.981978"><ele>819.8</ele></trkpt>
      <trkpt lat="44.011516" lon="6.982307"><ele>814.2</ele></trkpt>
      <trkpt lat="44.010816" lon="6.982801"><ele>805.4</ele></trkpt>
      <trkpt lat="44.010301" lon="6.983564"><ele>797.4</ele></trkpt>
      <trkpt lat="44.010158" lon="6.984373"><ele>793.6</ele></trkpt>
      <trkpt lat="44.010246" lon="6.985241"><ele>786.8</ele></trkpt>
      <trkpt lat="44.009562" lon="6.985448"><ele>780</ele></trkpt>
      <trkpt lat="44.009114" lon="6.98611"><ele>772.8</ele></trkpt>
      <trkpt lat="44.008639" lon="6.986859"><ele>765.4</ele></trkpt>
      <trkpt lat="44.008149" lon="6.987563"><ele>759.2</ele></trkpt>
      <trkpt lat="44.007625" lon="6.988233"><ele>752.6</ele></trkpt>
      <trkpt lat="44.007227" lon="6.989057"><ele>746.2</ele></trkpt>
      <trkpt lat="44.006553" lon="6.989128"><ele>738</ele></trkpt>
      <trkpt lat="44.006098" lon="6.989867"><ele>727</ele></trkpt>
      <trkpt lat="44.005442" lon="6.990037"><ele>719.2</ele></trkpt>
      <trkpt lat="44.004717" lon="6.989876"><ele>710.4</ele></trkpt>
      <trkpt lat="44.004035" lon="6.989359"><ele>702</ele></trkpt>
      <trkpt lat="44.003436" lon="6.989029"><ele>695</ele></trkpt>
      <trkpt lat="44.002802" lon="6.989002"><ele>688.8</ele></trkpt>
      <trkpt lat="44.002096" lon="6.989127"><ele>679.4</ele></trkpt>
      <trkpt lat="44.001614" lon="6.988568"><ele>671.4</ele></trkpt>
      <trkpt lat="44.001011" lon="6.988186"><ele>662.8</ele></trkpt>
      <trkpt lat="44.000939" lon="6.988597"><ele>655.8</ele></trkpt>
      <trkpt lat="44.001539" lon="6.988981"><ele>648</ele></trkpt>
      <trkpt lat="44.002084" lon="6.989676"><ele>639.6</ele></trkpt>
      <trkpt lat="44.002621" lon="6.990184"><ele>631</ele></trkpt>
      <trkpt lat="44.003342" lon="6.990345"><ele>621</ele></trkpt>
      <trkpt lat="44.003751" lon="6.991107"><ele>613.8</ele></trkpt>
      <trkpt lat="44.004373" lon="6.99159"><ele>607.6</ele></trkpt>
      <trkpt lat="44.005086" lon="6.991752"><ele>601.6</ele></trkpt>
      <trkpt lat="44.00579" lon="6.991627"><ele>600</ele></trkpt>
      <trkpt lat="44.005966" lon="6.992466"><ele>598.8</ele></trkpt>
      <trkpt lat="44.006084" lon="6.993434"><ele>601</ele></trkpt>
      <trkpt lat="44.006062" lon="6.994419"><ele>605</ele></trkpt>
      <trkpt lat="44.006257" lon="6.995375"><ele>609.4</ele></trkpt>
      <trkpt lat="44.00651" lon="6.996277"><ele>614</ele></trkpt>
      <trkpt lat="44.006682" lon="6.997229"><ele>618.2</ele></trkpt>
      <trkpt lat="44.006834" lon="6.998199"><ele>622.8</ele></trkpt>
      <trkpt lat="44.006937" lon="6.998618"><ele>627.6</ele></trkpt>
      <trkpt lat="44.006963" lon="6.997621"><ele>632</ele></trkpt>
      <trkpt lat="44.006909" lon="6.996624"><ele>636</ele></trkpt>
      <trkpt lat="44.006792" lon="6.995644"><ele>639.8</ele></trkpt>
      <trkpt lat="44.006904" lon="6.995887"><ele>643.8</ele></trkpt>
      <trkpt lat="44.007127" lon="6.996846"><ele>647.8</ele></trkpt>
      <trkpt lat="44.007335" lon="6.997789"><ele>652</ele></trkpt>
      <trkpt lat="44.007459" lon="6.998705"><ele>656.6</ele></trkpt>
      <trkpt lat="44.007368" lon="6.999651"><ele>661.2</ele></trkpt>
      <trkpt lat="44.007828" lon="7.000405"><ele>665.2</ele></trkpt>
      <trkpt lat="44.007777" lon="7.00135"><ele>670.2</ele></trkpt>
      <trkpt lat="44.008167" lon="7.002171"><ele>674.4</ele></trkpt>
      <trkpt lat="44.008462" lon="7.003046"><ele>679.2</ele></trkpt>
      <trkpt lat="44.008962" lon="7.003784"><ele>684</ele></trkpt>
      <trkpt lat="44.008859" lon="7.004757"><ele>688.8</ele></trkpt>
      <trkpt lat="44.008939" lon="7.005754"><ele>693.6</ele></trkpt>
      <trkpt lat="44.009257" lon="7.006642"><ele>699.6</ele></trkpt>
      <trkpt lat="44.009335" lon="7.007613"><ele>704.8</ele></trkpt>
      <trkpt lat="44.009241" lon="7.008571"><ele>709.4</ele></trkpt>
      <trkpt lat="44.009182" lon="7.009369"><ele>714.6</ele></trkpt>
      <trkpt lat="44.009125" lon="7.010065"><ele>719.6</ele></trkpt>
      <trkpt lat="44.008809" lon="7.010703"><ele>723.6</ele></trkpt>
      <trkpt lat="44.008637" lon="7.011592"><ele>728.4</ele></trkpt>
      <trkpt lat="44.008801" lon="7.012409"><ele>732.8</ele></trkpt>
      <trkpt lat="44.008812" lon="7.013316"><ele>738.2</ele></trkpt>
      <trkpt lat="44.008447" lon="7.014055"><ele>742.4</ele></trkpt>
      <trkpt lat="44.008509" lon="7.014459"><ele>746.2</ele></trkpt>
      <trkpt lat="44.009196" lon="7.014549"><ele>751.4</ele></trkpt>
      <trkpt lat="44.009878" lon="7.014589"><ele>757</ele></trkpt>
      <trkpt lat="44.010448" lon="7.014888"><ele>761.2</ele></trkpt>
      <trkpt lat="44.011104" lon="7.01473"><ele>766.8</ele></trkpt>
      <trkpt lat="44.011741" lon="7.014316"><ele>770.4</ele></trkpt>
      <trkpt lat="44.012304" lon="7.013977"><ele>774.6</ele></trkpt>
      <trkpt lat="44.01237" lon="7.014766"><ele>777.4</ele></trkpt>
      <trkpt lat="44.012592" lon="7.014557"><ele>783.8</ele></trkpt>
      <trkpt lat="44.012615" lon="7.015318"><ele>791.2</ele></trkpt>
      <trkpt lat="44.012657" lon="7.015188"><ele>797.6</ele></trkpt>
      <trkpt lat="44.012754" lon="7.015244"><ele>805.2</ele></trkpt>
      <trkpt lat="44.013261" lon="7.015925"><ele>812.8</ele></trkpt>
      <trkpt lat="44.013615" lon="7.016687"><ele>821</ele></trkpt>
      <trkpt lat="44.014082" lon="7.017373"><ele>831.6</ele></trkpt>
      <trkpt lat="44.014591" lon="7.017965"><ele>845.8</ele></trkpt>
      <trkpt lat="44.01485" lon="7.018862"><ele>855.2</ele></trkpt>
      <trkpt lat="44.015064" lon="7.019742"><ele>863.4</ele></trkpt>
      <trkpt lat="44.015739" lon="7.019959"><ele>872.4</ele></trkpt>
      <trkpt lat="44.016357" lon="7.019615"><ele>880</ele></trkpt>
      <trkpt lat="44.01691" lon="7.020008"><ele>886.6</ele></trkpt>
      <trkpt lat="44.01721" lon="7.0209"><ele>894.4</ele></trkpt>
      <trkpt lat="44.017542" lon="7.021619"><ele>903.8</ele></trkpt>
      <trkpt lat="44.017514" lon="7.022506"><ele>910.6</ele></trkpt>
      <trkpt lat="44.018139" lon="7.022978"><ele>917</ele></trkpt>
      <trkpt lat="44.018636" lon="7.023612"><ele>924.8</ele></trkpt>
      <trkpt lat="44.019029" lon="7.024407"><ele>933.2</ele></trkpt>
      <trkpt lat="44.019298" lon="7.025268"><ele>940.6</ele></trkpt>
      <trkpt lat="44.01969" lon="7.026011"><ele>948.2</ele></trkpt>
      <trkpt lat="44.020008" lon="7.026835"><ele>956.2</ele></trkpt>
      <trkpt lat="44.020599" lon="7.027264"><ele>962.8</ele></trkpt>
      <trkpt lat="44.021257" lon="7.027369"><ele>969.2</ele></trkpt>
      <trkpt lat="44.021941" lon="7.027182"><ele>975.2</ele></trkpt>
      <trkpt lat="44.022459" lon="7.027796"><ele>980.6</ele></trkpt>
      <trkpt lat="44.022246" lon="7.028647"><ele>984</ele></trkpt>
      <trkpt lat="44.022806" lon="7.029202"><ele>988.2</ele></trkpt>
      <trkpt lat="44.023487" lon="7.029349"><ele>992.6</ele></trkpt>
      <trkpt lat="44.024015" lon="7.030032"><ele>996.8</ele></trkpt>
      <trkpt lat="44.024578" lon="7.030535"><ele>1001.6</ele></trkpt>
      <trkpt lat="44.025255" lon="7.030873"><ele>1007.8</ele></trkpt>
      <trkpt lat="44.025812" lon="7.031463"><ele>1011.6</ele></trkpt>
      <trkpt lat="44.026515" lon="7.031412"><ele>1017.2</ele></trkpt>
      <trkpt lat="44.027176" lon="7.031618"><ele>1021.8</ele></trkpt>
      <trkpt lat="44.027609" lon="7.032407"><ele>1027</ele></trkpt>
      <trkpt lat="44.027946" lon="7.032664"><ele>1031.6</ele></trkpt>
      <trkpt lat="44.027923" lon="7.032437"><ele>1036.6</ele></trkpt>
      <trkpt lat="44.028444" lon="7.033116"><ele>1041.6</ele></trkpt>
      <trkpt lat="44.028958" lon="7.033773"><ele>1046.6</ele></trkpt>
      <trkpt lat="44.029703" lon="7.033959"><ele>1051.2</ele></trkpt>
      <trkpt lat="44.029866" lon="7.034769"><ele>1057</ele></trkpt>
      <trkpt lat="44.030439" lon="7.034233"><ele>1061.6</ele></trkpt>
      <trkpt lat="44.031013" lon="7.034455"><ele>1067.6</ele></trkpt>
      <trkpt lat="44.031642" lon="7.03497"><ele>1073.6</ele></trkpt>
      <trkpt lat="44.032316" lon="7.03523"><ele>1079.6</ele></trkpt>
      <trkpt lat="44.032977" lon="7.034843"><ele>1079.8</ele></trkpt>
      <trkpt lat="44.033651" lon="7.034602"><ele>1086.4</ele></trkpt>
      <trkpt lat="44.034368" lon="7.034575"><ele>1095.6</ele></trkpt>
      <trkpt lat="44.033946" lon="7.035034"><ele>1101.4</ele></trkpt>
      <trkpt lat="44.033311" lon="7.035468"><ele>1106.6</ele></trkpt>
      <trkpt lat="44.032704" lon="7.035955"><ele>1114.6</ele></trkpt>
      <trkpt lat="44.032013" lon="7.036127"><ele>1121</ele></trkpt>
      <trkpt lat="44.032358" lon="7.03633"><ele>1125</ele></trkpt>
      <trkpt lat="44.033031" lon="7.036326"><ele>1134.2</ele></trkpt>
      <trkpt lat="44.032397" lon="7.036734"><ele>1141.8</ele></trkpt>
      <trkpt lat="44.032492" lon="7.037678"><ele>1151.6</ele></trkpt>
      <trkpt lat="44.032447" lon="7.038648"><ele>1159.8</ele></trkpt>
      <trkpt lat="44.032647" lon="7.039588"><ele>1169.6</ele></trkpt>
      <trkpt lat="44.032744" lon="7.039343"><ele>1177.8</ele></trkpt>
      <trkpt lat="44.032827" lon="7.038991"><ele>1186</ele></trkpt>
      <trkpt lat="44.033011" lon="7.039944"><ele>1194.4</ele></trkpt>
      <trkpt lat="44.03302" lon="7.040938"><ele>1203.8</ele></trkpt>
      <trkpt lat="44.033035" lon="7.041868"><ele>1212</ele></trkpt>
      <trkpt lat="44.032884" lon="7.042806"><ele>1219.6</ele></trkpt>
      <trkpt lat="44.03292" lon="7.043788"><ele>1225.4</ele></trkpt>
      <trkpt lat="44.033571" lon="7.044169"><ele>1232</ele></trkpt>
      <trkpt lat="44.034251" lon="7.044079"><ele>1239.6</ele></trkpt>
      <trkpt lat="44.034035" lon="7.044891"><ele>1247.2</ele></trkpt>
      <trkpt lat="44.033723" lon="7.045612"><ele>1253.6</ele></trkpt>
      <trkpt lat="44.034342" lon="7.046025"><ele>1262.4</ele></trkpt>
      <trkpt lat="44.033979" lon="7.046829"><ele>1273.4</ele></trkpt>
      <trkpt lat="44.034108" lon="7.047758"><ele>1282</ele></trkpt>
      <trkpt lat="44.033999" lon="7.048627"><ele>1288.8</ele></trkpt>
      <trkpt lat="44.033744" lon="7.049553"><ele>1290</ele></trkpt>
      <trkpt lat="44.033832" lon="7.050415"><ele>1295</ele></trkpt>
      <trkpt lat="44.034051" lon="7.051334"><ele>1297.2</ele></trkpt>
      <trkpt lat="44.033337" lon="7.051473"><ele>1303.8</ele></trkpt>
      <trkpt lat="44.032573" lon="7.051667"><ele>1310.2</ele></trkpt>
      <trkpt lat="44.031962" lon="7.052188"><ele>1316</ele></trkpt>
      <trkpt lat="44.031549" lon="7.052995"><ele>1322.8</ele></trkpt>
      <trkpt lat="44.03102" lon="7.053623"><ele>1332.2</ele></trkpt>
      <trkpt lat="44.030862" lon="7.054564"><ele>1339.2</ele></trkpt>
      <trkpt lat="44.030407" lon="7.055318"><ele>1343</ele></trkpt>
      <trkpt lat="44.029999" lon="7.056148"><ele>1345.8</ele></trkpt>
      <trkpt lat="44.029605" lon="7.056996"><ele>1350.6</ele></trkpt>
      <trkpt lat="44.029214" lon="7.057824"><ele>1354</ele></trkpt>
      <trkpt lat="44.029024" lon="7.058757"><ele>1358</ele></trkpt>
      <trkpt lat="44.029183" lon="7.05971"><ele>1364.2</ele></trkpt>
      <trkpt lat="44.029675" lon="7.060432"><ele>1369.4</ele></trkpt>
      <trkpt lat="44.029641" lon="7.061416"><ele>1373</ele></trkpt>
      <trkpt lat="44.030068" lon="7.062192"><ele>1374.6</ele></trkpt>
      <trkpt lat="44.030721" lon="7.062524"><ele>1378.6</ele></trkpt>
      <trkpt lat="44.030328" lon="7.063029"><ele>1383.6</ele></trkpt>
      <trkpt lat="44.030263" lon="7.06373"><ele>1388.2</ele></trkpt>
      <trkpt lat="44.030579" lon="7.064605"><ele>1391.2</ele></trkpt>
      <trkpt lat="44.030589" lon="7.065383"><ele>1395.6</ele></trkpt>
      <trkpt lat="44.030032" lon="7.065922"><ele>1400.8</ele></trkpt>
      <trkpt lat="44.029413" lon="7.066248"><ele>1406.6</ele></trkpt>
      <trkpt lat="44.028704" lon="7.06631"><ele>1412.2</ele></trkpt>
      <trkpt lat="44.028075" lon="7.066733"><ele>1419.2</ele></trkpt>
      <trkpt lat="44.027472" lon="7.067259"><ele>1426.6</ele></trkpt>
      <trkpt lat="44.026811" lon="7.067643"><ele>1433</ele></trkpt>
      <trkpt lat="44.026154" lon="7.068062"><ele>1440</ele></trkpt>
      <trkpt lat="44.025497" lon="7.068578"><ele>1442</ele></trkpt>
      <trkpt lat="44.02565" lon="7.069536"><ele>1439.2</ele></trkpt>
      <trkpt lat="44.025585" lon="7.07055"><ele>1435.4</ele></trkpt>
      <trkpt lat="44.025474" lon="7.071458"><ele>1430.4</ele></trkpt>
      <trkpt lat="44.02535" lon="7.072449"><ele>1424.8</ele></trkpt>
      <trkpt lat="44.025382" lon="7.073441"><ele>1419.8</ele></trkpt>
      <trkpt lat="44.025358" lon="7.074466"><ele>1417.4</ele></trkpt>
      <trkpt lat="44.025533" lon="7.075427"><ele>1413.4</ele></trkpt>
      <trkpt lat="44.025902" lon="7.07623"><ele>1408.6</ele></trkpt>
      <trkpt lat="44.026318" lon="7.077144"><ele>1404</ele></trkpt>
      <trkpt lat="44.026571" lon="7.078006"><ele>1402.8</ele></trkpt>
      <trkpt lat="44.026939" lon="7.078785"><ele>1400</ele></trkpt>
      <trkpt lat="44.027442" lon="7.0796"><ele>1397.4</ele></trkpt>
      <trkpt lat="44.027434" lon="7.080441"><ele>1392.6</ele></trkpt>
      <trkpt lat="44.027459" lon="7.081452"><ele>1386.4</ele></trkpt>
      <trkpt lat="44.02722" lon="7.082225"><ele>1378.6</ele></trkpt>
      <trkpt lat="44.027711" lon="7.082867"><ele>1372.4</ele></trkpt>
      <trkpt lat="44.028077" lon="7.083667"><ele>1365.2</ele></trkpt>
      <trkpt lat="44.027807" lon="7.084557"><ele>1357.4</ele></trkpt>
      <trkpt lat="44.027671" lon="7.085432"><ele>1348.4</ele></trkpt>
      <trkpt lat="44.028068" lon="7.086191"><ele>1341.4</ele></trkpt>
      <trkpt lat="44.028524" lon="7.087065"><ele>1335.4</ele></trkpt>
      <trkpt lat="44.028613" lon="7.088002"><ele>1328</ele></trkpt>
      <trkpt lat="44.028867" lon="7.088886"><ele>1321.4</ele></trkpt>
      <trkpt lat="44.028953" lon="7.089828"><ele>1316.2</ele></trkpt>
      <trkpt lat="44.029443" lon="7.090576"><ele>1308.8</ele></trkpt>
      <trkpt lat="44.029361" lon="7.090686"><ele>1302.4</ele></trkpt>
      <trkpt lat="44.028737" lon="7.090249"><ele>1296</ele></trkpt>
      <trkpt lat="44.028068" lon="7.089887"><ele>1290.6</ele></trkpt>
      <trkpt lat="44.027827" lon="7.089062"><ele>1285</ele></trkpt>
      <trkpt lat="44.027574" lon="7.08972"><ele>1278</ele></trkpt>
      <trkpt lat="44.028102" lon="7.090495"><ele>1270.2</ele></trkpt>
      <trkpt lat="44.028617" lon="7.091152"><ele>1262.6</ele></trkpt>
      <trkpt lat="44.029122" lon="7.09182"><ele>1254.6</ele></trkpt>
      <trkpt lat="44.029704" lon="7.092392"><ele>1247.6</ele></trkpt>
      <trkpt lat="44.030258" lon="7.09305"><ele>1241.4</ele></trkpt>
      <trkpt lat="44.030786" lon="7.093598"><ele>1239</ele></trkpt>
      <trkpt lat="44.031008" lon="7.094564"><ele>1230.4</ele></trkpt>
      <trkpt lat="44.031324" lon="7.095453"><ele>1223.6</ele></trkpt>
      <trkpt lat="44.031615" lon="7.096367"><ele>1217.6</ele></trkpt>
      <trkpt lat="44.031892" lon="7.097202"><ele>1210.8</ele></trkpt>
      <trkpt lat="44.032271" lon="7.09812"><ele>1202.2</ele></trkpt>
      <trkpt lat="44.032049" lon="7.098896"><ele>1198</ele></trkpt>
      <trkpt lat="44.031538" lon="7.099657"><ele>1192.2</ele></trkpt>
      <trkpt lat="44.03116" lon="7.100506"><ele>1185.4</ele></trkpt>
      <trkpt lat="44.030843" lon="7.101382"><ele>1179</ele></trkpt>
      <trkpt lat="44.030579" lon="7.102242"><ele>1171.8</ele></trkpt>
      <trkpt lat="44.030339" lon="7.103184"><ele>1163.8</ele></trkpt>
      <trkpt lat="44.030105" lon="7.104137"><ele>1156.8</ele></trkpt>
      <trkpt lat="44.029934" lon="7.105156"><ele>1149.2</ele></trkpt>
      <trkpt lat="44.029897" lon="7.106096"><ele>1142.8</ele></trkpt>
      <trkpt lat="44.030226" lon="7.106931"><ele>1136.8</ele></trkpt>
      <trkpt lat="44.030311" lon="7.107535"><ele>1129.4</ele></trkpt>
      <trkpt lat="44.02988" lon="7.106723"><ele>1121.6</ele></trkpt>
      <trkpt lat="44.029489" lon="7.105869"><ele>1114.8</ele></trkpt>
      <trkpt lat="44.029403" lon="7.104904"><ele>1108.6</ele></trkpt>
      <trkpt lat="44.029377" lon="7.10402"><ele>1103.8</ele></trkpt>
      <trkpt lat="44.029416" lon="7.102963"><ele>1098.2</ele></trkpt>
      <trkpt lat="44.029464" lon="7.101934"><ele>1094.6</ele></trkpt>
      <trkpt lat="44.029383" lon="7.100921"><ele>1090.2</ele></trkpt>
      <trkpt lat="44.029099" lon="7.100019"><ele>1085</ele></trkpt>
      <trkpt lat="44.028723" lon="7.099323"><ele>1080.6</ele></trkpt>
      <trkpt lat="44.028583" lon="7.098887"><ele>1076.6</ele></trkpt>
      <trkpt lat="44.028528" lon="7.099813"><ele>1071</ele></trkpt>
      <trkpt lat="44.02865" lon="7.100734"><ele>1065.4</ele></trkpt>
      <trkpt lat="44.028531" lon="7.101716"><ele>1059.8</ele></trkpt>
      <trkpt lat="44.028552" lon="7.102662"><ele>1053.4</ele></trkpt>
      <trkpt lat="44.028377" lon="7.103704"><ele>1046.6</ele></trkpt>
      <trkpt lat="44.028473" lon="7.104696"><ele>1040</ele></trkpt>
      <trkpt lat="44.028274" lon="7.105743"><ele>1033</ele></trkpt>
      <trkpt lat="44.028166" lon="7.106689"><ele>1028.6</ele></trkpt>
      <trkpt lat="44.028205" lon="7.107617"><ele>1023.2</ele></trkpt>
      <trkpt lat="44.028448" lon="7.108601"><ele>1016.8</ele></trkpt>
      <trkpt lat="44.028443" lon="7.109511"><ele>1011.6</ele></trkpt>
      <trkpt lat="44.028846" lon="7.110444"><ele>1004.2</ele></trkpt>
      <trkpt lat="44.028966" lon="7.111389"><ele>998.8</ele></trkpt>
      <trkpt lat="44.028829" lon="7.112408"><ele>993.2</ele></trkpt>
      <trkpt lat="44.02876" lon="7.1134"><ele>988.8</ele></trkpt>
      <trkpt lat="44.02852" lon="7.114202"><ele>984</ele></trkpt>
      <trkpt lat="44.028122" lon="7.115131"><ele>978.6</ele></trkpt>
      <trkpt lat="44.02774" lon="7.115878"><ele>974</ele></trkpt>
      <trkpt lat="44.027657" lon="7.11681"><ele>968.2</ele></trkpt>
      <trkpt lat="44.02812" lon="7.117509"><ele>962.4</ele></trkpt>
      <trkpt lat="44.028668" lon="7.118275"><ele>955.6</ele></trkpt>
      <trkpt lat="44.029203" lon="7.11892"><ele>950</ele></trkpt>
      <trkpt lat="44.029009" lon="7.118868"><ele>938.8</ele></trkpt>
      <trkpt lat="44.028366" lon="7.118365"><ele>932.8</ele></trkpt>
      <trkpt lat="44.027772" lon="7.117871"><ele>927.4</ele></trkpt>
      <trkpt lat="44.02713" lon="7.117402"><ele>921.2</ele></trkpt>
      <trkpt lat="44.026605" lon="7.116846"><ele>915.6</ele></trkpt>
      <trkpt lat="44.026657" lon="7.115814"><ele>908.8</ele></trkpt>
      <trkpt lat="44.026901" lon="7.114823"><ele>902.8</ele></trkpt>
      <trkpt lat="44.027008" lon="7.113875"><ele>897.4</ele></trkpt>
      <trkpt lat="44.026362" lon="7.113822"><ele>891.6</ele></trkpt>
      <trkpt lat="44.025719" lon="7.113713"><ele>885.4</ele></trkpt>
      <trkpt lat="44.025084" lon="7.113274"><ele>880</ele></trkpt>
      <trkpt lat="44.024443" lon="7.11307"><ele>874.8</ele></trkpt>
      <trkpt lat="44.023868" lon="7.112604"><ele>868.4</ele></trkpt>
      <trkpt lat="44.023299" lon="7.111961"><ele>861.8</ele></trkpt>
      <trkpt lat="44.022626" lon="7.111735"><ele>856.8</ele></trkpt>
      <trkpt lat="44.022279" lon="7.111467"><ele>850.8</ele></trkpt>
      <trkpt lat="44.022759" lon="7.11227"><ele>844.8</ele></trkpt>
      <trkpt lat="44.023294" lon="7.11269"><ele>839.8</ele></trkpt>
      <trkpt lat="44.023832" lon="7.113378"><ele>832.8</ele></trkpt>
      <trkpt lat="44.024028" lon="7.114259"><ele>826.4</ele></trkpt>
      <trkpt lat="44.024114" lon="7.115287"><ele>819.4</ele></trkpt>
      <trkpt lat="44.024579" lon="7.116035"><ele>813.8</ele></trkpt>
      <trkpt lat="44.024863" lon="7.116442"><ele>810.6</ele></trkpt>
      <trkpt lat="44.024517" lon="7.117264"><ele>806</ele></trkpt>
      <trkpt lat="44.024575" lon="7.118231"><ele>800.6</ele></trkpt>
      <trkpt lat="44.025167" lon="7.118845"><ele>795.4</ele></trkpt>
      <trkpt lat="44.025795" lon="7.119209"><ele>790.2</ele></trkpt>
      <trkpt lat="44.026317" lon="7.119945"><ele>784.6</ele></trkpt>
      <trkpt lat="44.026666" lon="7.120745"><ele>780</ele></trkpt>
      <trkpt lat="44.027315" lon="7.120994"><ele>774.8</ele></trkpt>
      <trkpt lat="44.027969" lon="7.121374"><ele>768</ele></trkpt>
      <trkpt lat="44.02863" lon="7.121712"><ele>762.4</ele></trkpt>
      <trkpt lat="44.029286" lon="7.121924"><ele>755.2</ele></trkpt>
      <trkpt lat="44.029881" lon="7.122452"><ele>749</ele></trkpt>
      <trkpt lat="44.030326" lon="7.123179"><ele>742.6</ele></trkpt>
      <trkpt lat="44.030823" lon="7.124"><ele>736</ele></trkpt>
      <trkpt lat="44.03152" lon="7.12396"><ele>730.2</ele></trkpt>
      <trkpt lat="44.032156" lon="7.12378"><ele>724.6</ele></trkpt>
      <trkpt lat="44.032426" lon="7.123219"><ele>718.2</ele></trkpt>
      <trkpt lat="44.032774" lon="7.12241"><ele>712.4</ele></trkpt>
      <trkpt lat="44.032289" lon="7.121805"><ele>706</ele></trkpt>
      <trkpt lat="44.032091" lon="7.120853"><ele>701.4</ele></trkpt>
      <trkpt lat="44.03217" lon="7.119856"><ele>697.8</ele></trkpt>
      <trkpt lat="44.032683" lon="7.119146"><ele>693</ele></trkpt>
      <trkpt lat="44.033163" lon="7.118599"><ele>687</ele></trkpt>
      <trkpt lat="44.033652" lon="7.117836"><ele>680.2</ele></trkpt>
      <trkpt lat="44.03364" lon="7.116826"><ele>674.6</ele></trkpt>
      <trkpt lat="44.033845" lon="7.115896"><ele>669</ele></trkpt>
      <trkpt lat="44.03424" lon="7.115133"><ele>664.2</ele></trkpt>
      <trkpt lat="44.034739" lon="7.115171"><ele>664.2</ele></trkpt>
      <trkpt lat="44.035327" lon="7.115579"><ele>660</ele></trkpt>
      <trkpt lat="44.035994" lon="7.115659"><ele>657.4</ele></trkpt>
      <trkpt lat="44.036722" lon="7.11564"><ele>655.2</ele></trkpt>
      <trkpt lat="44.036969" lon="7.116268"><ele>652.6</ele></trkpt>
      <trkpt lat="44.037316" lon="7.116806"><ele>649.2</ele></trkpt>
      <trkpt lat="44.037528" lon="7.117634"><ele>642.2</ele></trkpt>
      <trkpt lat="44.037733" lon="7.118517"><ele>634.4</ele></trkpt>
      <trkpt lat="44.03765" lon="7.119462"><ele>627.4</ele></trkpt>
      <trkpt lat="44.037823" lon="7.120457"><ele>620.4</ele></trkpt>
      <trkpt lat="44.037688" lon="7.121328"><ele>614.4</ele></trkpt>
      <trkpt lat="44.037982" lon="7.122166"><ele>608.2</ele></trkpt>
      <trkpt lat="44.037987" lon="7.123046"><ele>602.8</ele></trkpt>
      <trkpt lat="44.038353" lon="7.123384"><ele>598.6</ele></trkpt>
      <trkpt lat="44.039035" lon="7.123169"><ele>593.4</ele></trkpt>
      <trkpt lat="44.039694" lon="7.12325"><ele>588</ele></trkpt>
      <trkpt lat="44.040362" lon="7.123517"><ele>581.2</ele></trkpt>
      <trkpt lat="44.041072" lon="7.123507"><ele>574.8</ele></trkpt>
      <trkpt lat="44.041571" lon="7.124083"><ele>569.6</ele></trkpt>
      <trkpt lat="44.042004" lon="7.124854"><ele>564.6</ele></trkpt>
      <trkpt lat="44.042703" lon="7.125023"><ele>558.4</ele></trkpt>
      <trkpt lat="44.043292" lon="7.125582"><ele>551.4</ele></trkpt>
      <trkpt lat="44.043921" lon="7.125744"><ele>546.8</ele></trkpt>
      <trkpt lat="44.044598" lon="7.1258"><ele>540.4</ele></trkpt>
      <trkpt lat="44.045298" lon="7.125588"><ele>533.4</ele></trkpt>
      <trkpt lat="44.045911" lon="7.125969"><ele>527</ele></trkpt>
      <trkpt lat="44.04647" lon="7.1266"><ele>522.2</ele></trkpt>
      <trkpt lat="44.046987" lon="7.127099"><ele>517</ele></trkpt>
      <trkpt lat="44.04708" lon="7.127392"><ele>510.2</ele></trkpt>
      <trkpt lat="44.046476" lon="7.127038"><ele>502.4</ele></trkpt>
      <trkpt lat="44.045859" lon="7.126416"><ele>495.6</ele></trkpt>
      <trkpt lat="44.045238" lon="7.126126"><ele>492.2</ele></trkpt>
      <trkpt lat="44.044623" lon="7.126685"><ele>487</ele></trkpt>
      <trkpt lat="44.043951" lon="7.126868"><ele>480.2</ele></trkpt>
      <trkpt lat="44.043272" lon="7.126796"><ele>473.6</ele></trkpt>
      <trkpt lat="44.042607" lon="7.126434"><ele>467.4</ele></trkpt>
      <trkpt lat="44.04194" lon="7.126711"><ele>463.2</ele></trkpt>
      <trkpt lat="44.04125" lon="7.126833"><ele>456.8</ele></trkpt>
      <trkpt lat="44.041954" lon="7.126946"><ele>450.2</ele></trkpt>
      <trkpt lat="44.042614" lon="7.126971"><ele>444.6</ele></trkpt>
      <trkpt lat="44.043261" lon="7.12736"><ele>439</ele></trkpt>
      <trkpt lat="44.043848" lon="7.127828"><ele>433.8</ele></trkpt>
      <trkpt lat="44.04434" lon="7.128412"><ele>438.6</ele></trkpt>
      <trkpt lat="44.044995" lon="7.128653"><ele>444.6</ele></trkpt>
      <trkpt lat="44.045558" lon="7.1292"><ele>443.4</ele></trkpt>
      <trkpt lat="44.046218" lon="7.129586"><ele>441.4</ele></trkpt>
      <trkpt lat="44.046927" lon="7.129773"><ele>444.6</ele></trkpt>
      <trkpt lat="44.047612" lon="7.129502"><ele>448</ele></trkpt>
      <trkpt lat="44.048297" lon="7.129196"><ele>451.6</ele></trkpt>
      <trkpt lat="44.048946" lon="7.12877"><ele>455.2</ele></trkpt>
      <trkpt lat="44.049548" lon="7.128269"><ele>460.2</ele></trkpt>
      <trkpt lat="44.050158" lon="7.127756"><ele>463.2</ele></trkpt>
      <trkpt lat="44.050718" lon="7.127149"><ele>466</ele></trkpt>
      <trkpt lat="44.051124" lon="7.12635"><ele>469.6</ele></trkpt>
      <trkpt lat="44.051731" lon="7.125842"><ele>473.2</ele></trkpt>
      <trkpt lat="44.05227" lon="7.125225"><ele>476</ele></trkpt>
      <trkpt lat="44.052715" lon="7.124495"><ele>479.8</ele></trkpt>
      <trkpt lat="44.053356" lon="7.124369"><ele>484.4</ele></trkpt>
      <trkpt lat="44.053485" lon="7.123469"><ele>486</ele></trkpt>
      <trkpt lat="44.053932" lon="7.1227"><ele>489.6</ele></trkpt>
      <trkpt lat="44.054563" lon="7.122182"><ele>491.4</ele></trkpt>
      <trkpt lat="44.054741" lon="7.121152"><ele>491.2</ele></trkpt>
      <trkpt lat="44.054827" lon="7.120177"><ele>496</ele></trkpt>
      <trkpt lat="44.054728" lon="7.119189"><ele>503.6</ele></trkpt>
      <trkpt lat="44.054906" lon="7.119627"><ele>507.4</ele></trkpt>
      <trkpt lat="44.05502" lon="7.120624"><ele>510.6</ele></trkpt>
      <trkpt lat="44.054713" lon="7.121344"><ele>515.6</ele></trkpt>
      <trkpt lat="44.054665" lon="7.122154"><ele>519.8</ele></trkpt>
      <trkpt lat="44.054358" lon="7.123013"><ele>524</ele></trkpt>
      <trkpt lat="44.054249" lon="7.123978"><ele>529.4</ele></trkpt>
      <trkpt lat="44.054208" lon="7.124947"><ele>536.4</ele></trkpt>
      <trkpt lat="44.053694" lon="7.125489"><ele>543.4</ele></trkpt>
      <trkpt lat="44.053194" lon="7.126033"><ele>547.8</ele></trkpt>
      <trkpt lat="44.052792" lon="7.126804"><ele>553.8</ele></trkpt>
      <trkpt lat="44.052189" lon="7.127119"><ele>560.2</ele></trkpt>
      <trkpt lat="44.05164" lon="7.127718"><ele>565.8</ele></trkpt>
      <trkpt lat="44.051222" lon="7.12851"><ele>572.6</ele></trkpt>
      <trkpt lat="44.050744" lon="7.129232"><ele>578.2</ele></trkpt>
      <trkpt lat="44.050132" lon="7.129614"><ele>585.6</ele></trkpt>
      <trkpt lat="44.049516" lon="7.130062"><ele>591</ele></trkpt>
      <trkpt lat="44.048858" lon="7.13042"><ele>595</ele></trkpt>
      <trkpt lat="44.048399" lon="7.131137"><ele>600.4</ele></trkpt>
      <trkpt lat="44.048677" lon="7.132042"><ele>607.6</ele></trkpt>
      <trkpt lat="44.049376" lon="7.132016"><ele>613.2</ele></trkpt>
      <trkpt lat="44.050044" lon="7.132363"><ele>619.6</ele></trkpt>
      <trkpt lat="44.050433" lon="7.13312"><ele>625.4</ele></trkpt>
      <trkpt lat="44.050968" lon="7.133608"><ele>631.2</ele></trkpt>
      <trkpt lat="44.051654" lon="7.133812"><ele>637.2</ele></trkpt>
      <trkpt lat="44.052347" lon="7.133713"><ele>643.6</ele></trkpt>
      <trkpt lat="44.053038" lon="7.133609"><ele>649</ele></trkpt>
      <trkpt lat="44.053707" lon="7.133785"><ele>654</ele></trkpt>
      <trkpt lat="44.054396" lon="7.133792"><ele>661</ele></trkpt>
      <trkpt lat="44.055068" lon="7.134006"><ele>667</ele></trkpt>
      <trkpt lat="44.055728" lon="7.133996"><ele>670.6</ele></trkpt>
      <trkpt lat="44.056499" lon="7.133931"><ele>673.2</ele></trkpt>
      <trkpt lat="44.0572" lon="7.134008"><ele>676.8</ele></trkpt>
      <trkpt lat="44.057844" lon="7.134397"><ele>681.8</ele></trkpt>
      <trkpt lat="44.058446" lon="7.134799"><ele>687</ele></trkpt>
      <trkpt lat="44.059136" lon="7.135074"><ele>691.4</ele></trkpt>
      <trkpt lat="44.059599" lon="7.135725"><ele>696</ele></trkpt>
      <trkpt lat="44.06023" lon="7.136052"><ele>699.2</ele></trkpt>
      <trkpt lat="44.060601" lon="7.136826"><ele>704.6</ele></trkpt>
      <trkpt lat="44.061171" lon="7.137257"><ele>709.2</ele></trkpt>
      <trkpt lat="44.061456" lon="7.138087"><ele>714</ele></trkpt>
      <trkpt lat="44.062037" lon="7.138512"><ele>718.6</ele></trkpt>
      <trkpt lat="44.062651" lon="7.139058"><ele>723.6</ele></trkpt>
      <trkpt lat="44.06315" lon="7.13972"><ele>727.6</ele></trkpt>
      <trkpt lat="44.063552" lon="7.140563"><ele>731.8</ele></trkpt>
      <trkpt lat="44.064099" lon="7.140978"><ele>735.4</ele></trkpt>
      <trkpt lat="44.063948" lon="7.141916"><ele>740.2</ele></trkpt>
      <trkpt lat="44.064025" lon="7.14289"><ele>744.4</ele></trkpt>
      <trkpt lat="44.064042" lon="7.143895"><ele>749.4</ele></trkpt>
      <trkpt lat="44.064131" lon="7.144899"><ele>753</ele></trkpt>
      <trkpt lat="44.064167" lon="7.145877"><ele>757.6</ele></trkpt>
      <trkpt lat="44.064359" lon="7.146847"><ele>761.8</ele></trkpt>
      <trkpt lat="44.064776" lon="7.147627"><ele>766.2</ele></trkpt>
      <trkpt lat="44.064992" lon="7.147449"><ele>769.4</ele></trkpt>
      <trkpt lat="44.065064" lon="7.14654"><ele>773.4</ele></trkpt>
      <trkpt lat="44.065052" lon="7.145536"><ele>777.8</ele></trkpt>
      <trkpt lat="44.064924" lon="7.144647"><ele>783.2</ele></trkpt>
      <trkpt lat="44.065269" lon="7.144712"><ele>788.6</ele></trkpt>
      <trkpt lat="44.06532" lon="7.145684"><ele>794.4</ele></trkpt>
      <trkpt lat="44.065975" lon="7.14601"><ele>799.2</ele></trkpt>
      <trkpt lat="44.066653" lon="7.146272"><ele>804</ele></trkpt>
      <trkpt lat="44.067291" lon="7.145998"><ele>809.6</ele></trkpt>
      <trkpt lat="44.067381" lon="7.14673"><ele>813</ele></trkpt>
      <trkpt lat="44.067916" lon="7.147323"><ele>818</ele></trkpt>
      <trkpt lat="44.068407" lon="7.147959"><ele>822.2</ele></trkpt>
      <trkpt lat="44.068069" lon="7.147128"><ele>825.2</ele></trkpt>
      <trkpt lat="44.067958" lon="7.146171"><ele>830</ele></trkpt>
      <trkpt lat="44.068135" lon="7.146369"><ele>835.2</ele></trkpt>
      <trkpt lat="44.068518" lon="7.147215"><ele>840.2</ele></trkpt>
      <trkpt lat="44.068909" lon="7.148029"><ele>844.8</ele></trkpt>
      <trkpt lat="44.069375" lon="7.148771"><ele>849.6</ele></trkpt>
      <trkpt lat="44.069613" lon="7.149729"><ele>854.4</ele></trkpt>
      <trkpt lat="44.06988" lon="7.150622"><ele>859</ele></trkpt>
      <trkpt lat="44.069802" lon="7.149907"><ele>861.6</ele></trkpt>
      <trkpt lat="44.069748" lon="7.14894"><ele>866.2</ele></trkpt>
      <trkpt lat="44.069546" lon="7.148116"><ele>872.4</ele></trkpt>
      <trkpt lat="44.069145" lon="7.147298"><ele>876.8</ele></trkpt>
      <trkpt lat="44.068869" lon="7.1464"><ele>881.4</ele></trkpt>
      <trkpt lat="44.068974" lon="7.146479"><ele>886</ele></trkpt>
      <trkpt lat="44.069337" lon="7.147308"><ele>890.8</ele></trkpt>
      <trkpt lat="44.069899" lon="7.147922"><ele>895.6</ele></trkpt>
      <trkpt lat="44.070367" lon="7.148539"><ele>900.4</ele></trkpt>
      <trkpt lat="44.07028" lon="7.149516"><ele>905.8</ele></trkpt>
      <trkpt lat="44.070598" lon="7.150386"><ele>910.8</ele></trkpt>
      <trkpt lat="44.071011" lon="7.151178"><ele>915.8</ele></trkpt>
      <trkpt lat="44.071327" lon="7.152053"><ele>919.6</ele></trkpt>
      <trkpt lat="44.071785" lon="7.152779"><ele>923</ele></trkpt>
      <trkpt lat="44.072016" lon="7.153733"><ele>927.4</ele></trkpt>
      <trkpt lat="44.072015" lon="7.154629"><ele>932.6</ele></trkpt>
      <trkpt lat="44.071655" lon="7.155488"><ele>937.6</ele></trkpt>
      <trkpt lat="44.071288" lon="7.156345"><ele>942.6</ele></trkpt>
      <trkpt lat="44.071628" lon="7.157164"><ele>947</ele></trkpt>
      <trkpt lat="44.071837" lon="7.158114"><ele>951.4</ele></trkpt>
      <trkpt lat="44.072019" lon="7.159071"><ele>956.4</ele></trkpt>
      <trkpt lat="44.072256" lon="7.159999"><ele>960.8</ele></trkpt>
      <trkpt lat="44.072528" lon="7.160917"><ele>965.4</ele></trkpt>
      <trkpt lat="44.072848" lon="7.161809"><ele>970.2</ele></trkpt>
      <trkpt lat="44.073254" lon="7.162612"><ele>975.2</ele></trkpt>
      <trkpt lat="44.073896" lon="7.163027"><ele>979.6</ele></trkpt>
      <trkpt lat="44.074254" lon="7.163862"><ele>984.4</ele></trkpt>
      <trkpt lat="44.074563" lon="7.164709"><ele>988.8</ele></trkpt>
      <trkpt lat="44.075043" lon="7.165428"><ele>993.6</ele></trkpt>
      <trkpt lat="44.074911" lon="7.166242"><ele>996.4</ele></trkpt>
      <trkpt lat="44.074242" lon="7.166526"><ele>996.6</ele></trkpt>
      <trkpt lat="44.073524" lon="7.166424"><ele>996.4</ele></trkpt>
      <trkpt lat="44.072839" lon="7.166297"><ele>995.6</ele></trkpt>
      <trkpt lat="44.072103" lon="7.166282"><ele>995</ele></trkpt>
      <trkpt lat="44.071523" lon="7.166508"><ele>996.6</ele></trkpt>
      <trkpt lat="44.070827" lon="7.166817"><ele>1000.6</ele></trkpt>
      <trkpt lat="44.070297" lon="7.167482"><ele>1005.6</ele></trkpt>
      <trkpt lat="44.069804" lon="7.168203"><ele>1010.8</ele></trkpt>
      <trkpt lat="44.069351" lon="7.168942"><ele>1018</ele></trkpt>
      <trkpt lat="44.069196" lon="7.169914"><ele>1025</ele></trkpt>
      <trkpt lat="44.069057" lon="7.170869"><ele>1032.2</ele></trkpt>
      <trkpt lat="44.069642" lon="7.170931"><ele>1036.2</ele></trkpt>
      <trkpt lat="44.070339" lon="7.17089"><ele>1041.8</ele></trkpt>
      <trkpt lat="44.071047" lon="7.170875"><ele>1047.4</ele></trkpt>
      <trkpt lat="44.071765" lon="7.170794"><ele>1052.4</ele></trkpt>
      <trkpt lat="44.072353" lon="7.170323"><ele>1057.4</ele></trkpt>
      <trkpt lat="44.072808" lon="7.169537"><ele>1062.2</ele></trkpt>
      <trkpt lat="44.073269" lon="7.169259"><ele>1066.2</ele></trkpt>
      <trkpt lat="44.07278" lon="7.169916"><ele>1070.2</ele></trkpt>
      <trkpt lat="44.072513" lon="7.170849"><ele>1075.6</ele></trkpt>
      <trkpt lat="44.07214" lon="7.171669"><ele>1081.2</ele></trkpt>
      <trkpt lat="44.071638" lon="7.17237"><ele>1087.2</ele></trkpt>
      <trkpt lat="44.071234" lon="7.173194"><ele>1092.2</ele></trkpt>
      <trkpt lat="44.070802" lon="7.17399"><ele>1097.6</ele></trkpt>
      <trkpt lat="44.070538" lon="7.174881"><ele>1102.8</ele></trkpt>
      <trkpt lat="44.06994" lon="7.175434"><ele>1107.4</ele></trkpt>
      <trkpt lat="44.069358" lon="7.176008"><ele>1111.4</ele></trkpt>
      <trkpt lat="44.068769" lon="7.176588"><ele>1115.4</ele></trkpt>
      <trkpt lat="44.068186" lon="7.177113"><ele>1117.8</ele></trkpt>
      <trkpt lat="44.067912" lon="7.178015"><ele>1119.4</ele></trkpt>
      <trkpt lat="44.067838" lon="7.179004"><ele>1124.2</ele></trkpt>
      <trkpt lat="44.067714" lon="7.180004"><ele>1129.6</ele></trkpt>
      <trkpt lat="44.06747" lon="7.18093"><ele>1134.2</ele></trkpt>
      <trkpt lat="44.067203" lon="7.181858"><ele>1139</ele></trkpt>
      <trkpt lat="44.066789" lon="7.18265"><ele>1143.4</ele></trkpt>
      <trkpt lat="44.066273" lon="7.183309"><ele>1148.4</ele></trkpt>
      <trkpt lat="44.065755" lon="7.18401"><ele>1153.8</ele></trkpt>
      <trkpt lat="44.065218" lon="7.184643"><ele>1157.8</ele></trkpt>
      <trkpt lat="44.064708" lon="7.185363"><ele>1163.2</ele></trkpt>
      <trkpt lat="44.064289" lon="7.186146"><ele>1168</ele></trkpt>
      <trkpt lat="44.06398" lon="7.187048"><ele>1172.8</ele></trkpt>
      <trkpt lat="44.064267" lon="7.187581"><ele>1177.8</ele></trkpt>
      <trkpt lat="44.06495" lon="7.187342"><ele>1182.4</ele></trkpt>
      <trkpt lat="44.065636" lon="7.187462"><ele>1187.8</ele></trkpt>
      <trkpt lat="44.066134" lon="7.186749"><ele>1192.4</ele></trkpt>
      <trkpt lat="44.066451" lon="7.186642"><ele>1198.4</ele></trkpt>
      <trkpt lat="44.06612" lon="7.187492"><ele>1203.4</ele></trkpt>
      <trkpt lat="44.066063" lon="7.188484"><ele>1208.6</ele></trkpt>
      <trkpt lat="44.066089" lon="7.189461"><ele>1214</ele></trkpt>
      <trkpt lat="44.065978" lon="7.190441"><ele>1219</ele></trkpt>
      <trkpt lat="44.065712" lon="7.191368"><ele>1224</ele></trkpt>
      <trkpt lat="44.065659" lon="7.192357"><ele>1229.4</ele></trkpt>
      <trkpt lat="44.065528" lon="7.193315"><ele>1234.2</ele></trkpt>
      <trkpt lat="44.065371" lon="7.194293"><ele>1240.4</ele></trkpt>
      <trkpt lat="44.065518" lon="7.195237"><ele>1246</ele></trkpt>
      <trkpt lat="44.065588" lon="7.196244"><ele>1251.6</ele></trkpt>
      <trkpt lat="44.065698" lon="7.197204"><ele>1257.2</ele></trkpt>
      <trkpt lat="44.065978" lon="7.198106"><ele>1263</ele></trkpt>
      <trkpt lat="44.066275" lon="7.19901"><ele>1268.2</ele></trkpt>
      <trkpt lat="44.066556" lon="7.19994"><ele>1273.8</ele></trkpt>
      <trkpt lat="44.066673" lon="7.200911"><ele>1277.6</ele></trkpt>
      <trkpt lat="44.066458" lon="7.201786"><ele>1281.6</ele></trkpt>
      <trkpt lat="44.066595" lon="7.202735"><ele>1287</ele></trkpt>
      <trkpt lat="44.066493" lon="7.20324"><ele>1291.8</ele></trkpt>
      <trkpt lat="44.066745" lon="7.204113"><ele>1296</ele></trkpt>
      <trkpt lat="44.066905" lon="7.203322"><ele>1296.2</ele></trkpt>
      <trkpt lat="44.06686" lon="7.203844"><ele>1295.2</ele></trkpt>
      <trkpt lat="44.067319" lon="7.20422"><ele>1298.8</ele></trkpt>
      <trkpt lat="44.06802" lon="7.204363"><ele>1304.6</ele></trkpt>
      <trkpt lat="44.068664" lon="7.204755"><ele>1310.2</ele></trkpt>
      <trkpt lat="44.069313" lon="7.205215"><ele>1316.6</ele></trkpt>
      <trkpt lat="44.069906" lon="7.205751"><ele>1322</ele></trkpt>
      <trkpt lat="44.07056" lon="7.206163"><ele>1326.8</ele></trkpt>
      <trkpt lat="44.071155" lon="7.206683"><ele>1332.6</ele></trkpt>
      <trkpt lat="44.071625" lon="7.20737"><ele>1338.2</ele></trkpt>
      <trkpt lat="44.071959" lon="7.208236"><ele>1343.8</ele></trkpt>
      <trkpt lat="44.072038" lon="7.209099"><ele>1348</ele></trkpt>
      <trkpt lat="44.072208" lon="7.208228"><ele>1351.4</ele></trkpt>
      <trkpt lat="44.072359" lon="7.20729"><ele>1357.2</ele></trkpt>
      <trkpt lat="44.072425" lon="7.206292"><ele>1362.4</ele></trkpt>
      <trkpt lat="44.07221" lon="7.205358"><ele>1366.8</ele></trkpt>
      <trkpt lat="44.072197" lon="7.204366"><ele>1373.4</ele></trkpt>
      <trkpt lat="44.072291" lon="7.203395"><ele>1379.2</ele></trkpt>
      <trkpt lat="44.072642" lon="7.202817"><ele>1383.4</ele></trkpt>
      <trkpt lat="44.072559" lon="7.203792"><ele>1387.4</ele></trkpt>
      <trkpt lat="44.072575" lon="7.204792"><ele>1391.8</ele></trkpt>
      <trkpt lat="44.073038" lon="7.205476"><ele>1397.6</ele></trkpt>
      <trkpt lat="44.07349" lon="7.206091"><ele>1403.6</ele></trkpt>
      <trkpt lat="44.07356" lon="7.207067"><ele>1409</ele></trkpt>
      <trkpt lat="44.07356" lon="7.208051"><ele>1415.2</ele></trkpt>
      <trkpt lat="44.073723" lon="7.209027"><ele>1420.8</ele></trkpt>
      <trkpt lat="44.073971" lon="7.20993"><ele>1426.6</ele></trkpt>
      <trkpt lat="44.073898" lon="7.210914"><ele>1432.6</ele></trkpt>
      <trkpt lat="44.073802" lon="7.211882"><ele>1437.8</ele></trkpt>
      <trkpt lat="44.073824" lon="7.212886"><ele>1443.2</ele></trkpt>
      <trkpt lat="44.073796" lon="7.213878"><ele>1449</ele></trkpt>
      <trkpt lat="44.073868" lon="7.214831"><ele>1455.2</ele></trkpt>
      <trkpt lat="44.073887" lon="7.215799"><ele>1461.4</ele></trkpt>
      <trkpt lat="44.07354" lon="7.216664"><ele>1466.8</ele></trkpt>
      <trkpt lat="44.073256" lon="7.217567"><ele>1472.2</ele></trkpt>
      <trkpt lat="44.072928" lon="7.218472"><ele>1477.6</ele></trkpt>
      <trkpt lat="44.072517" lon="7.219257"><ele>1483</ele></trkpt>
      <trkpt lat="44.072127" lon="7.220114"><ele>1489</ele></trkpt>
      <trkpt lat="44.071566" lon="7.220638"><ele>1495.8</ele></trkpt>
      <trkpt lat="44.071001" lon="7.221088"><ele>1501.2</ele></trkpt>
      <trkpt lat="44.070909" lon="7.222064"><ele>1502.4</ele></trkpt>
      <trkpt lat="44.071011" lon="7.222961"><ele>1501</ele></trkpt>
      <trkpt lat="44.070853" lon="7.223959"><ele>1496.2</ele></trkpt>
      <trkpt lat="44.070884" lon="7.224906"><ele>1492</ele></trkpt>
      <trkpt lat="44.071117" lon="7.225878"><ele>1488.2</ele></trkpt>
      <trkpt lat="44.071379" lon="7.226745"><ele>1481.8</ele></trkpt>
      <trkpt lat="44.071664" lon="7.227713"><ele>1476.8</ele></trkpt>
      <trkpt lat="44.071916" lon="7.22865"><ele>1471.6</ele></trkpt>
      <trkpt lat="44.07203" lon="7.229546"><ele>1466.8</ele></trkpt>
      <trkpt lat="44.072161" lon="7.230629"><ele>1461.6</ele></trkpt>
      <trkpt lat="44.072358" lon="7.231491"><ele>1458</ele></trkpt>
      <trkpt lat="44.07289" lon="7.232169"><ele>1452.4</ele></trkpt>
      <trkpt lat="44.073129" lon="7.233146"><ele>1447</ele></trkpt>
      <trkpt lat="44.073305" lon="7.234018"><ele>1442.2</ele></trkpt>
      <trkpt lat="44.073685" lon="7.234882"><ele>1436.6</ele></trkpt>
      <trkpt lat="44.073952" lon="7.235834"><ele>1431</ele></trkpt>
      <trkpt lat="44.073998" lon="7.23691"><ele>1425.2</ele></trkpt>
      <trkpt lat="44.074268" lon="7.237646"><ele>1421</ele></trkpt>
      <trkpt lat="44.074789" lon="7.238354"><ele>1416.6</ele></trkpt>
      <trkpt lat="44.075513" lon="7.238821"><ele>1411.8</ele></trkpt>
      <trkpt lat="44.076185" lon="7.239095"><ele>1407.6</ele></trkpt>
      <trkpt lat="44.076786" lon="7.238783"><ele>1403</ele></trkpt>
      <trkpt lat="44.077339" lon="7.23812"><ele>1398</ele></trkpt>
      <trkpt lat="44.077811" lon="7.238807"><ele>1394.4</ele></trkpt>
      <trkpt lat="44.078374" lon="7.239616"><ele>1388</ele></trkpt>
      <trkpt lat="44.078865" lon="7.240132"><ele>1382.8</ele></trkpt>
      <trkpt lat="44.079411" lon="7.240913"><ele>1377.8</ele></trkpt>
      <trkpt lat="44.079918" lon="7.241507"><ele>1373.4</ele></trkpt>
      <trkpt lat="44.080604" lon="7.241791"><ele>1367.6</ele></trkpt>
      <trkpt lat="44.081278" lon="7.242062"><ele>1362.6</ele></trkpt>
      <trkpt lat="44.08201" lon="7.2422"><ele>1357.6</ele></trkpt>
      <trkpt lat="44.082632" lon="7.241791"><ele>1354.6</ele></trkpt>
      <trkpt lat="44.082265" lon="7.24222"><ele>1349.8</ele></trkpt>
      <trkpt lat="44.08153" lon="7.242351"><ele>1343.2</ele></trkpt>
      <trkpt lat="44.080814" lon="7.242264"><ele>1336.6</ele></trkpt>
      <trkpt lat="44.080183" lon="7.242183"><ele>1331</ele></trkpt>
      <trkpt lat="44.079434" lon="7.241912"><ele>1324.4</ele></trkpt>
      <trkpt lat="44.07882" lon="7.241443"><ele>1319.8</ele></trkpt>
      <trkpt lat="44.08819" lon="7.240959"><ele>1314.4</ele></trkpt>
      <trkpt lat="44.077592" lon="7.2404"><ele>1309.6</ele></trkpt>
      <trkpt lat="44.07705" lon="7.240573"><ele>1306.4</ele></trkpt>
      <trkpt lat="44.076691" lon="7.241402"><ele>1300.2</ele></trkpt>
      <trkpt lat="44.076091" lon="7.241841"><ele>1295.2</ele></trkpt>
      <trkpt lat="44.076653" lon="7.241776"><ele>1289.8</ele></trkpt>
      <trkpt lat="44.07716" lon="7.241045"><ele>1283.4</ele></trkpt>
      <trkpt lat="44.077645" lon="7.241475"><ele>1277.8</ele></trkpt>
      <trkpt lat="44.078119" lon="7.242124"><ele>1271.8</ele></trkpt>
      <trkpt lat="44.078694" lon="7.242733"><ele>1264.8</ele></trkpt>
      <trkpt lat="44.079242" lon="7.24327"><ele>1259</ele></trkpt>
      <trkpt lat="44.079945" lon="7.243668"><ele>1252.4</ele></trkpt>
      <trkpt lat="44.080595" lon="7.244045"><ele>1246</ele></trkpt>
      <trkpt lat="44.08129" lon="7.244421"><ele>1238.6</ele></trkpt>
      <trkpt lat="44.081987" lon="7.244871"><ele>1232.2</ele></trkpt>
      <trkpt lat="44.082669" lon="7.244896"><ele>1227</ele></trkpt>
      <trkpt lat="44.083305" lon="7.244796"><ele>1221.8</ele></trkpt>
      <trkpt lat="44.08346" lon="7.245688"><ele>1216.6</ele></trkpt>
      <trkpt lat="44.084158" lon="7.245452"><ele>1209.6</ele></trkpt>
      <trkpt lat="44.084839" lon="7.245238"><ele>1202.4</ele></trkpt>
      <trkpt lat="44.084874" lon="7.246054"><ele>1197.4</ele></trkpt>
      <trkpt lat="44.085028" lon="7.246845"><ele>1191.2</ele></trkpt>
      <trkpt lat="44.085782" lon="7.247133"><ele>1183</ele></trkpt>
      <trkpt lat="44.086364" lon="7.247369"><ele>1177.2</ele></trkpt>
      <trkpt lat="44.087127" lon="7.247711"><ele>1170.4</ele></trkpt>
      <trkpt lat="44.087722" lon="7.248027"><ele>1164.6</ele></trkpt>
      <trkpt lat="44.088472" lon="7.248395"><ele>1157.4</ele></trkpt>
      <trkpt lat="44.08903" lon="7.248767"><ele>1153.4</ele></trkpt>
      <trkpt lat="44.089657" lon="7.249461"><ele>1146.8</ele></trkpt>
      <trkpt lat="44.090136" lon="7.250136"><ele>1143.2</ele></trkpt>
      <trkpt lat="44.090353" lon="7.251079"><ele>1137.6</ele></trkpt>
      <trkpt lat="44.08999" lon="7.251105"><ele>1131.4</ele></trkpt>
      <trkpt lat="44.08948" lon="7.250305"><ele>1125.6</ele></trkpt>
      <trkpt lat="44.088897" lon="7.249989"><ele>1121.2</ele></trkpt>
      <trkpt lat="44.088204" lon="7.249973"><ele>1115.6</ele></trkpt>
      <trkpt lat="44.087454" lon="7.249809"><ele>1110.2</ele></trkpt>
      <trkpt lat="44.086791" lon="7.249641"><ele>1104.2</ele></trkpt>
      <trkpt lat="44.085982" lon="7.24937"><ele>1097.6</ele></trkpt>
      <trkpt lat="44.085298" lon="7.249283"><ele>1093</ele></trkpt>
      <trkpt lat="44.084605" lon="7.249512"><ele>1087.4</ele></trkpt>
      <trkpt lat="44.083899" lon="7.249743"><ele>1082</ele></trkpt>
      <trkpt lat="44.083303" lon="7.250109"><ele>1076.8</ele></trkpt>
      <trkpt lat="44.082582" lon="7.250145"><ele>1072.6</ele></trkpt>
      <trkpt lat="44.081836" lon="7.24984"><ele>1066.4</ele></trkpt>
      <trkpt lat="44.081187" lon="7.249568"><ele>1060</ele></trkpt>
      <trkpt lat="44.080506" lon="7.249337"><ele>1054</ele></trkpt>
      <trkpt lat="44.07979" lon="7.249494"><ele>1047.6</ele></trkpt>
      <trkpt lat="44.079124" lon="7.249701"><ele>1042.4</ele></trkpt>
      <trkpt lat="44.078393" lon="7.249779"><ele>1036.4</ele></trkpt>
      <trkpt lat="44.077696" lon="7.249806"><ele>1030.6</ele></trkpt>
      <trkpt lat="44.076982" lon="7.249859"><ele>1024.8</ele></trkpt>
      <trkpt lat="44.076223" lon="7.249656"><ele>1017.8</ele></trkpt>
      <trkpt lat="44.076026" lon="7.249734"><ele>1013.6</ele></trkpt>
      <trkpt lat="44.075314" lon="7.24964"><ele>1006.2</ele></trkpt>
      <trkpt lat="44.07462" lon="7.249834"><ele>996.8</ele></trkpt>
      <trkpt lat="44.074046" lon="7.250375"><ele>991.2</ele></trkpt>
      <trkpt lat="44.073994" lon="7.25132"><ele>990</ele></trkpt>
      <trkpt lat="44.073424" lon="7.251925"><ele>986.6</ele></trkpt>
      <trkpt lat="44.072833" lon="7.252362"><ele>986.8</ele></trkpt>
      <trkpt lat="44.07224" lon="7.25295"><ele>985.8</ele></trkpt>
      <trkpt lat="44.071747" lon="7.253662"><ele>984.8</ele></trkpt>
      <trkpt lat="44.071309" lon="7.254511"><ele>984</ele></trkpt>
      <trkpt lat="44.070909" lon="7.255273"><ele>980.4</ele></trkpt>
      <trkpt lat="44.070408" lon="7.256072"><ele>978.6</ele></trkpt>
      <trkpt lat="44.070215" lon="7.255883"><ele>976</ele></trkpt>
      <trkpt lat="44.070696" lon="7.255124"><ele>971.2</ele></trkpt>
      <trkpt lat="44.0704" lon="7.254517"><ele>967.6</ele></trkpt>
      <trkpt lat="44.069817" lon="7.254978"><ele>963.8</ele></trkpt>
      <trkpt lat="44.069107" lon="7.255149"><ele>958.8</ele></trkpt>
      <trkpt lat="44.068398" lon="7.255243"><ele>952.6</ele></trkpt>
      <trkpt lat="44.06769" lon="7.255449"><ele>948</ele></trkpt>
      <trkpt lat="44.067095" lon="7.255876"><ele>943.2</ele></trkpt>
      <trkpt lat="44.067102" lon="7.25681"><ele>940.8</ele></trkpt>
      <trkpt lat="44.066564" lon="7.257319"><ele>938.4</ele></trkpt>
      <trkpt lat="44.065857" lon="7.257221"><ele>939</ele></trkpt>
      <trkpt lat="44.065127" lon="7.257171"><ele>938.4</ele></trkpt>
      <trkpt lat="44.064425" lon="7.257412"><ele>937.6</ele></trkpt>
      <trkpt lat="44.065029" lon="7.256986"><ele>932.4</ele></trkpt>
      <trkpt lat="44.065678" lon="7.256614"><ele>930.2</ele></trkpt>
      <trkpt lat="44.064905" lon="7.256766"><ele>927.4</ele></trkpt>
      <trkpt lat="44.064229" lon="7.257239"><ele>925</ele></trkpt>
    </trkseg>
  </trk>
</gpx>
