<?xml version="1.0" encoding="UTF-8"?>
<gpx version="1.1" creator="tools/extract_original.py"
     xmlns="http://www.topografix.com/GPX/1/1">
  <metadata><name>Tag 2: Kehl → Lörrach</name></metadata>
  <wpt lat="48.509377" lon="7.820258"><name>ATM</name></wpt>
  <wpt lat="48.366177" lon="7.786805"><name>Edeka Kohler</name></wpt>
  <wpt lat="48.069679" lon="7.534614"><name>Beautiful cycle path along the canal</name></wpt>
  <wpt lat="47.863142" lon="7.521514"><name>Canal des Mines de Potasse</name></wpt>
  <wpt lat="47.695326" lon="7.506779"><name>It's gravel, but easy to ride</name></wpt>
  <trk>
    <name>Tag 2: Kehl → Lörrach</name>
    <trkseg>
      <trkpt lat="48.56152" lon="7.80843"><ele>137.7</ele></trkpt>
      <trkpt lat="48.56151" lon="7.80817"><ele>137.7</ele></trkpt>
      <trkpt lat="48.56076" lon="7.8084"><ele>137.7</ele></trkpt>
      <trkpt lat="48.55719" lon="7.81236"><ele>138.0</ele></trkpt>
      <trkpt lat="48.555" lon="7.81297"><ele>138.3</ele></trkpt>
      <trkpt lat="48.55435" lon="7.81211"><ele>138.3</ele></trkpt>
      <trkpt lat="48.54863" lon="7.81319"><ele>137.7</ele></trkpt>
      <trkpt lat="48.54225" lon="7.81135"><ele>138.2</ele></trkpt>
      <trkpt lat="48.54028" lon="7.81428"><ele>137.9</ele></trkpt>
      <trkpt lat="48.53604" lon="7.82292"><ele>138.1</ele></trkpt>
      <trkpt lat="48.53559" lon="7.8244"><ele>137.9</ele></trkpt>
      <trkpt lat="48.53512" lon="7.8279"><ele>138.0</ele></trkpt>
      <trkpt lat="48.53381" lon="7.83177"><ele>138.8</ele></trkpt>
      <trkpt lat="48.53102" lon="7.83045"><ele>138.3</ele></trkpt>
      <trkpt lat="48.52817" lon="7.82749"><ele>137.8</ele></trkpt>
      <trkpt lat="48.52668" lon="7.82631"><ele>137.8</ele></trkpt>
      <trkpt lat="48.525" lon="7.82535"><ele>139.2</ele></trkpt>
      <trkpt lat="48.52336" lon="7.82489"><ele>140.8</ele></trkpt>
      <trkpt lat="48.5231" lon="7.82461"><ele>141.0</ele></trkpt>
      <trkpt lat="48.52286" lon="7.82372"><ele>141.4</ele></trkpt>
      <trkpt lat="48.52217" lon="7.82313"><ele>141.4</ele></trkpt>
      <trkpt lat="48.52104" lon="7.82273"><ele>141.3</ele></trkpt>
      <trkpt lat="48.52014" lon="7.82157"><ele>141.1</ele></trkpt>
      <trkpt lat="48.51884" lon="7.82126"><ele>140.6</ele></trkpt>
      <trkpt lat="48.51851" lon="7.82094"><ele>140.4</ele></trkpt>
      <trkpt lat="48.51793" lon="7.82104"><ele>140.2</ele></trkpt>
      <trkpt lat="48.51518" lon="7.82029"><ele>139.6</ele></trkpt>
      <trkpt lat="48.51426" lon="7.81975"><ele>139.8</ele></trkpt>
      <trkpt lat="48.51372" lon="7.81904"><ele>140.2</ele></trkpt>
      <trkpt lat="48.5123" lon="7.81926"><ele>140.9</ele></trkpt>
      <trkpt lat="48.51115" lon="7.82046"><ele>141.4</ele></trkpt>
      <trkpt lat="48.50887" lon="7.82005"><ele>141.9</ele></trkpt>
      <trkpt lat="48.50289" lon="7.82299"><ele>142.7</ele></trkpt>
      <trkpt lat="48.50137" lon="7.82183"><ele>142.8</ele></trkpt>
      <trkpt lat="48.49976" lon="7.82134"><ele>142.3</ele></trkpt>
      <trkpt lat="48.49873" lon="7.82127"><ele>142.0</ele></trkpt>
      <trkpt lat="48.49846" lon="7.82148"><ele>142.0</ele></trkpt>
      <trkpt lat="48.49826" lon="7.8213"><ele>141.9</ele></trkpt>
      <trkpt lat="48.4948" lon="7.82178"><ele>141.3</ele></trkpt>
      <trkpt lat="48.48818" lon="7.81794"><ele>144.2</ele></trkpt>
      <trkpt lat="48.47914" lon="7.817"><ele>142.8</ele></trkpt>
      <trkpt lat="48.4782" lon="7.81642"><ele>142.3</ele></trkpt>
      <trkpt lat="48.47651" lon="7.81456"><ele>141.4</ele></trkpt>
      <trkpt lat="48.47465" lon="7.81343"><ele>142.4</ele></trkpt>
      <trkpt lat="48.47309" lon="7.81201"><ele>143.7</ele></trkpt>
      <trkpt lat="48.47245" lon="7.8118"><ele>144.0</ele></trkpt>
      <trkpt lat="48.4689" lon="7.81222"><ele>144.7</ele></trkpt>
      <trkpt lat="48.46837" lon="7.81256"><ele>145.1</ele></trkpt>
      <trkpt lat="48.46759" lon="7.8136"><ele>145.7</ele></trkpt>
      <trkpt lat="48.46577" lon="7.81407"><ele>146.8</ele></trkpt>
      <trkpt lat="48.46505" lon="7.81394"><ele>147.2</ele></trkpt>
      <trkpt lat="48.46343" lon="7.8123"><ele>147.5</ele></trkpt>
      <trkpt lat="48.46199" lon="7.81465"><ele>146.4</ele></trkpt>
      <trkpt lat="48.46058" lon="7.81588"><ele>145.9</ele></trkpt>
      <trkpt lat="48.45895" lon="7.81782"><ele>145.7</ele></trkpt>
      <trkpt lat="48.45826" lon="7.81839"><ele>145.7</ele></trkpt>
      <trkpt lat="48.45768" lon="7.81812"><ele>145.7</ele></trkpt>
      <trkpt lat="48.45764" lon="7.81863"><ele>145.6</ele></trkpt>
      <trkpt lat="48.45727" lon="7.8187"><ele>145.6</ele></trkpt>
      <trkpt lat="48.45173" lon="7.81681"><ele>146.8</ele></trkpt>
      <trkpt lat="48.45168" lon="7.81702"><ele>146.9</ele></trkpt>
      <trkpt lat="48.4488" lon="7.8156"><ele>147.6</ele></trkpt>
      <trkpt lat="48.44573" lon="7.81357"><ele>146.7</ele></trkpt>
      <trkpt lat="48.44181" lon="7.81262"><ele>146.6</ele></trkpt>
      <trkpt lat="48.44027" lon="7.8119"><ele>146.9</ele></trkpt>
      <trkpt lat="48.43865" lon="7.81204"><ele>147.7</ele></trkpt>
      <trkpt lat="48.43841" lon="7.81245"><ele>147.9</ele></trkpt>
      <trkpt lat="48.43758" lon="7.81283"><ele>148.6</ele></trkpt>
      <trkpt lat="48.43598" lon="7.81314"><ele>149.6</ele></trkpt>
      <trkpt lat="48.43212" lon="7.81134"><ele>150.2</ele></trkpt>
      <trkpt lat="48.43092" lon="7.81195"><ele>150.0</ele></trkpt>
      <trkpt lat="48.43021" lon="7.81326"><ele>149.6</ele></trkpt>
      <trkpt lat="48.42999" lon="7.81328"><ele>149.6</ele></trkpt>
      <trkpt lat="48.42786" lon="7.8125"><ele>149.0</ele></trkpt>
      <trkpt lat="48.42321" lon="7.81199"><ele>148.3</ele></trkpt>
      <trkpt lat="48.41727" lon="7.81302"><ele>148.7</ele></trkpt>
      <trkpt lat="48.40153" lon="7.81259"><ele>150.0</ele></trkpt>
      <trkpt lat="48.39804" lon="7.81107"><ele>149.8</ele></trkpt>
      <trkpt lat="48.39593" lon="7.81078"><ele>150.3</ele></trkpt>
      <trkpt lat="48.38871" lon="7.80746"><ele>150.6</ele></trkpt>
      <trkpt lat="48.38777" lon="7.80648"><ele>150.5</ele></trkpt>
      <trkpt lat="48.38457" lon="7.80186"><ele>151.5</ele></trkpt>
      <trkpt lat="48.38201" lon="7.79873"><ele>151.0</ele></trkpt>
      <trkpt lat="48.37939" lon="7.79559"><ele>150.6</ele></trkpt>
      <trkpt lat="48.37636" lon="7.79263"><ele>152.3</ele></trkpt>
      <trkpt lat="48.3734" lon="7.78856"><ele>152.2</ele></trkpt>
      <trkpt lat="48.37273" lon="7.78805"><ele>152.2</ele></trkpt>
      <trkpt lat="48.37078" lon="7.78713"><ele>153.1</ele></trkpt>
      <trkpt lat="48.36653" lon="7.7879"><ele>153.3</ele></trkpt>
      <trkpt lat="48.36567" lon="7.78674"><ele>153.7</ele></trkpt>
      <trkpt lat="48.36601" lon="7.78606"><ele>153.9</ele></trkpt>
      <trkpt lat="48.36631" lon="7.78657"><ele>154.2</ele></trkpt>
      <trkpt lat="48.36601" lon="7.78606"><ele>154.5</ele></trkpt>
      <trkpt lat="48.36679" lon="7.78451"><ele>155.2</ele></trkpt>
      <trkpt lat="48.36714" lon="7.78239"><ele>154.9</ele></trkpt>
      <trkpt lat="48.36557" lon="7.78118"><ele>154.8</ele></trkpt>
      <trkpt lat="48.36629" lon="7.77872"><ele>154.3</ele></trkpt>
      <trkpt lat="48.36634" lon="7.77759"><ele>154.2</ele></trkpt>
      <trkpt lat="48.3661" lon="7.77728"><ele>154.2</ele></trkpt>
      <trkpt lat="48.36257" lon="7.77411"><ele>153.7</ele></trkpt>
      <trkpt lat="48.36146" lon="7.77247"><ele>153.4</ele></trkpt>
      <trkpt lat="48.35954" lon="7.77036"><ele>153.3</ele></trkpt>
      <trkpt lat="48.35579" lon="7.76728"><ele>153.2</ele></trkpt>
      <trkpt lat="48.35545" lon="7.76689"><ele>153.4</ele></trkpt>
      <trkpt lat="48.355" lon="7.76576"><ele>153.8</ele></trkpt>
      <trkpt lat="48.34966" lon="7.76366"><ele>156.7</ele></trkpt>
      <trkpt lat="48.34986" lon="7.7625"><ele>156.8</ele></trkpt>
      <trkpt lat="48.34796" lon="7.76094"><ele>156.5</ele></trkpt>
      <trkpt lat="48.34736" lon="7.76113"><ele>156.4</ele></trkpt>
      <trkpt lat="48.34539" lon="7.76065"><ele>156.4</ele></trkpt>
      <trkpt lat="48.3431" lon="7.75929"><ele>155.7</ele></trkpt>
      <trkpt lat="48.34143" lon="7.75737"><ele>154.8</ele></trkpt>
      <trkpt lat="48.33973" lon="7.7564"><ele>155.0</ele></trkpt>
      <trkpt lat="48.33902" lon="7.75492"><ele>155.3</ele></trkpt>
      <trkpt lat="48.3376" lon="7.75313"><ele>155.7</ele></trkpt>
      <trkpt lat="48.33614" lon="7.75253"><ele>156.0</ele></trkpt>
      <trkpt lat="48.33458" lon="7.75268"><ele>156.6</ele></trkpt>
      <trkpt lat="48.33338" lon="7.75168"><ele>157.1</ele></trkpt>
      <trkpt lat="48.33216" lon="7.75266"><ele>157.8</ele></trkpt>
      <trkpt lat="48.33003" lon="7.75343"><ele>158.5</ele></trkpt>
      <trkpt lat="48.32742" lon="7.75167"><ele>157.4</ele></trkpt>
      <trkpt lat="48.32556" lon="7.75171"><ele>156.9</ele></trkpt>
      <trkpt lat="48.32095" lon="7.75006"><ele>157.5</ele></trkpt>
      <trkpt lat="48.31846" lon="7.75086"><ele>157.7</ele></trkpt>
      <trkpt lat="48.31733" lon="7.75047"><ele>157.4</ele></trkpt>
      <trkpt lat="48.31623" lon="7.74939"><ele>157.1</ele></trkpt>
      <trkpt lat="48.31541" lon="7.74734"><ele>157.2</ele></trkpt>
      <trkpt lat="48.3147" lon="7.74639"><ele>157.7</ele></trkpt>
      <trkpt lat="48.3144" lon="7.74549"><ele>158.0</ele></trkpt>
      <trkpt lat="48.31387" lon="7.74473"><ele>158.1</ele></trkpt>
      <trkpt lat="48.31364" lon="7.74455"><ele>158.1</ele></trkpt>
      <trkpt lat="48.31181" lon="7.74465"><ele>157.8</ele></trkpt>
      <trkpt lat="48.30958" lon="7.74233"><ele>158.7</ele></trkpt>
      <trkpt lat="48.30948" lon="7.74488"><ele>159.6</ele></trkpt>
      <trkpt lat="48.30934" lon="7.74506"><ele>159.7</ele></trkpt>
      <trkpt lat="48.30282" lon="7.74482"><ele>159.9</ele></trkpt>
      <trkpt lat="48.29759" lon="7.74365"><ele>160.7</ele></trkpt>
      <trkpt lat="48.29668" lon="7.74388"><ele>160.6</ele></trkpt>
      <trkpt lat="48.29616" lon="7.73949"><ele>159.5</ele></trkpt>
      <trkpt lat="48.29466" lon="7.73894"><ele>160.1</ele></trkpt>
      <trkpt lat="48.29494" lon="7.7378"><ele>160.5</ele></trkpt>
      <trkpt lat="48.29488" lon="7.73693"><ele>160.8</ele></trkpt>
      <trkpt lat="48.29397" lon="7.73682"><ele>161.2</ele></trkpt>
      <trkpt lat="48.295" lon="7.73489"><ele>160.0</ele></trkpt>
      <trkpt lat="48.2955" lon="7.73048"><ele>158.5</ele></trkpt>
      <trkpt lat="48.29602" lon="7.72889"><ele>158.4</ele></trkpt>
      <trkpt lat="48.29657" lon="7.72807"><ele>158.5</ele></trkpt>
      <trkpt lat="48.31104" lon="7.71431"><ele>159.3</ele></trkpt>
      <trkpt lat="48.31133" lon="7.71422"><ele>159.0</ele></trkpt>
      <trkpt lat="48.31164" lon="7.7148"><ele>158.5</ele></trkpt>
      <trkpt lat="48.3126" lon="7.71481"><ele>157.7</ele></trkpt>
      <trkpt lat="48.31337" lon="7.71372"><ele>157.5</ele></trkpt>
      <trkpt lat="48.31351" lon="7.7132"><ele>157.4</ele></trkpt>
      <trkpt lat="48.31344" lon="7.7123"><ele>157.6</ele></trkpt>
      <trkpt lat="48.31195" lon="7.70648"><ele>159.8</ele></trkpt>
      <trkpt lat="48.31188" lon="7.70521"><ele>160.4</ele></trkpt>
      <trkpt lat="48.31148" lon="7.70454"><ele>160.5</ele></trkpt>
      <trkpt lat="48.3092" lon="7.69515"><ele>159.8</ele></trkpt>
      <trkpt lat="48.30744" lon="7.69052"><ele>160.2</ele></trkpt>
      <trkpt lat="48.30542" lon="7.68688"><ele>160.3</ele></trkpt>
      <trkpt lat="48.3027" lon="7.68342"><ele>160.6</ele></trkpt>
      <trkpt lat="48.29901" lon="7.68028"><ele>161.2</ele></trkpt>
      <trkpt lat="48.29791" lon="7.67861"><ele>161.0</ele></trkpt>
      <trkpt lat="48.29705" lon="7.67776"><ele>160.6</ele></trkpt>
      <trkpt lat="48.29136" lon="7.67565"><ele>161.2</ele></trkpt>
      <trkpt lat="48.29049" lon="7.6748"><ele>161.5</ele></trkpt>
      <trkpt lat="48.28836" lon="7.67193"><ele>161.7</ele></trkpt>
      <trkpt lat="48.28973" lon="7.66526"><ele>161.8</ele></trkpt>
      <trkpt lat="48.28934" lon="7.66345"><ele>162.7</ele></trkpt>
      <trkpt lat="48.29042" lon="7.66129"><ele>162.9</ele></trkpt>
      <trkpt lat="48.29019" lon="7.66104"><ele>162.7</ele></trkpt>
      <trkpt lat="48.28961" lon="7.65909"><ele>161.9</ele></trkpt>
      <trkpt lat="48.28865" lon="7.65797"><ele>161.4</ele></trkpt>
      <trkpt lat="48.28891" lon="7.65334"><ele>161.3</ele></trkpt>
      <trkpt lat="48.28728" lon="7.6472"><ele>161.7</ele></trkpt>
      <trkpt lat="48.28265" lon="7.63536"><ele>161.7</ele></trkpt>
      <trkpt lat="48.28245" lon="7.63323"><ele>162.1</ele></trkpt>
      <trkpt lat="48.28148" lon="7.62956"><ele>162.5</ele></trkpt>
      <trkpt lat="48.28151" lon="7.62493"><ele>162.6</ele></trkpt>
      <trkpt lat="48.2808" lon="7.62166"><ele>163.0</ele></trkpt>
      <trkpt lat="48.28106" lon="7.62035"><ele>163.3</ele></trkpt>
      <trkpt lat="48.25351" lon="7.59926"><ele>167.3</ele></trkpt>
      <trkpt lat="48.2533" lon="7.59868"><ele>167.4</ele></trkpt>
      <trkpt lat="48.25158" lon="7.59786"><ele>167.6</ele></trkpt>
      <trkpt lat="48.17268" lon="7.53721"><ele>176.5</ele></trkpt>
      <trkpt lat="48.17106" lon="7.53618"><ele>176.2</ele></trkpt>
      <trkpt lat="48.17098" lon="7.53585"><ele>176.2</ele></trkpt>
      <trkpt lat="48.16995" lon="7.53544"><ele>176.2</ele></trkpt>
      <trkpt lat="48.16201" lon="7.5352"><ele>177.2</ele></trkpt>
      <trkpt lat="48.16172" lon="7.53483"><ele>177.3</ele></trkpt>
      <trkpt lat="48.16066" lon="7.53464"><ele>177.6</ele></trkpt>
      <trkpt lat="48.16007" lon="7.53519"><ele>177.7</ele></trkpt>
      <trkpt lat="48.10859" lon="7.53247"><ele>183.4</ele></trkpt>
      <trkpt lat="48.1086" lon="7.53271"><ele>183.4</ele></trkpt>
      <trkpt lat="48.10825" lon="7.5331"><ele>183.3</ele></trkpt>
      <trkpt lat="48.10811" lon="7.53384"><ele>183.2</ele></trkpt>
      <trkpt lat="48.09538" lon="7.53342"><ele>184.2</ele></trkpt>
      <trkpt lat="48.086" lon="7.53455"><ele>185.1</ele></trkpt>
      <trkpt lat="48.06972" lon="7.5339"><ele>186.9</ele></trkpt>
      <trkpt lat="48.06961" lon="7.53478"><ele>186.9</ele></trkpt>
      <trkpt lat="48.06741" lon="7.53877"><ele>186.8</ele></trkpt>
      <trkpt lat="48.05966" lon="7.5472"><ele>185.5</ele></trkpt>
      <trkpt lat="48.05074" lon="7.55141"><ele>187.2</ele></trkpt>
      <trkpt lat="48.04949" lon="7.55286"><ele>187.5</ele></trkpt>
      <trkpt lat="48.04812" lon="7.55548"><ele>187.3</ele></trkpt>
      <trkpt lat="48.04685" lon="7.55567"><ele>186.9</ele></trkpt>
      <trkpt lat="48.04664" lon="7.55424"><ele>186.7</ele></trkpt>
      <trkpt lat="48.04488" lon="7.55456"><ele>186.7</ele></trkpt>
      <trkpt lat="48.04378" lon="7.5539"><ele>186.6</ele></trkpt>
      <trkpt lat="48.04282" lon="7.55205"><ele>186.9</ele></trkpt>
      <trkpt lat="48.0425" lon="7.55021"><ele>187.6</ele></trkpt>
      <trkpt lat="48.04173" lon="7.54922"><ele>188.4</ele></trkpt>
      <trkpt lat="48.04159" lon="7.54764"><ele>189.5</ele></trkpt>
      <trkpt lat="48.04039" lon="7.54746"><ele>190.6</ele></trkpt>
      <trkpt lat="48.04028" lon="7.54674"><ele>190.9</ele></trkpt>
      <trkpt lat="48.04077" lon="7.54048"><ele>191.2</ele></trkpt>
      <trkpt lat="48.0397" lon="7.54077"><ele>191.3</ele></trkpt>
      <trkpt lat="48.03831" lon="7.54012"><ele>191.7</ele></trkpt>
      <trkpt lat="48.03787" lon="7.5403"><ele>192.0</ele></trkpt>
      <trkpt lat="48.03731" lon="7.53971"><ele>192.2</ele></trkpt>
      <trkpt lat="48.03426" lon="7.53965"><ele>191.9</ele></trkpt>
      <trkpt lat="48.02459" lon="7.53851"><ele>193.5</ele></trkpt>
      <trkpt lat="48.01962" lon="7.53913"><ele>194.3</ele></trkpt>
      <trkpt lat="48.01848" lon="7.53903"><ele>194.3</ele></trkpt>
      <trkpt lat="48.01442" lon="7.53794"><ele>194.5</ele></trkpt>
      <trkpt lat="48.01419" lon="7.5378"><ele>194.8</ele></trkpt>
      <trkpt lat="48.0141" lon="7.53477"><ele>196.6</ele></trkpt>
      <trkpt lat="48.01379" lon="7.53309"><ele>196.9</ele></trkpt>
      <trkpt lat="48.00968" lon="7.53487"><ele>195.3</ele></trkpt>
      <trkpt lat="48.00863" lon="7.53481"><ele>195.2</ele></trkpt>
      <trkpt lat="48.00754" lon="7.53574"><ele>195.3</ele></trkpt>
      <trkpt lat="48.0043" lon="7.53694"><ele>195.8</ele></trkpt>
      <trkpt lat="47.99081" lon="7.53572"><ele>196.5</ele></trkpt>
      <trkpt lat="47.98862" lon="7.53584"><ele>197.4</ele></trkpt>
      <trkpt lat="47.98561" lon="7.53518"><ele>197.9</ele></trkpt>
      <trkpt lat="47.9763" lon="7.53416"><ele>199.5</ele></trkpt>
      <trkpt lat="47.97574" lon="7.53443"><ele>199.7</ele></trkpt>
      <trkpt lat="47.97144" lon="7.53951"><ele>200.4</ele></trkpt>
      <trkpt lat="47.97101" lon="7.53974"><ele>200.4</ele></trkpt>
      <trkpt lat="47.96993" lon="7.53931"><ele>199.9</ele></trkpt>
      <trkpt lat="47.96933" lon="7.53768"><ele>199.2</ele></trkpt>
      <trkpt lat="47.96822" lon="7.53652"><ele>200.4</ele></trkpt>
      <trkpt lat="47.96438" lon="7.53598"><ele>200.6</ele></trkpt>
      <trkpt lat="47.96274" lon="7.53606"><ele>201.3</ele></trkpt>
      <trkpt lat="47.96059" lon="7.53713"><ele>201.5</ele></trkpt>
      <trkpt lat="47.95795" lon="7.53805"><ele>201.7</ele></trkpt>
      <trkpt lat="47.95418" lon="7.53742"><ele>202.8</ele></trkpt>
      <trkpt lat="47.95154" lon="7.53758"><ele>202.5</ele></trkpt>
      <trkpt lat="47.94971" lon="7.53698"><ele>201.9</ele></trkpt>
      <trkpt lat="47.94868" lon="7.53705"><ele>201.8</ele></trkpt>
      <trkpt lat="47.9479" lon="7.53731"><ele>201.8</ele></trkpt>
      <trkpt lat="47.94678" lon="7.53815"><ele>201.9</ele></trkpt>
      <trkpt lat="47.94613" lon="7.53915"><ele>201.7</ele></trkpt>
      <trkpt lat="47.94545" lon="7.54076"><ele>201.5</ele></trkpt>
      <trkpt lat="47.94417" lon="7.54249"><ele>201.4</ele></trkpt>
      <trkpt lat="47.92785" lon="7.53476"><ele>205.0</ele></trkpt>
      <trkpt lat="47.91778" lon="7.53199"><ele>208.3</ele></trkpt>
      <trkpt lat="47.91698" lon="7.53476"><ele>207.9</ele></trkpt>
      <trkpt lat="47.91674" lon="7.53651"><ele>207.7</ele></trkpt>
      <trkpt lat="47.9141" lon="7.53824"><ele>208.0</ele></trkpt>
      <trkpt lat="47.91143" lon="7.53892"><ele>207.6</ele></trkpt>
      <trkpt lat="47.88947" lon="7.53627"><ele>209.8</ele></trkpt>
      <trkpt lat="47.88732" lon="7.53634"><ele>210.8</ele></trkpt>
      <trkpt lat="47.8861" lon="7.53562"><ele>210.9</ele></trkpt>
      <trkpt lat="47.88418" lon="7.53392"><ele>210.9</ele></trkpt>
      <trkpt lat="47.88405" lon="7.53338"><ele>210.8</ele></trkpt>
      <trkpt lat="47.88376" lon="7.53335"><ele>210.7</ele></trkpt>
      <trkpt lat="47.88277" lon="7.53156"><ele>210.3</ele></trkpt>
      <trkpt lat="47.88217" lon="7.53087"><ele>210.4</ele></trkpt>
      <trkpt lat="47.87707" lon="7.52748"><ele>211.3</ele></trkpt>
      <trkpt lat="47.87259" lon="7.52408"><ele>212.6</ele></trkpt>
      <trkpt lat="47.86908" lon="7.52232"><ele>212.8</ele></trkpt>
      <trkpt lat="47.86697" lon="7.52175"><ele>212.9</ele></trkpt>
      <trkpt lat="47.8642" lon="7.52203"><ele>212.7</ele></trkpt>
      <trkpt lat="47.86135" lon="7.5203"><ele>213.4</ele></trkpt>
      <trkpt lat="47.85932" lon="7.51955"><ele>212.9</ele></trkpt>
      <trkpt lat="47.85789" lon="7.51853"><ele>212.5</ele></trkpt>
      <trkpt lat="47.85669" lon="7.518"><ele>212.4</ele></trkpt>
      <trkpt lat="47.84991" lon="7.51735"><ele>215.7</ele></trkpt>
      <trkpt lat="47.84099" lon="7.51441"><ele>215.2</ele></trkpt>
      <trkpt lat="47.84004" lon="7.51354"><ele>215.1</ele></trkpt>
      <trkpt lat="47.83846" lon="7.51278"><ele>215.1</ele></trkpt>
      <trkpt lat="47.83693" lon="7.51276"><ele>215.5</ele></trkpt>
      <trkpt lat="47.83266" lon="7.51406"><ele>217.2</ele></trkpt>
      <trkpt lat="47.82994" lon="7.51425"><ele>218.1</ele></trkpt>
      <trkpt lat="47.82822" lon="7.51469"><ele>218.8</ele></trkpt>
      <trkpt lat="47.82512" lon="7.51425"><ele>219.5</ele></trkpt>
      <trkpt lat="47.82445" lon="7.51366"><ele>219.5</ele></trkpt>
      <trkpt lat="47.82349" lon="7.51113"><ele>219.4</ele></trkpt>
      <trkpt lat="47.82073" lon="7.50707"><ele>219.9</ele></trkpt>
      <trkpt lat="47.81884" lon="7.50664"><ele>220.3</ele></trkpt>
      <trkpt lat="47.81458" lon="7.50626"><ele>221.3</ele></trkpt>
      <trkpt lat="47.81392" lon="7.50585"><ele>221.2</ele></trkpt>
      <trkpt lat="47.81359" lon="7.50613"><ele>221.2</ele></trkpt>
      <trkpt lat="47.8107" lon="7.50615"><ele>221.0</ele></trkpt>
      <trkpt lat="47.80453" lon="7.50579"><ele>222.1</ele></trkpt>
      <trkpt lat="47.79456" lon="7.50447"><ele>223.3</ele></trkpt>
      <trkpt lat="47.7927" lon="7.50391"><ele>222.8</ele></trkpt>
      <trkpt lat="47.7922" lon="7.50414"><ele>222.4</ele></trkpt>
      <trkpt lat="47.79138" lon="7.50531"><ele>221.6</ele></trkpt>
      <trkpt lat="47.79029" lon="7.50544"><ele>221.0</ele></trkpt>
      <trkpt lat="47.78979" lon="7.50622"><ele>221.1</ele></trkpt>
      <trkpt lat="47.78627" lon="7.50649"><ele>222.2</ele></trkpt>
      <trkpt lat="47.78576" lon="7.50625"><ele>222.0</ele></trkpt>
      <trkpt lat="47.78516" lon="7.50546"><ele>221.7</ele></trkpt>
      <trkpt lat="47.76945" lon="7.50558"><ele>223.2</ele></trkpt>
      <trkpt lat="47.7676" lon="7.50511"><ele>223.5</ele></trkpt>
      <trkpt lat="47.76272" lon="7.50495"><ele>224.5</ele></trkpt>
      <trkpt lat="47.76022" lon="7.50426"><ele>227.2</ele></trkpt>
      <trkpt lat="47.75914" lon="7.50505"><ele>227.8</ele></trkpt>
      <trkpt lat="47.75689" lon="7.50577"><ele>227.7</ele></trkpt>
      <trkpt lat="47.75565" lon="7.50545"><ele>226.9</ele></trkpt>
      <trkpt lat="47.75453" lon="7.50476"><ele>226.3</ele></trkpt>
      <trkpt lat="47.74938" lon="7.50489"><ele>227.1</ele></trkpt>
      <trkpt lat="47.74397" lon="7.50414"><ele>228.2</ele></trkpt>
      <trkpt lat="47.74204" lon="7.50497"><ele>229.3</ele></trkpt>
      <trkpt lat="47.74054" lon="7.50649"><ele>228.8</ele></trkpt>
      <trkpt lat="47.73925" lon="7.50826"><ele>227.5</ele></trkpt>
      <trkpt lat="47.73862" lon="7.50867"><ele>227.3</ele></trkpt>
      <trkpt lat="47.73681" lon="7.50903"><ele>227.2</ele></trkpt>
      <trkpt lat="47.73447" lon="7.5103"><ele>227.6</ele></trkpt>
      <trkpt lat="47.72899" lon="7.51181"><ele>228.9</ele></trkpt>
      <trkpt lat="47.72376" lon="7.5097"><ele>228.4</ele></trkpt>
      <trkpt lat="47.72086" lon="7.50705"><ele>230.2</ele></trkpt>
      <trkpt lat="47.71996" lon="7.50656"><ele>230.8</ele></trkpt>
      <trkpt lat="47.71555" lon="7.50741"><ele>231.9</ele></trkpt>
      <trkpt lat="47.71328" lon="7.50923"><ele>232.8</ele></trkpt>
      <trkpt lat="47.71242" lon="7.50895"><ele>232.8</ele></trkpt>
      <trkpt lat="47.71094" lon="7.50771"><ele>230.8</ele></trkpt>
      <trkpt lat="47.70987" lon="7.50937"><ele>229.9</ele></trkpt>
      <trkpt lat="47.70867" lon="7.51196"><ele>230.8</ele></trkpt>
      <trkpt lat="47.70221" lon="7.50601"><ele>234.9</ele></trkpt>
      <trkpt lat="47.70068" lon="7.50522"><ele>236.2</ele></trkpt>
      <trkpt lat="47.69908" lon="7.50496"><ele>237.4</ele></trkpt>
      <trkpt lat="47.69832" lon="7.50496"><ele>236.9</ele></trkpt>
      <trkpt lat="47.69811" lon="7.50546"><ele>236.6</ele></trkpt>
      <trkpt lat="47.69707" lon="7.50594"><ele>235.5</ele></trkpt>
      <trkpt lat="47.69688" lon="7.50689"><ele>234.6</ele></trkpt>
      <trkpt lat="47.69568" lon="7.50667"><ele>233.7</ele></trkpt>
      <trkpt lat="47.68839" lon="7.50746"><ele>233.7</ele></trkpt>
      <trkpt lat="47.68803" lon="7.50815"><ele>233.5</ele></trkpt>
      <trkpt lat="47.68794" lon="7.50983"><ele>233.3</ele></trkpt>
      <trkpt lat="47.68527" lon="7.51103"><ele>232.6</ele></trkpt>
      <trkpt lat="47.68173" lon="7.51188"><ele>232.6</ele></trkpt>
      <trkpt lat="47.67987" lon="7.51188"><ele>233.0</ele></trkpt>
      <trkpt lat="47.67207" lon="7.51079"><ele>233.5</ele></trkpt>
      <trkpt lat="47.66919" lon="7.50906"><ele>232.9</ele></trkpt>
      <trkpt lat="47.66766" lon="7.50903"><ele>233.4</ele></trkpt>
      <trkpt lat="47.66192" lon="7.51285"><ele>235.5</ele></trkpt>
      <trkpt lat="47.65992" lon="7.51344"><ele>235.2</ele></trkpt>
      <trkpt lat="47.65934" lon="7.51296"><ele>235.2</ele></trkpt>
      <trkpt lat="47.65855" lon="7.51382"><ele>235.9</ele></trkpt>
      <trkpt lat="47.6549" lon="7.51517"><ele>236.2</ele></trkpt>
      <trkpt lat="47.65304" lon="7.51675"><ele>236.1</ele></trkpt>
      <trkpt lat="47.65186" lon="7.51949"><ele>237.1</ele></trkpt>
      <trkpt lat="47.64853" lon="7.52347"><ele>236.5</ele></trkpt>
      <trkpt lat="47.64665" lon="7.52758"><ele>236.1</ele></trkpt>
      <trkpt lat="47.64451" lon="7.53012"><ele>236.9</ele></trkpt>
      <trkpt lat="47.64001" lon="7.53616"><ele>238.4</ele></trkpt>
      <trkpt lat="47.63999" lon="7.5369"><ele>238.5</ele></trkpt>
      <trkpt lat="47.6384" lon="7.53957"><ele>238.5</ele></trkpt>
      <trkpt lat="47.63376" lon="7.54551"><ele>238.6</ele></trkpt>
      <trkpt lat="47.63324" lon="7.54602"><ele>238.6</ele></trkpt>
      <trkpt lat="47.63301" lon="7.54595"><ele>238.6</ele></trkpt>
      <trkpt lat="47.63255" lon="7.547"><ele>238.7</ele></trkpt>
      <trkpt lat="47.62619" lon="7.55516"><ele>239.6</ele></trkpt>
      <trkpt lat="47.62461" lon="7.55662"><ele>240.1</ele></trkpt>
      <trkpt lat="47.61998" lon="7.56245"><ele>241.5</ele></trkpt>
      <trkpt lat="47.61826" lon="7.56383"><ele>241.1</ele></trkpt>
      <trkpt lat="47.61472" lon="7.56984"><ele>241.8</ele></trkpt>
      <trkpt lat="47.61266" lon="7.57377"><ele>242.4</ele></trkpt>
      <trkpt lat="47.61146" lon="7.57493"><ele>242.0</ele></trkpt>
      <trkpt lat="47.60913" lon="7.57517"><ele>241.5</ele></trkpt>
      <trkpt lat="47.60833" lon="7.57559"><ele>241.8</ele></trkpt>
      <trkpt lat="47.60718" lon="7.57698"><ele>242.5</ele></trkpt>
      <trkpt lat="47.60517" lon="7.58129"><ele>242.5</ele></trkpt>
      <trkpt lat="47.60415" lon="7.58267"><ele>242.9</ele></trkpt>
      <trkpt lat="47.60307" lon="7.5835"><ele>243.3</ele></trkpt>
      <trkpt lat="47.60194" lon="7.58392"><ele>243.3</ele></trkpt>
      <trkpt lat="47.60101" lon="7.58388"><ele>243.7</ele></trkpt>
      <trkpt lat="47.6006" lon="7.58437"><ele>244.1</ele></trkpt>
      <trkpt lat="47.60058" lon="7.58737"><ele>247.1</ele></trkpt>
      <trkpt lat="47.60029" lon="7.58835"><ele>248.1</ele></trkpt>
      <trkpt lat="47.60039" lon="7.58903"><ele>248.3</ele></trkpt>
      <trkpt lat="47.60072" lon="7.5896"><ele>248.6</ele></trkpt>
      <trkpt lat="47.60122" lon="7.59649"><ele>249.5</ele></trkpt>
      <trkpt lat="47.60124" lon="7.60052"><ele>249.6</ele></trkpt>
      <trkpt lat="47.60455" lon="7.61168"><ele>265.1</ele></trkpt>
      <trkpt lat="47.60474" lon="7.61319"><ele>266.2</ele></trkpt>
      <trkpt lat="47.60467" lon="7.61473"><ele>267.5</ele></trkpt>
      <trkpt lat="47.60425" lon="7.61644"><ele>269.3</ele></trkpt>
      <trkpt lat="47.60351" lon="7.61786"><ele>271.3</ele></trkpt>
      <trkpt lat="47.6013" lon="7.6205"><ele>273.2</ele></trkpt>
      <trkpt lat="47.59704" lon="7.62704"><ele>278.0</ele></trkpt>
      <trkpt lat="47.59546" lon="7.62888"><ele>279.1</ele></trkpt>
      <trkpt lat="47.59437" lon="7.62972"><ele>280.0</ele></trkpt>
      <trkpt lat="47.59451" lon="7.63055"><ele>280.4</ele></trkpt>
      <trkpt lat="47.59336" lon="7.63337"><ele>281.5</ele></trkpt>
      <trkpt lat="47.59306" lon="7.63515"><ele>281.7</ele></trkpt>
      <trkpt lat="47.5924" lon="7.63539"><ele>281.7</ele></trkpt>
      <trkpt lat="47.59156" lon="7.63808"><ele>280.5</ele></trkpt>
      <trkpt lat="47.59234" lon="7.64086"><ele>276.2</ele></trkpt>
      <trkpt lat="47.59204" lon="7.64344"><ele>272.9</ele></trkpt>
      <trkpt lat="47.59261" lon="7.6454"><ele>271.6</ele></trkpt>
      <trkpt lat="47.59222" lon="7.64631"><ele>271.3</ele></trkpt>
      <trkpt lat="47.59399" lon="7.64816"><ele>271.0</ele></trkpt>
      <trkpt lat="47.59547" lon="7.64935"><ele>271.5</ele></trkpt>
      <trkpt lat="47.59595" lon="7.65011"><ele>272.1</ele></trkpt>
      <trkpt lat="47.59633" lon="7.6499"><ele>272.4</ele></trkpt>
      <trkpt lat="47.59705" lon="7.65031"><ele>273.0</ele></trkpt>
      <trkpt lat="47.59799" lon="7.65046"><ele>273.8</ele></trkpt>
      <trkpt lat="47.59819" lon="7.65078"><ele>274.0</ele></trkpt>
      <trkpt lat="47.60027" lon="7.65078"><ele>275.7</ele></trkpt>
      <trkpt lat="47.60375" lon="7.65236"><ele>277.4</ele></trkpt>
      <trkpt lat="47.60716" lon="7.65431"><ele>277.8</ele></trkpt>
      <trkpt lat="47.6093" lon="7.65431"><ele>279.1</ele></trkpt>
      <trkpt lat="47.61354" lon="7.65301"><ele>281.7</ele></trkpt>
      <trkpt lat="47.6172" lon="7.65363"><ele>282.4</ele></trkpt>
      <trkpt lat="47.61959" lon="7.65325"><ele>284.2</ele></trkpt>
      <trkpt lat="47.6205" lon="7.65345"><ele>285.1</ele></trkpt>
      <trkpt lat="47.62362" lon="7.65658"><ele>288.0</ele></trkpt>
      <trkpt lat="47.6248" lon="7.65824"><ele>289.2</ele></trkpt>
      <trkpt lat="47.62501" lon="7.65871"><ele>289.5</ele></trkpt>
      <trkpt lat="47.62469" lon="7.65916"><ele>289.9</ele></trkpt>
      <trkpt lat="47.62499" lon="7.66164"><ele>289.9</ele></trkpt>
    </trkseg>
  </trk>
</gpx>
